# 2016 10 14 02 54 24.000 42.7419 13.1848 5.96 0 0 0 0 107
ED01 4.2100 1 P
ED08 5.4400 1 P
T1218 1.7200 1 P
T1211 5.9400 1 P
ED02 8.5000 1 S
ED02 4.2800 1 P
ARRO 6.4702 1 P
ED11 2.3000 1 P
T1217 3.6400 1 P
T1212 4.1800 1 S
T1212 1.8000 1 P
T1215 8.7900 1 S
T1215 4.5900 1 P
ED12 3.2000 1 P
ED12 6.3400 1 S
ED10 1.1900 1 P
T1216 3.7800 1 P
T1216 6.8400 1 S
CESI 6.3700 1 P
NRCA 4.2002 1 S
NRCA 2.1402 1 P
FDMO 5.8000 1 P
ED19 3.5400 1 P
ED19 6.9800 1 S
T1245 2.2402 1 P
T1245 4.7702 1 S
MC2 3.4902 1 P
CSP1 12.2700 1 S
CSP1 6.2500 1 P
ED18 4.7600 1 P
ED18 9.4200 1 S
ED21 5.5300 1 P
ED21 10.7400 1 S
ED17 4.3900 1 P
ED17 8.8300 1 S
MMO1 7.1001 1 S
MMO1 3.5001 1 P
ED16 2.6000 1 P
ED16 5.4300 1 S
ED09 3.3800 1 P
ED09 6.8100 1 S
ED20 3.2900 1 P
ED20 6.6500 1 S
TERO 5.9500 1 P
TERO 11.2600 1 S
ED07 4.3700 1 P
T1204 2.5200 1 P
T1246 9.6800 1 S
T1246 5.1200 1 P
ED15 6.3500 1 P
SMA1 3.1000 1 P
GIGS 7.6400 1 P
ED25 3.9200 1 P
T1202 1.1500 1 P
CAMP 5.3700 1 P
T1299 2.7901 1 P
ED14 6.3700 1 P
ED14 12.4100 1 S
T1201 2.2400 1 P
ED05 5.4400 1 P
ED05 10.3900 1 S
RM33 8.5000 1 S
RM33 4.3600 1 P
ED24 1.7200 1 P
ED03 5.4300 1 S
ED03 2.7200 1 P
# 2016 10 14 02 56 22.657 42.8760 13.2414 2.55 0 0 0 0 108
T1218 4.9329 1 P
ED10 4.5629 1 S
T1212 7.1629 1 S
T1245 1.9731 1 S
T1245 0.8331 1 P
NRCA 3.9831 1 S
ED19 1.6429 1 P
ED19 3.4029 1 S
MC2 2.8231 1 S
FDMO 7.5929 1 S
ED18 4.7129 1 S
ED21 6.0829 1 S
ED22 5.8429 1 S
ED17 3.7829 1 S
ED17 1.9129 1 P
MMO1 2.6330 1 S
MMO1 1.2330 1 P
ED16 2.4329 1 S
# 2016 10 14 03 00 00.446 42.5867 13.3594 8.70 0 0 0 0 109
ED01 3.9840 1 P
ED01 7.6340 1 S
ED04 3.0840 1 S
ED03 2.6840 1 P
ED11 9.1640 1 S
ED24 3.0740 1 P
ED24 5.7540 1 S
T1212 9.7540 1 S
ED12 12.4540 1 S
T1299 2.0041 1 P
T1299 3.7240 1 S
T1201 4.8640 1 S
NRCA 10.6042 1 S
T1214 7.7840 1 S
T1204 2.2040 1 P
T1204 4.0640 1 S
SMA1 1.6140 1 P
ED18 14.4440 1 S
ED16 9.2840 1 S
ED25 1.2740 1 P
ED07 3.8540 1 S
ED07 2.1740 1 P
TERO 6.6940 1 S
TERO 3.5840 1 P
T1246 4.2940 1 S
T1246 2.3240 1 P
ED15 3.1140 1 P
GIGS 7.2440 1 S
CAMP 1.7440 1 P
CAMP 3.2940 1 S
ED14 3.0740 1 P
ED14 5.7340 1 S
ED05 2.3740 1 P
ED05 4.5040 1 S
# 2016 10 14 03 00 53.506 42.8121 13.0686 4.74 0 0 0 0 110
ED11 2.6138 1 P
ED11 5.1838 1 S
T1212 1.3438 1 P
ED02 8.7238 1 S
T1215 5.6538 1 S
T1215 3.0138 1 P
ED12 1.1638 1 P
T1216 1.9438 1 P
FDMO 8.3238 1 S
ED21 9.5838 1 S
ED18 8.4238 1 S
MC2 5.6540 1 S
ED22 10.0338 1 S
ED17 8.6038 1 S
NRCA 0.8740 1 P
T1245 4.2140 1 S
MMO1 7.7539 1 S
ED20 10.0238 1 S
T1246 13.4838 1 S
# 2016 10 14 03 01 55.384 42.7472 13.1824 4.92 0 0 0 0 111
T1218 1.9459 1 P
T1218 3.8359 1 S
ED02 4.5659 1 P
ED02 8.5259 1 S
ED11 2.5259 1 P
T1217 7.2659 1 S
T1212 2.1459 1 P
T1215 8.5359 1 S
ED12 6.1459 1 S
ED10 1.1559 1 P
NRCA 2.0361 1 P
NRCA 3.8061 1 S
ED19 6.5059 1 S
CSP1 12.4259 1 S
MC2 6.9061 1 S
ED18 9.0759 1 S
ED21 10.4959 1 S
ED22 10.4659 1 S
ED17 4.5259 1 P
ED17 8.5459 1 S
MMO1 3.5160 1 P
MMO1 6.7860 1 S
ED16 2.6159 1 P
ED16 5.1159 1 S
T1214 0.6859 1 P
TERO 11.5959 1 S
T1246 9.8559 1 S
T1202 2.2759 1 S
ED25 7.7459 1 S
T1201 4.7059 1 S
T1201 2.3659 1 P
ED05 10.8459 1 S
ED24 3.7559 1 S
ED24 1.8259 1 P
# 2016 10 14 03 02 26.930 42.8863 13.1448 4.40 0 0 0 0 112
ED10 2.4198 1 P
ED01 12.7298 1 S
ED08 15.5198 1 S
NRCA 1.4600 1 P
T1212 5.5398 1 S
T1212 3.2898 1 P
ED02 11.4398 1 S
T1211 14.6498 1 S
T1217 8.6998 1 S
ED12 3.1098 1 P
ED12 5.6998 1 S
T1215 4.3998 1 P
T1216 2.0598 1 P
CESI 8.0400 1 S
CESI 4.2898 1 P
FEMA 4.2698 1 S
FDMO 3.2398 1 P
FDMO 6.4898 1 S
ED19 0.8498 1 P
CSP1 8.0798 1 S
ED21 3.5498 1 P
ED21 6.5898 1 S
ED18 2.7598 1 P
GUMA 8.9201 1 S
ED22 7.1498 1 S
MC2 1.5800 1 S
ED17 5.6698 1 S
ED17 3.0298 1 P
MMO1 2.9199 1 P
MMO1 5.4599 1 S
ED16 5.4598 1 S
ED16 2.8698 1 P
ED09 4.4098 1 P
ED20 9.2198 1 S
ED20 4.9198 1 P
TERO 8.0498 1 P
TERO 14.9398 1 S
ED07 12.3698 1 S
T1246 13.8398 1 S
T1204 9.4698 1 S
T1299 10.5098 1 S
ED05 15.3298 1 S
T1201 9.7298 1 S
T1202 7.7398 1 S
ED24 4.6698 1 P
ED03 10.4698 1 S
ED03 5.7698 1 P
# 2016 10 14 03 03 55.059 42.8613 13.0944 5.32 0 0 0 0 113
ED11 3.7410 1 P
ED11 7.0110 1 S
T1212 2.3910 1 P
T1212 4.5010 1 S
ED02 10.1310 1 S
T1211 13.5110 1 S
T1217 7.2910 1 S
T1217 3.8610 1 P
ED12 2.0510 1 P
ED12 3.7410 1 S
T1215 6.6010 1 S
T1215 3.4910 1 P
T1216 2.5610 1 S
T1216 1.3310 1 P
CESI 7.3512 1 S
FEMA 4.7910 1 S
FDMO 6.5410 1 S
FDMO 3.4610 1 P
CSP1 9.0510 1 S
ED19 1.4210 1 P
ED19 3.0810 1 S
ED21 4.1010 1 P
ED21 7.8110 1 S
ED18 3.3510 1 P
ED17 3.6210 1 P
MMO1 3.4311 1 P
MMO1 6.6511 1 S
T1245 3.0912 1 S
T1245 1.4912 1 P
ED09 4.7610 1 P
ED09 9.1110 1 S
ED20 9.7110 1 S
TERO 15.3810 1 S
T1246 13.9510 1 S
T1214 2.8510 1 P
T1214 5.0210 1 S
NRCA 0.7212 1 P
ED10 3.6610 1 S
ED10 2.0210 1 P
ED24 4.2510 1 P
# 2016 10 14 03 04 14.841 42.8556 13.1551 6.84 0 0 0 0 114
ED11 7.5891 1 S
T1212 5.1091 1 S
T1212 2.6391 1 P
T1217 8.0791 1 S
NRCA 1.6093 1 P
ED12 5.2091 1 S
CESI 8.9393 1 S
FDMO 7.3291 1 S
ED19 3.0291 1 S
MC2 1.6193 1 P
ED21 3.8691 1 P
ED21 7.5691 1 S
MNTP 12.4691 1 S
ED22 7.7391 1 S
ED17 3.1991 1 P
ED17 6.1191 1 S
MMO1 5.2092 1 S
MMO1 2.7592 1 P
ED16 4.6091 1 S
ED09 7.8491 1 S
ED20 4.3191 1 P
TERO 7.3791 1 P
ED07 5.9091 1 P
T1246 6.7291 1 P
ED14 16.2491 1 S
ED05 14.1191 1 S
ED05 7.5091 1 P
T1214 4.1391 1 S
T1201 4.4091 1 P
ED03 5.1191 1 P
# 2016 10 14 03 06 42.868 42.8338 13.1579 8.89 0 0 0 0 115
T1218 3.3118 1 P
ED10 1.7018 1 P
ED10 3.2318 1 S
ED11 3.3618 1 P
ED11 6.7918 1 S
ED02 5.2718 1 P
ED02 10.0518 1 S
T1211 13.4418 1 S
T1212 4.8418 1 S
T1212 2.4518 1 P
ED12 2.8418 1 P
ED12 5.0718 1 S
T1215 7.8718 1 S
NRCA 1.3720 1 P
T1216 4.7618 1 S
T1216 2.5018 1 P
CESI 4.8218 1 P
CESI 9.0120 1 S
FEMA 5.9118 1 S
FDMO 7.5918 1 S
FDMO 4.0518 1 P
ED19 2.0218 1 P
ED19 4.0918 1 S
CSP1 9.4618 1 S
CSP1 4.9918 1 P
MC2 2.1520 1 P
ED18 3.4518 1 P
ED18 6.5918 1 S
ED21 4.1418 1 P
ED21 7.8018 1 S
ED17 3.3818 1 P
ED17 6.3218 1 S
T1245 1.4820 1 P
T1245 3.1020 1 S
MMO1 2.9419 1 P
MMO1 5.5419 1 S
ED16 4.9618 1 S
ED09 7.2018 1 S
ED09 3.8618 1 P
ED20 4.1118 1 P
ED20 7.8918 1 S
TERO 13.2018 1 S
TERO 7.0118 1 P
ED07 10.6718 1 S
ED07 5.7118 1 P
T1246 11.9418 1 S
T1246 6.4118 1 P
SMA1 4.6018 1 P
ED25 9.9018 1 S
T1214 1.9718 1 P
T1214 4.2918 1 S
T1299 4.5019 1 P
T1299 8.3918 1 S
ED05 13.1018 1 S
T1201 3.9918 1 P
T1202 5.9218 1 S
ED24 6.8618 1 S
ED24 3.5118 1 P
RM33 11.2918 1 S
ED03 8.5818 1 S
ED03 4.3918 1 P
# 2016 10 14 03 09 32.375 42.7846 13.1161 4.84 0 0 0 0 116
ARRO 11.4958 1 S
NRCA 2.2457 1 S
CSP1 11.6055 1 S
ED18 8.4855 1 S
ED21 9.6655 1 S
T1245 3.5257 1 S
ED17 8.1755 1 S
MMO1 7.2356 1 S
ED16 5.8955 1 S
ED09 4.3255 1 P
ED20 8.4155 1 S
ED20 4.4455 1 P
ED10 0.5955 1 P
T1214 2.8755 1 S
T1214 1.5955 1 P
T1246 6.4955 1 P
T1246 12.0955 1 S
ED24 2.9755 1 P
# 2016 10 14 03 11 03.227 42.6621 13.1681 8.76 0 0 0 0 117
ED01 6.0433 1 S
ED02 3.9033 1 P
T1217 7.2033 1 S
ED11 2.6833 1 P
T1218 3.3333 1 S
T1218 1.8333 1 P
ED12 7.7133 1 S
T1212 5.3233 1 S
T1212 2.9733 1 P
NRCA 6.6035 1 S
T1245 7.9735 1 S
T1214 4.5933 1 S
T1202 3.9733 1 S
ED20 4.0933 1 P
T1201 3.9033 1 S
ED24 1.6333 1 P
ED24 3.1433 1 S
ED07 8.0133 1 S
ED07 4.3633 1 P
SMA1 5.5433 1 S
ED03 3.3833 1 S
RM33 6.2733 1 S
# 2016 10 14 03 12 47.766 42.8350 13.1589 8.38 0 0 0 0 118
ED10 3.0240 1 S
CESI 8.9342 1 S
ED19 3.9040 1 S
MC2 4.1042 1 S
ED18 6.4340 1 S
ED18 3.2840 1 P
ED21 3.9640 1 P
ED21 7.6140 1 S
T1245 1.3942 1 P
ED17 6.3440 1 S
ED17 3.2440 1 P
MMO1 5.6941 1 S
ED20 7.7140 1 S
T1214 1.9640 1 P
T1214 3.9240 1 S
T1201 3.8040 1 P
ED24 3.3840 1 P
# 2016 10 14 03 13 47.493 42.7082 13.1763 9.19 0 0 0 0 119
ED01 4.0165 1 P
ED01 7.3165 1 S
T1211 10.2265 1 S
T1218 1.9065 1 P
T1218 3.5565 1 S
ED02 4.6065 1 P
ED02 7.6865 1 S
ED11 2.5265 1 P
ED11 4.6265 1 S
T1217 6.8665 1 S
T1215 8.8765 1 S
T1212 2.5265 1 P
ED12 3.8065 1 P
ED12 6.8765 1 S
NRCA 2.8767 1 P
NRCA 5.4767 1 S
FDMO 6.3565 1 P
ED19 4.3865 1 P
T1214 3.5365 1 S
T1214 1.9365 1 P
ED17 9.7465 1 S
MMO1 8.1866 1 S
ED16 6.6665 1 S
ED09 7.5265 1 S
ED20 3.7565 1 P
ED20 6.9965 1 S
T1202 1.7965 1 P
T1202 3.3365 1 S
ED07 4.4465 1 P
T1246 9.3565 1 S
SMA1 3.2965 1 P
T1299 4.8465 1 S
T1201 4.2265 1 S
T1201 2.2865 1 P
ED14 11.4765 1 S
ED05 5.1765 1 P
ED05 9.5765 1 S
RM33 3.9965 1 P
ED24 1.8465 1 P
ED24 3.4565 1 S
ED03 4.7165 1 S
# 2016 10 14 03 15 47.937 42.8120 13.2143 6.24 0 0 0 0 120
T1214 1.4828 1 P
T1214 2.8228 1 S
ED24 6.4028 1 S
T1218 6.1728 1 S
ED02 10.4028 1 S
ED11 7.0328 1 S
ED10 1.6628 1 P
ED10 2.7128 1 S
T1212 2.8228 1 P
T1212 5.1528 1 S
T1217 8.6228 1 S
NRCA 1.6830 1 P
ED19 4.6628 1 S
T1245 1.3530 1 P
ED17 6.4328 1 S
MMO1 4.8629 1 S
ED16 3.1328 1 S
ED16 1.9528 1 P
ED09 3.1028 1 P
ED20 6.4128 1 S
ED20 3.4028 1 P
TERO 11.9428 1 S
T1246 10.7428 1 S
ED05 12.3628 1 S
# 2016 10 14 03 17 25.877 42.8723 13.0798 3.49 0 0 0 0 121
ED11 7.1134 1 S
T1212 2.5834 1 P
T1217 7.2434 1 S
ED12 2.0634 1 P
ED12 4.1034 1 S
T1215 3.2734 1 P
T1216 1.0634 1 P
FDMO 6.0934 1 S
FDMO 3.3034 1 P
CSP1 8.8034 1 S
ED21 4.2334 1 P
ED21 8.0634 1 S
ED19 1.5534 1 P
ED18 3.4234 1 P
ED17 3.8034 1 P
MMO1 3.7235 1 P
MMO1 7.0735 1 S
ED16 6.9334 1 S
ED20 10.3534 1 S
NRCA 1.2136 1 P
NRCA 1.7636 1 S
ED10 4.8134 1 S
T1218 8.2034 1 S
# 2016 10 14 03 18 52.890 42.8690 13.2284 4.05 0 0 0 0 122
T1202 3.5395 1 P
RM33 6.9095 1 P
ED03 5.3095 1 P
ED03 10.1295 1 S
ED24 4.2995 1 P
T1214 2.2095 1 P
ED01 6.7695 1 P
ED08 8.0195 1 P
T1218 8.5695 1 S
T1218 4.2295 1 P
ED10 4.3495 1 S
ED10 2.3195 1 P
ED11 4.5995 1 P
T1211 8.4095 1 P
ED02 6.5795 1 P
T1212 3.5595 1 P
T1212 7.0995 1 S
T1217 5.3695 1 P
NRCA 2.0597 1 P
NRCA 3.5497 1 S
ED12 3.8795 1 P
T1215 10.4095 1 S
T1215 5.3395 1 P
T1216 3.1895 1 P
CESI 5.5395 1 P
FEMA 6.6395 1 S
ED19 3.6595 1 S
ED19 1.8995 1 P
MC2 1.3597 1 P
FDMO 4.0695 1 P
FDMO 7.6595 1 S
CSP1 4.6395 1 P
ED18 2.5895 1 P
ED21 3.3595 1 P
ED17 4.6395 1 S
ED17 2.1395 1 P
ED09 3.3095 1 P
ED16 1.3595 1 P
ED20 3.8795 1 P
ED20 7.4395 1 S
TERO 7.0195 1 P
TERO 13.3195 1 S
ED15 7.6895 1 P
T1246 12.5695 1 S
T1246 6.5395 1 P
ED07 5.7095 1 P
GIGS 17.1895 1 S
CAMP 12.8195 1 S
CAMP 6.7495 1 P
ED14 8.5995 1 P
ED25 5.9795 1 P
T1204 4.1795 1 P
SMA1 4.8595 1 P
ED05 14.6095 1 S
T1299 4.8696 1 P
T1201 4.6095 1 P
# 2016 10 14 03 20 17.140 42.8643 13.2262 -0.03 0 0 0 0 123
T1214 4.2597 1 S
ED10 4.0297 1 S
NRCA 1.7999 1 P
T1245 0.4999 1 P
ED19 1.7197 1 P
ED19 3.4097 1 S
MC2 1.2699 1 P
ED18 5.2797 1 S
ED21 6.7097 1 S
ED22 6.4397 1 S
ED17 2.2597 1 P
MMO1 1.5398 1 P
MMO1 3.1398 1 S
ED16 1.3697 1 P
ED16 2.7297 1 S
ED20 3.6597 1 P
ED20 7.1297 1 S
# 2016 10 14 03 21 02.811 42.8146 13.2136 5.01 0 0 0 0 124
T1214 2.7786 1 S
T1218 6.3386 1 S
ED02 10.4586 1 S
ED11 7.0386 1 S
ED10 2.8686 1 S
ED10 1.5286 1 P
T1212 2.8486 1 P
T1212 5.3686 1 S
T1217 8.6886 1 S
NRCA 1.6488 1 P
ED19 4.8686 1 S
T1245 2.0688 1 S
T1245 1.3388 1 P
FDMO 8.8086 1 S
MC2 4.2888 1 S
ED17 6.4386 1 S
ED16 3.4586 1 S
ED09 3.0186 1 P
ED20 3.2986 1 P
ED20 6.2986 1 S
TERO 6.3286 1 P
T1246 10.6786 1 S
# 2016 10 14 03 25 34.273 42.8507 13.0776 5.38 0 0 0 0 125
ED11 6.1366 1 S
T1212 1.8266 1 P
ED02 9.4766 1 S
T1217 3.4466 1 P
T1217 6.6466 1 S
ED12 1.5066 1 P
T1215 6.0266 1 S
T1215 3.1066 1 P
T1216 1.0366 1 P
CESI 7.4068 1 S
FDMO 6.7566 1 S
FDMO 3.5966 1 P
CSP1 9.4166 1 S
ED19 1.5866 1 P
ED19 3.6366 1 S
ED21 8.1866 1 S
ED22 8.9366 1 S
MC2 2.1568 1 P
ED17 3.8866 1 P
ED17 7.5266 1 S
MMO1 6.7367 1 S
T1245 1.5268 1 P
ED16 6.3666 1 S
ED09 9.7166 1 S
ED20 9.7366 1 S
T1246 13.8066 1 S
T1214 4.8766 1 S
T1299 9.9066 1 S
T1201 4.6566 1 P
ED10 1.7166 1 P
ED24 7.9066 1 S
RM33 12.7466 1 S
T1218 6.7066 1 S
# 2016 10 14 03 29 47.446 42.8017 13.2465 5.33 0 0 0 0 126
ED24 6.0537 1 S
T1214 0.9137 1 P
T1218 6.1537 1 S
ED11 6.7437 1 S
T1217 8.9737 1 S
T1212 6.0537 1 S
ED10 3.8337 1 S
NRCA 1.7939 1 P
ED19 5.3137 1 S
ED18 7.1637 1 S
ED21 8.4137 1 S
ED17 3.3037 1 P
ED17 6.2337 1 S
MMO1 4.3938 1 S
MMO1 2.2638 1 P
ED16 1.2837 1 P
ED16 2.7437 1 S
ED20 5.4737 1 S
TERO 11.3437 1 S
T1246 10.0537 1 S
# 2016 10 14 03 31 33.416 42.6717 13.1781 11.02 0 0 0 0 127
ED01 6.6543 1 S
T1218 3.8543 1 S
T1218 2.1343 1 P
ED11 2.7443 1 P
ED11 4.9543 1 S
T1217 7.2243 1 S
T1212 5.4343 1 S
ED12 7.8743 1 S
SEF1 18.2845 1 S
NRCA 6.6545 1 S
T1245 7.8845 1 S
T1214 2.6543 1 P
T1214 5.0043 1 S
ED09 8.1943 1 S
ED20 7.5343 1 S
T1201 2.4143 1 P
TERO 11.0343 1 S
ED07 8.2843 1 S
ED07 4.4843 1 P
ED24 2.0043 1 P
ED24 3.8543 1 S
SMA1 5.7843 1 S
SMA1 3.3143 1 P
T1299 2.4944 1 P
T1246 9.1443 1 S
ED25 6.7143 1 S
ED14 10.7843 1 S
ED05 8.9743 1 S
ED03 2.3843 1 P
ED03 4.3843 1 S
RM33 6.8443 1 S
# 2016 10 14 03 35 25.853 42.8754 13.0786 4.75 0 0 0 0 128
ED11 6.9366 1 S
T1212 4.7666 1 S
T1212 2.4566 1 P
T1217 7.5766 1 S
ED12 2.0566 1 P
T1215 6.1966 1 S
T1216 0.9566 1 P
FDMO 6.1866 1 S
ED19 1.4066 1 P
ED19 2.3766 1 S
ED17 3.6966 1 P
MMO1 6.9267 1 S
NRCA 1.0568 1 P
NRCA 2.1968 1 S
ED10 4.5666 1 S
ED24 8.6766 1 S
T1218 7.9366 1 S
# 2016 10 14 03 36 04.249 42.8382 13.2994 2.94 0 0 0 0 129
T1299 4.2209 1 P
ED06 13.9908 1 S
T1201 4.1408 1 P
ED03 5.0108 1 P
T1202 3.2408 1 P
ED24 4.0408 1 P
ED01 13.1408 1 S
ED01 6.6008 1 P
ED16 0.0008 1 P
T1218 8.9108 1 S
T1218 4.2908 1 P
T1211 16.3408 1 S
ED02 6.8108 1 P
ED11 4.7708 1 P
ED10 5.3708 1 S
ED10 2.4408 1 P
T1212 3.9508 1 P
ED12 4.6508 1 P
T1215 6.0708 1 P
T1216 4.0908 1 P
CESI 6.5408 1 P
ED19 2.7508 1 P
MC2 2.2510 1 P
FDMO 4.8008 1 P
FDMO 10.1308 1 S
ED18 3.2308 1 P
CSP1 5.2408 1 P
ED21 3.9508 1 P
ED17 2.6608 1 P
MMO1 1.5709 1 P
ED20 2.6608 1 P
TERO 6.0708 1 P
ED15 6.9508 1 P
T1246 11.1508 1 S
T1246 5.7108 1 P
ED07 4.8408 1 P
GIGS 8.4008 1 P
GIGS 15.6808 1 S
CAMP 5.9808 1 P
CAMP 11.6108 1 S
ED14 7.6408 1 P
ED25 4.7708 1 P
ED25 9.5608 1 S
ED05 6.9108 1 P
SMA1 4.1308 1 P
SMA1 8.1908 1 S
T1204 3.3908 1 P
# 2016 10 14 03 36 48.094 42.7523 13.2601 12.87 0 0 0 0 130
T1201 5.8856 1 S
ED24 3.6556 1 P
ED24 5.9656 1 S
T1202 5.1656 1 S
T1218 3.9756 1 P
T1218 6.4756 1 S
ED11 4.6256 1 P
T1214 4.9756 1 S
ED10 5.7156 1 S
NRCA 6.8758 1 S
SEF1 8.6358 1 P
ED09 6.7156 1 S
ED20 6.5256 1 S
ED07 8.3956 1 S
T1204 3.4556 1 P
SMA1 6.3656 1 S
T1299 6.1956 1 S
# 2016 10 14 03 37 36.678 42.9245 13.1828 5.85 0 0 0 0 131
ED24 10.3420 1 S
MC2 1.0622 1 P
T1218 9.4420 1 S
ED10 5.5220 1 S
ED11 9.3220 1 S
NRCA 4.0422 1 S
ED02 12.7120 1 S
T1212 7.4120 1 S
T1212 4.0520 1 P
T1217 10.1720 1 S
ED12 7.4020 1 S
T1215 9.5120 1 S
ED19 1.0920 1 P
T1216 4.7420 1 S
FEMA 4.5720 1 S
CESI 8.1122 1 S
FDMO 5.0720 1 S
FDMO 2.7020 1 P
ED21 4.7920 1 S
ED21 2.5220 1 P
ED18 3.5920 1 S
ED17 4.0520 1 S
ED17 2.0320 1 P
MMO1 2.2221 1 P
MMO1 4.3021 1 S
TERO 15.0120 1 S
ED20 9.0020 1 S
ED16 5.0620 1 S
T1246 8.0320 1 P
T1214 6.4120 1 S
# 2016 10 14 03 38 27.109 42.8155 13.1809 8.32 0 0 0 0 132
ED02 5.3408 1 P
ED02 9.7208 1 S
T1217 7.8808 1 S
T1212 5.0908 1 S
T1215 4.3608 1 P
ED12 3.0308 1 P
NRCA 1.5010 1 P
NRCA 2.9810 1 S
T1216 2.8208 1 P
T1216 5.2908 1 S
CESI 5.2008 1 P
CESI 9.7910 1 S
FDMO 4.5108 1 P
ED19 2.3808 1 P
ED19 4.4208 1 S
T1245 3.0410 1 S
T1245 1.4410 1 P
MC2 4.7110 1 S
CSP1 10.0308 1 S
ED21 4.3708 1 P
ED21 8.0008 1 S
ED17 3.4308 1 P
ED17 6.3708 1 S
MMO1 2.8209 1 P
MMO1 5.3509 1 S
ED09 6.8608 1 S
ED09 3.4708 1 P
ED20 3.7808 1 P
ED20 7.3008 1 S
T1246 11.3908 1 S
T1214 1.1008 1 P
# 2016 10 14 03 38 57.627 42.8949 13.2398 4.77 0 0 0 0 133
T1214 5.5329 1 S
T1218 9.0029 1 S
ED10 5.1029 1 S
T1245 1.1531 1 P
T1212 7.4729 1 S
NRCA 3.8231 1 S
NRCA 2.1231 1 P
ED12 7.8629 1 S
T1216 3.1229 1 P
T1216 6.0129 1 S
ED19 1.5329 1 P
CESI 9.6931 1 S
MC2 1.9431 1 S
MC2 1.0131 1 P
FDMO 6.4829 1 S
CSP1 7.4829 1 S
ED18 4.0129 1 S
ED18 2.1129 1 P
ED21 5.1229 1 S
ED22 4.9929 1 S
ED17 3.3129 1 S
ED17 1.6829 1 P
MMO1 2.6230 1 S
MMO1 1.2730 1 P
ED20 7.3329 1 S
ED16 3.2629 1 S
# 2016 10 14 03 40 02.105 42.7846 13.1507 4.59 0 0 0 0 134
ED01 9.6248 1 S
ED11 2.8548 1 P
ED11 5.0848 1 S
T1212 3.3848 1 S
T1212 1.7548 1 P
ED12 2.6848 1 P
T1216 5.8048 1 S
CESI 10.3650 1 S
NRCA 1.0950 1 P
ED19 2.9348 1 P
ED19 5.3048 1 S
ED21 9.5148 1 S
T1245 3.3450 1 S
T1245 1.6650 1 P
ED17 8.0548 1 S
ED17 4.1948 1 P
MMO1 3.5049 1 P
ED09 7.8248 1 S
ED20 8.0448 1 S
TERO 13.1148 1 S
T1214 1.0548 1 P
T1246 11.7648 1 S
ED24 2.6148 1 P
# 2016 10 14 03 41 28.001 42.7488 13.2141 7.06 0 0 0 0 135
ED03 3.4093 1 P
ED03 5.8093 1 S
ED24 4.3293 1 S
T1218 4.6693 1 S
T1218 2.5093 1 P
ED02 5.0793 1 P
ED11 3.1193 1 P
T1212 2.8193 1 P
T1215 9.4693 1 S
ED10 3.1893 1 S
NRCA 2.5895 1 P
NRCA 4.6395 1 S
ED19 7.2393 1 S
ED19 3.8793 1 P
ED18 9.4493 1 S
ED21 10.5293 1 S
ED22 10.2593 1 S
ED17 8.3993 1 S
MMO1 6.5294 1 S
ED16 5.2493 1 S
ED09 6.3693 1 S
TERO 11.2393 1 S
T1246 9.4793 1 S
T1246 5.1393 1 P
ED14 6.5593 1 P
T1299 2.9394 1 P
ED05 5.6793 1 P
T1201 2.5493 1 P
T1202 1.7693 1 P
RM33 9.1093 1 S
# 2016 10 14 03 42 37.117 42.7437 13.1492 10.58 0 0 0 0 136
T1218 4.9633 1 S
ED02 8.8033 1 S
ED11 5.1033 1 S
T1212 2.5833 1 P
T1215 4.6233 1 P
NRCA 2.9735 1 P
FDMO 5.6933 1 P
ED19 4.2033 1 P
ED19 7.2033 1 S
T1245 6.0235 1 S
ED17 5.4233 1 P
MMO1 4.6334 1 P
MMO1 8.0934 1 S
T1214 4.1033 1 S
T1202 2.7933 1 P
T1299 6.4433 1 S
T1201 3.3833 1 P
T1201 5.7933 1 S
ED05 11.1833 1 S
ED24 3.1733 1 P
ED24 5.0433 1 S
ED03 6.3933 1 S
# 2016 10 14 03 43 00.533 42.8730 13.0732 5.17 0 0 0 0 137
T1212 2.5574 1 P
T1212 4.8774 1 S
ED11 3.8974 1 P
ED11 7.0374 1 S
ED02 10.2574 1 S
T1217 7.2874 1 S
ED12 2.0774 1 P
ED12 3.9874 1 S
T1215 3.3274 1 P
T1215 6.2774 1 S
T1216 1.0474 1 P
T1216 2.0674 1 S
CESI 6.6976 1 S
FDMO 3.1974 1 P
FDMO 6.2674 1 S
CSP1 4.5874 1 P
ED21 4.0874 1 P
ED21 7.8574 1 S
ED18 3.3874 1 P
ED19 1.3974 1 P
ED22 8.6374 1 S
ED17 7.1374 1 S
ED17 3.7574 1 P
MC2 4.0476 1 S
MMO1 3.6475 1 P
T1245 1.8676 1 P
T1245 3.3776 1 S
ED16 6.6674 1 S
ED09 9.5874 1 S
T1246 14.8574 1 S
NRCA 1.1676 1 P
T1214 5.6374 1 S
T1201 5.2574 1 P
ED10 2.2274 1 P
ED10 4.2074 1 S
ED05 15.6674 1 S
ED24 4.4874 1 P
ED24 8.4974 1 S
RM33 13.5274 1 S
# 2016 10 14 03 44 48.888 42.8993 13.2628 5.94 0 0 0 0 138
T1214 5.7219 1 S
T1218 9.4219 1 S
ED10 2.9419 1 P
ED10 5.5019 1 S
T1212 7.8919 1 S
T1245 1.4821 1 P
NRCA 2.5221 1 P
ED12 8.4619 1 S
T1216 6.5919 1 S
ED19 1.9819 1 P
MC2 1.3221 1 P
MC2 2.6421 1 S
FDMO 6.9319 1 S
CSP1 7.4819 1 S
ED18 4.0319 1 S
ED21 4.9019 1 S
ED22 4.8219 1 S
ED17 1.5719 1 P
MMO1 1.0620 1 P
ED09 5.8319 1 S
ED20 7.2219 1 S
ED16 3.1419 1 S
# 2016 10 14 03 48 22.060 42.7408 13.1760 9.14 0 0 0 0 139
T1218 2.1905 1 P
T1218 4.1805 1 S
ED11 5.1805 1 S
T1212 4.4805 1 S
ED12 3.5205 1 P
ED12 6.3505 1 S
ED10 3.3205 1 S
NRCA 4.7407 1 S
ED19 7.0405 1 S
ED17 9.0905 1 S
ED17 4.6305 1 P
MMO1 7.2906 1 S
MMO1 3.8406 1 P
T1214 3.2905 1 S
ED16 5.8405 1 S
T1299 5.6405 1 S
T1201 2.6005 1 P
ED05 10.3905 1 S
ED24 2.2305 1 P
ED24 4.2105 1 S
ED03 5.5805 1 S
# 2016 10 14 03 50 32.396 42.7994 13.2320 3.17 0 0 0 0 140
T1202 3.9341 1 S
ED03 7.7841 1 S
ED24 2.6541 1 P
ED24 5.8541 1 S
T1214 0.7641 1 P
T1218 5.8241 1 S
T1218 2.8941 1 P
ED10 1.2941 1 P
T1212 5.7441 1 S
T1212 2.9241 1 P
T1245 2.5743 1 S
ED19 5.5041 1 S
ED21 8.8241 1 S
ED17 6.7541 1 S
MMO1 4.8742 1 S
ED16 3.1841 1 S
ED09 5.2741 1 S
ED20 3.1441 1 P
# 2016 10 14 03 51 00.552 42.7430 13.1741 8.37 0 0 0 0 141
T1218 4.2183 1 S
T1211 10.8083 1 S
ED11 5.0983 1 S
T1217 6.9983 1 S
ED10 2.7183 1 S
NRCA 4.2585 1 S
NRCA 2.2385 1 P
ED19 6.8383 1 S
MMO1 3.6984 1 P
ED16 5.5183 1 S
T1214 1.3383 1 P
T1246 9.8183 1 S
T1202 3.2783 1 S
T1201 2.5183 1 P
ED24 2.1083 1 P
ED24 4.0083 1 S
ED03 2.9183 1 P
# 2016 10 14 03 54 34.012 42.5856 13.3591 6.76 0 0 0 0 142
ED04 2.8276 1 S
ED24 5.5476 1 S
T1299 1.7377 1 P
T1299 3.4576 1 S
T1204 1.9576 1 P
T1204 3.7976 1 S
SMA1 1.3576 1 P
ED25 1.0576 1 P
ED07 1.9176 1 P
ED07 3.7876 1 S
TERO 3.3276 1 P
T1246 2.0576 1 P
T1246 4.0176 1 S
CAMP 2.9576 1 S
ED14 2.8076 1 P
ED14 5.5276 1 S
# 2016 10 14 03 56 56.975 42.8207 13.2150 4.65 0 0 0 0 143
T1214 1.1948 1 P
ED03 4.3948 1 P
ED03 8.4748 1 S
T1218 6.7848 1 S
ED02 10.6848 1 S
ED10 1.5548 1 P
T1212 5.3848 1 S
ED12 6.4848 1 S
NRCA 1.4850 1 P
ED19 2.3748 1 P
ED19 4.5248 1 S
T1245 0.8950 1 P
CSP1 10.1748 1 S
ED18 6.9548 1 S
ED21 7.9348 1 S
ED22 8.0248 1 S
ED17 6.0348 1 S
ED17 3.1448 1 P
MMO1 4.3349 1 S
MMO1 2.2549 1 P
ED16 1.4948 1 P
ED20 6.4848 1 S
TERO 12.2348 1 S
T1246 10.9948 1 S
