# 2016 10 14 00 42 19.339 42.7760 13.1822 7.20 0 0 0 0 36
ED03 3.3512 1 P
ED03 6.5112 1 S
T1218 2.4012 1 P
T1218 4.8012 1 S
T1211 11.8812 1 S
ED02 4.7312 1 P
ED02 8.9212 1 S
ED11 2.7412 1 P
ED11 5.6412 1 S
T1217 3.8512 1 P
T1217 7.2012 1 S
T1212 2.2012 1 P
T1212 4.2512 1 S
ED10 1.1012 1 P
T1215 8.1512 1 S
ED12 3.0312 1 P
ED12 5.6712 1 S
T1216 6.2112 1 S
NRCA 1.7114 1 P
CESI 10.7914 1 S
FDMO 9.6812 1 S
ED19 2.9912 1 P
ED19 5.7312 1 S
T1245 1.9414 1 P
CSP1 5.9712 1 P
ED21 4.9112 1 P
ED21 9.3112 1 S
ED17 4.2212 1 P
ED17 7.5612 1 S
MMO1 3.2513 1 P
MMO1 6.2013 1 S
ED09 6.4712 1 S
ED09 3.3512 1 P
ED20 3.4712 1 P
ED20 6.7412 1 S
TERO 11.7412 1 S
T1246 5.4712 1 P
T1246 10.2512 1 S
T1214 2.3612 1 S
T1214 1.0412 1 P
T1299 3.3813 1 P
T1299 6.4112 1 S
ED05 11.3712 1 S
T1201 5.5412 1 S
T1201 2.8812 1 P
T1202 3.3412 1 S
T1202 1.9512 1 P
RM33 9.7712 1 S
ED24 2.4012 1 P
ED24 4.8712 1 S
# 2016 10 14 00 43 21.358 42.8714 13.0745 4.97 0 0 0 0 37
ED11 3.8422 1 P
ED11 6.9822 1 S
T1212 2.4922 1 P
T1212 4.8122 1 S
T1217 7.4622 1 S
ED12 1.9822 1 P
ED12 3.8822 1 S
T1215 3.2622 1 P
T1216 0.9222 1 P
FDMO 6.2122 1 S
ED19 1.4422 1 P
ED18 3.4522 1 P
ED22 8.5822 1 S
ED17 7.2722 1 S
ED17 3.7422 1 P
MMO1 7.0123 1 S
ED20 10.3522 1 S
NRCA 1.0424 1 P
ED10 2.2322 1 P
ED24 8.6922 1 S
# 2016 10 14 00 43 35.947 42.7790 13.2530 5.83 0 0 0 0 38
T1201 2.6830 1 P
T1202 1.6930 1 P
T1202 3.4730 1 S
ED03 3.5630 1 P
ED03 7.1530 1 S
ED24 5.5830 1 S
T1218 5.5830 1 S
T1218 2.9330 1 P
ED02 10.3830 1 S
T1214 1.0930 1 P
T1214 2.2130 1 S
ED10 3.4430 1 S
ED09 2.6230 1 P
ED09 5.1530 1 S
ED20 5.0430 1 S
ED20 2.7730 1 P
TERO 5.4630 1 P
T1246 4.8430 1 P
T1246 9.0330 1 S
T1204 2.2430 1 P
# 2016 10 14 00 44 49.186 42.7442 13.1847 6.14 0 0 0 0 39
ED01 8.5636 1 S
T1218 1.8336 1 P
ED02 4.4036 1 P
ED02 8.3836 1 S
ED11 2.4336 1 P
T1212 2.1036 1 P
T1215 8.5136 1 S
T1215 4.5036 1 P
ED12 3.2436 1 P
ED12 6.2136 1 S
ED10 1.0936 1 P
CESI 11.6238 1 S
NRCA 4.0238 1 S
NRCA 2.0338 1 P
ED19 6.8836 1 S
CSP1 12.4736 1 S
ED21 10.5836 1 S
ED17 4.5836 1 P
ED17 8.7336 1 S
MMO1 6.9837 1 S
MMO1 3.5637 1 P
ED16 2.6536 1 P
ED16 5.2336 1 S
T1214 0.8136 1 P
ED09 3.4136 1 P
ED09 6.8536 1 S
ED20 6.8136 1 S
ED20 3.3736 1 P
TERO 11.2436 1 S
TERO 5.9036 1 P
ED07 8.5836 1 S
T1246 9.7236 1 S
T1204 2.4736 1 P
T1204 4.9036 1 S
T1202 1.1836 1 P
T1299 2.7737 1 P
T1201 2.2736 1 P
ED24 1.7236 1 P
ED03 2.7536 1 P
# 2016 10 14 00 46 25.901 42.9228 13.1526 7.89 0 0 0 0 40
ED10 2.9389 1 P
T1218 4.8489 1 P
NRCA 2.0791 1 P
ED11 4.8789 1 P
ED11 9.1489 1 S
T1212 3.7989 1 P
T1212 7.0189 1 S
ED19 1.2689 1 P
ED12 6.5089 1 S
ED12 3.6289 1 P
T1216 4.3089 1 S
FDMO 4.9489 1 S
CSP1 6.8289 1 S
ED21 3.0789 1 P
ED21 5.3889 1 S
ED18 4.2389 1 S
ED18 2.3289 1 P
ED22 5.7489 1 S
ED17 2.7289 1 P
MMO1 5.2490 1 S
MC2 1.5191 1 P
MC2 2.9391 1 S
ED09 8.8689 1 S
ED16 5.8089 1 S
ED20 9.4789 1 S
T1245 3.6091 1 S
T1245 1.8791 1 P
T1214 3.4489 1 P
T1202 4.0389 1 P
ED24 4.7889 1 P
# 2016 10 14 00 48 55.705 42.8654 13.1461 2.72 0 0 0 0 41
ED10 1.7846 1 P
ED11 4.2346 1 P
ED11 8.0646 1 S
T1211 14.3946 1 S
T1212 5.5146 1 S
T1212 2.8146 1 P
NRCA 0.5548 1 P
T1217 8.4346 1 S
ED12 2.6446 1 P
T1215 4.1746 1 P
T1216 3.7646 1 S
T1216 1.8646 1 P
FDMO 3.4746 1 P
FDMO 6.8546 1 S
ED19 0.9946 1 P
CSP1 8.9246 1 S
CSP1 4.6946 1 P
ED21 3.8446 1 P
ED21 7.1946 1 S
ED18 5.7346 1 S
ED18 3.0146 1 P
MC2 1.4348 1 P
ED22 7.7546 1 S
ED17 3.2146 1 P
ED17 6.2446 1 S
MMO1 2.9747 1 P
MMO1 5.6047 1 S
ED16 2.7946 1 P
T1245 0.6548 1 P
ED09 8.3746 1 S
ED09 4.3546 1 P
ED20 9.2246 1 S
ED20 4.7446 1 P
TERO 14.7146 1 S
TERO 7.7946 1 P
T1246 13.5646 1 S
T1214 4.6846 1 S
T1214 2.4346 1 P
T1202 3.6546 1 P
ED24 4.3446 1 P
ED24 8.3546 1 S
RM33 13.0646 1 S
# 2016 10 14 00 50 09.164 42.7500 13.1850 4.49 0 0 0 0 42
ED01 9.0459 1 S
T1218 3.9859 1 S
ED02 8.5259 1 S
ED11 2.5159 1 P
T1212 2.1459 1 P
T1212 4.2759 1 S
T1215 8.5559 1 S
ED10 2.0359 1 S
ED10 1.1859 1 P
NRCA 3.8261 1 S
ED19 6.8759 1 S
ED18 9.4059 1 S
ED17 8.6559 1 S
T1214 0.6959 1 P
ED16 5.1559 1 S
ED20 6.5959 1 S
ED07 8.8259 1 S
T1246 9.9159 1 S
T1202 1.2659 1 P
ED24 2.8259 1 S
# 2016 10 14 00 51 09.405 42.8215 13.3433 16.83 0 0 0 0 43
ED25 9.3153 1 S
T1204 7.4253 1 S
T1299 8.5953 1 S
ED03 9.9353 1 S
ED24 8.8753 1 S
ED24 4.9453 1 P
T1202 7.8853 1 S
T1218 9.5353 1 S
ED11 10.5253 1 S
T1214 6.9153 1 S
T1212 9.5753 1 S
ED10 7.9953 1 S
T1215 13.1853 1 S
T1245 6.9055 1 S
ED16 5.6653 1 S
CESI 13.6955 1 S
ED19 8.1453 1 S
FDMO 11.0553 1 S
ED18 8.4353 1 S
CSP1 11.5153 1 S
ED21 9.0853 1 S
ED17 4.0753 1 P
ED17 7.2553 1 S
ED22 8.7253 1 S
ED09 3.0853 1 P
ED09 5.8553 1 S
TERO 5.9553 1 P
ED20 6.1853 1 S
ED20 3.4553 1 P
T1246 10.2053 1 S
T1246 5.7153 1 P
ED07 5.0353 1 P
ED07 8.9453 1 S
# 2016 10 14 00 53 27.376 42.6914 13.1722 9.24 0 0 0 0 44
ED01 3.3642 1 P
ED01 6.4842 1 S
T1211 9.9042 1 S
T1218 1.6542 1 P
ED02 3.8642 1 P
ED02 7.3142 1 S
ED11 2.3442 1 P
ED11 4.5642 1 S
T1217 6.7442 1 S
T1217 3.5842 1 P
T1215 8.8842 1 S
T1212 2.4942 1 P
T1212 4.3542 1 S
ED12 7.1042 1 S
NRCA 5.6244 1 S
ED10 3.9642 1 S
ED10 2.0542 1 P
ED19 8.4342 1 S
ED21 12.0742 1 S
ED17 5.3542 1 P
ED17 10.1042 1 S
T1214 1.9242 1 P
MMO1 8.7343 1 S
ED16 6.7542 1 S
ED09 3.9142 1 P
ED20 3.6442 1 P
T1202 1.5542 1 P
T1204 2.4142 1 P
T1204 4.5842 1 S
ED07 4.1442 1 P
ED07 7.7242 1 S
T1246 9.0742 1 S
SMA1 3.0142 1 P
SMA1 5.4442 1 S
T1201 1.8742 1 P
ED25 6.3742 1 S
T1299 2.2443 1 P
ED14 10.7542 1 S
ED24 3.0042 1 S
ED24 1.4642 1 P
RM33 6.8342 1 S
ED03 2.0842 1 P
ED03 4.0342 1 S
# 2016 10 14 00 57 59.041 42.6582 13.2060 9.44 0 0 0 0 45
RM33 3.2189 1 P
RM33 6.0489 1 S
ED03 3.5889 1 S
ED01 3.3689 1 P
ED24 1.5889 1 P
T1218 3.8489 1 S
T1218 2.0989 1 P
ED11 5.4089 1 S
T1212 5.9389 1 S
ED12 8.6389 1 S
ED10 5.2089 1 S
ED10 2.8789 1 P
NRCA 3.8291 1 P
NRCA 7.1091 1 S
T1214 4.7889 1 S
T1214 2.5389 1 P
T1202 1.9989 1 P
T1202 3.7589 1 S
ED09 4.0189 1 P
T1204 4.2289 1 S
T1201 1.7889 1 P
T1201 3.5089 1 S
ED07 7.1389 1 S
SMA1 4.6689 1 S
T1299 3.5489 1 S
ED14 9.7689 1 S
ED05 4.2089 1 P
ED05 7.8789 1 S
# 2016 10 14 00 59 11.118 42.8027 13.1396 9.90 0 0 0 0 46
ED10 1.6519 1 P
T1218 5.6619 1 S
ED11 2.9819 1 P
ED11 5.6119 1 S
ED02 9.0619 1 S
ED02 4.8019 1 P
T1212 2.3119 1 P
T1212 4.1919 1 S
T1215 4.2219 1 P
T1215 7.7519 1 S
ED12 2.8219 1 P
ED12 5.2319 1 S
NRCA 1.7321 1 P
ED19 2.7919 1 P
ED19 5.1919 1 S
ED18 7.7619 1 S
ED21 9.0119 1 S
T1245 4.0921 1 S
T1245 2.1321 1 P
ED17 4.0219 1 P
ED17 7.5219 1 S
MMO1 6.5520 1 S
MMO1 3.4520 1 P
ED16 5.6319 1 S
T1214 4.0119 1 S
T1202 2.9419 1 P
ED24 6.0419 1 S
# 2016 10 14 00 59 41.624 42.7386 13.1746 4.97 0 0 0 0 47
ED01 8.3657 1 S
T1218 1.7557 1 P
ED02 4.3557 1 P
ED02 8.2557 1 S
ED11 2.3257 1 P
ED11 4.7057 1 S
T1217 6.8957 1 S
T1212 1.9657 1 P
T1215 8.3257 1 S
ED12 3.3057 1 P
ED12 5.8857 1 S
ED10 0.9657 1 P
NRCA 1.9759 1 P
ED19 6.8457 1 S
CSP1 12.7657 1 S
ED17 9.0457 1 S
ED17 4.6357 1 P
MMO1 3.8058 1 P
ED16 2.8957 1 P
T1214 0.7657 1 P
ED09 7.1757 1 S
ED09 3.6257 1 P
ED20 3.5757 1 P
ED20 6.9857 1 S
TERO 6.1657 1 P
TERO 11.9957 1 S
T1204 2.6357 1 P
T1246 10.0457 1 S
T1202 1.9557 1 S
T1202 1.1557 1 P
T1299 2.9358 1 P
T1201 2.3857 1 P
ED24 1.7157 1 P
ED24 3.5657 1 S
ED03 5.5257 1 S
ED03 2.7457 1 P
# 2016 10 14 01 02 20.627 42.8431 13.1198 6.31 0 0 0 0 48
NRCA 0.9230 1 P
ED01 11.2128 1 S
ED11 3.2728 1 P
ED11 6.1628 1 S
T1212 4.3328 1 S
T1212 2.3628 1 P
ED02 9.6028 1 S
ED12 2.3928 1 P
ED12 4.6928 1 S
T1215 3.6628 1 P
T1216 2.0328 1 P
T1216 3.0728 1 S
ED19 3.5328 1 S
ED21 4.1128 1 P
ED21 7.8628 1 S
ED17 6.8428 1 S
T1245 2.9630 1 S
ED16 5.4828 1 S
ED09 4.1928 1 P
ED20 4.6328 1 P
ED20 8.7028 1 S
TERO 14.4728 1 S
T1214 4.3328 1 S
T1202 6.3328 1 S
ED24 7.4728 1 S
ED10 2.9328 1 S
T1218 6.3628 1 S
# 2016 10 14 01 02 40.097 42.6664 13.2144 10.62 0 0 0 0 49
RM33 3.5032 1 P
ED03 2.2432 1 P
ED03 3.8732 1 S
ED01 3.6732 1 P
ED24 1.9232 1 P
ED24 3.4232 1 S
T1218 2.3932 1 P
ED11 5.7932 1 S
T1212 6.2732 1 S
ED10 5.5432 1 S
NRCA 7.3534 1 S
T1214 5.1632 1 S
T1202 2.3132 1 P
T1202 4.0732 1 S
ED09 4.3232 1 P
ED09 7.7132 1 S
ED20 7.0432 1 S
T1201 3.8032 1 S
T1201 2.0832 1 P
SMA1 4.9232 1 S
ED14 9.9832 1 S
# 2016 10 14 01 03 07.131 42.8091 13.1421 12.10 0 0 0 0 50
ED10 2.3595 1 P
ED11 3.7095 1 P
ED11 6.3295 1 S
T1212 5.1195 1 S
ED12 5.9495 1 S
CESI 10.4297 1 S
NRCA 2.4497 1 P
ED19 3.5095 1 P
ED19 5.5795 1 S
MC2 6.1397 1 S
ED18 7.9695 1 S
ED21 8.9895 1 S
T1245 2.8497 1 P
T1245 4.8097 1 S
ED22 9.0195 1 S
MMO1 4.2196 1 P
ED16 6.3395 1 S
ED20 8.8595 1 S
T1214 4.7595 1 S
# 2016 10 14 01 05 35.294 42.9475 12.8817 7.64 0 0 0 0 51
CESI 3.4162 1 S
ED21 10.7560 1 S
ED22 12.0260 1 S
ED18 9.8760 1 S
ED17 11.3860 1 S
ED17 6.1660 1 P
MMO1 12.1761 1 S
ED19 4.0660 1 P
T1216 2.7860 1 P
T1216 5.2260 1 S
NRCA 4.2062 1 P
NRCA 8.0562 1 S
ED10 5.2960 1 P
ED10 9.8060 1 S
T1212 8.6660 1 S
ED12 6.4760 1 S
ED11 10.3060 1 S
T1217 8.8360 1 S
ED02 12.2760 1 S
T1215 3.1560 1 P
T1215 5.9160 1 S
# 2016 10 14 01 09 01.615 42.7492 13.1872 4.57 0 0 0 0 52
T1218 4.0351 1 S
ED02 8.7851 1 S
ED11 2.5551 1 P
T1212 4.1551 1 S
ED12 6.3251 1 S
ED10 1.0551 1 P
NRCA 1.9953 1 P
NRCA 3.7853 1 S
ED18 9.5151 1 S
MMO1 6.9552 1 S
T1214 0.7151 1 P
ED16 5.1851 1 S
ED09 6.7551 1 S
ED20 6.7251 1 S
TERO 11.5351 1 S
ED07 8.8051 1 S
T1246 9.8751 1 S
T1202 1.3251 1 P
T1299 5.6051 1 S
ED24 3.7251 1 S
# 2016 10 14 01 13 12.358 42.8302 13.1898 2.44 0 0 0 0 53
ED10 1.2016 1 P
T1212 4.9416 1 S
NRCA 1.2918 1 P
NRCA 2.1018 1 S
ED19 4.1516 1 S
CSP1 10.0316 1 S
T1245 0.8218 1 P
ED18 6.8016 1 S
ED21 7.7816 1 S
ED22 7.9516 1 S
ED17 3.1916 1 P
ED17 6.1516 1 S
MMO1 4.6317 1 S
MMO1 2.4517 1 P
ED16 3.5916 1 S
T1214 2.9216 1 S
T1214 1.4916 1 P
# 2016 10 14 01 15 38.747 42.9062 13.2479 4.30 0 0 0 0 54
RM33 14.4335 1 S
T1202 4.2335 1 P
T1202 8.1035 1 S
ED03 5.9935 1 P
ED03 11.2435 1 S
ED24 5.0135 1 P
ED24 9.5035 1 S
T1214 3.1135 1 P
T1214 5.9035 1 S
ED01 13.8235 1 S
T1218 9.4635 1 S
T1218 5.0935 1 P
ED10 3.0235 1 P
ED10 5.7835 1 S
ED11 5.4435 1 P
ED11 9.8535 1 S
T1245 1.4637 1 P
T1212 4.3435 1 P
T1212 8.1535 1 S
T1217 11.1135 1 S
NRCA 2.5637 1 P
ED12 4.5035 1 P
ED12 8.7235 1 S
T1215 11.0635 1 S
T1215 5.8535 1 P
T1216 6.7235 1 S
T1216 3.5535 1 P
ED19 1.9335 1 P
ED19 3.5435 1 S
MC2 1.5537 1 S
CESI 10.3237 1 S
FDMO 3.5835 1 P
FDMO 6.7735 1 S
CSP1 3.8935 1 P
CSP1 7.4535 1 S
ED18 1.9535 1 P
ED18 3.8435 1 S
ED21 2.6335 1 P
ED21 4.9635 1 S
ED22 4.8035 1 S
ED17 1.4835 1 P
MMO1 1.0536 1 P
ED09 3.1635 1 P
TERO 7.1035 1 P
TERO 13.5335 1 S
ED20 3.8735 1 P
ED16 1.7035 1 P
T1246 13.2435 1 S
ED07 6.0835 1 P
CAMP 13.5635 1 S
T1204 4.6835 1 P
ED05 15.5435 1 S
T1299 5.3636 1 P
# 2016 10 14 01 16 39.803 42.8625 13.0770 4.45 0 0 0 0 55
ED11 6.8468 1 S
T1212 2.4668 1 P
ED02 10.1668 1 S
ED12 1.9968 1 P
ED12 3.5168 1 S
T1215 6.2268 1 S
T1216 1.0368 1 P
CESI 6.7970 1 S
FDMO 3.3968 1 P
ED19 1.4768 1 P
ED21 4.1968 1 P
ED21 7.7268 1 S
ED18 3.4568 1 P
ED22 8.5768 1 S
MC2 4.4470 1 S
ED17 7.1468 1 S
ED17 3.7268 1 P
MMO1 3.6069 1 P
MMO1 6.8769 1 S
ED16 6.5268 1 S
ED09 9.4268 1 S
ED20 10.1268 1 S
NRCA 1.7270 1 S
NRCA 1.0270 1 P
# 2016 10 14 01 19 17.734 42.8801 13.1958 4.10 0 0 0 0 56
ED03 5.5663 1 P
ED03 10.5963 1 S
T1245 0.5065 1 P
T1218 8.4863 1 S
ED10 2.2263 1 P
ED11 8.9863 1 S
T1212 3.5663 1 P
T1212 6.5563 1 S
T1217 9.5863 1 S
NRCA 1.4865 1 P
ED12 3.7863 1 P
T1215 4.8863 1 P
T1216 2.6563 1 P
ED19 1.1663 1 P
ED19 2.2163 1 S
FDMO 3.5263 1 P
MC2 0.8765 1 P
CSP1 8.2863 1 S
CSP1 4.5263 1 P
ED18 2.4263 1 P
ED18 4.7363 1 S
ED21 3.2163 1 P
ED21 6.1363 1 S
ED22 6.6263 1 S
ED17 4.9263 1 S
ED17 2.4863 1 P
MMO1 2.1364 1 P
MMO1 4.1564 1 S
ED09 3.9363 1 P
ED09 7.2063 1 S
ED16 3.8963 1 S
ED16 2.0663 1 P
ED20 8.3163 1 S
ED20 4.3863 1 P
TERO 7.5563 1 P
TERO 14.1063 1 S
T1246 7.0663 1 P
T1246 13.1863 1 S
SMA1 10.2163 1 S
ED14 16.5363 1 S
ED14 8.7863 1 P
ED05 14.9263 1 S
T1202 3.8463 1 P
T1214 2.5463 1 P
T1214 4.9363 1 S
RM33 13.4463 1 S
ED24 4.5963 1 P
ED24 8.9563 1 S
# 2016 10 14 01 20 15.296 42.7393 13.1871 6.12 0 0 0 0 57
ED01 8.2637 1 S
T1218 3.6737 1 S
ED02 4.3337 1 P
ED02 8.2737 1 S
ED11 2.3837 1 P
T1217 7.3237 1 S
T1212 2.1137 1 P
T1212 4.2037 1 S
T1215 8.7837 1 S
ED12 3.2837 1 P
ED12 6.4937 1 S
ED10 1.1337 1 P
NRCA 4.0339 1 S
ED17 4.6637 1 P
ED17 8.9637 1 S
MMO1 7.1838 1 S
T1214 0.8537 1 P
ED16 5.2937 1 S
ED09 6.9337 1 S
ED09 3.3837 1 P
ED20 3.3137 1 P
TERO 11.0637 1 S
TERO 5.8237 1 P
ED07 8.3837 1 S
T1204 2.3637 1 P
T1246 9.4837 1 S
T1202 1.0837 1 P
T1299 2.8338 1 P
T1201 2.1837 1 P
T1201 4.2237 1 S
ED24 1.6037 1 P
ED24 3.2037 1 S
# 2016 10 14 01 20 41.456 42.8140 13.2024 7.51 0 0 0 0 58
ED03 4.2142 1 P
ED03 7.9142 1 S
ED01 10.7242 1 S
T1218 5.9342 1 S
ED10 1.6042 1 P
ED10 2.9542 1 S
ED12 3.5342 1 P
ED12 6.2242 1 S
T1215 4.8642 1 P
T1215 8.7542 1 S
NRCA 1.6844 1 P
NRCA 3.2344 1 S
T1216 3.2242 1 P
CESI 10.3444 1 S
ED19 2.5542 1 P
ED19 4.7142 1 S
FDMO 8.6242 1 S
FDMO 4.7442 1 P
T1245 1.5144 1 P
ED18 6.9542 1 S
ED21 8.1242 1 S
ED17 6.4642 1 S
MMO1 5.0343 1 S
MMO1 2.7743 1 P
ED16 3.9042 1 S
ED16 2.0442 1 P
ED09 6.1142 1 S
ED09 3.2242 1 P
ED20 3.5342 1 P
TERO 12.1142 1 S
TERO 6.4942 1 P
ED07 5.0742 1 P
ED07 9.5942 1 S
T1246 10.9042 1 S
T1246 5.8742 1 P
T1204 3.4342 1 P
CAMP 11.0142 1 S
SMA1 4.1042 1 P
ED14 14.0642 1 S
ED05 12.2742 1 S
T1299 7.5142 1 S
T1201 3.6442 1 P
T1214 3.2342 1 S
T1214 1.6642 1 P
T1202 2.5942 1 P
RM33 11.0342 1 S
ED24 3.2742 1 P
ED24 6.3942 1 S
# 2016 10 14 01 21 02.581 42.7395 13.1901 6.03 0 0 0 0 59
ED03 5.2389 1 S
T1218 3.5889 1 S
ED02 8.4089 1 S
ED02 4.3989 1 P
ED11 2.4489 1 P
T1212 4.1989 1 S
T1212 2.1689 1 P
T1215 8.8289 1 S
ED12 3.3489 1 P
ED12 6.6589 1 S
ED10 2.2889 1 S
NRCA 4.0991 1 S
ED17 9.0289 1 S
T1214 0.9089 1 P
ED09 6.7489 1 S
TERO 11.1189 1 S
T1204 2.4389 1 P
T1246 9.5589 1 S
T1202 2.3989 1 S
T1202 1.1689 1 P
T1201 2.2389 1 P
ED24 1.7089 1 P
ED24 3.2689 1 S
# 2016 10 14 01 22 33.014 42.8578 13.2448 7.09 0 0 0 0 60
ED03 4.9063 1 P
T1214 4.1363 1 S
ED10 2.2463 1 P
ED10 4.1863 1 S
T1212 6.5763 1 S
T1217 9.7663 1 S
NRCA 1.9165 1 P
T1245 2.4165 1 S
T1245 1.1465 1 P
T1216 6.1363 1 S
ED19 2.0063 1 P
ED19 3.9363 1 S
MC2 3.3165 1 S
FDMO 7.7463 1 S
CSP1 8.5963 1 S
ED18 5.2163 1 S
ED17 4.3863 1 S
ED17 2.2863 1 P
MMO1 3.1064 1 S
MMO1 1.5964 1 P
ED09 5.4963 1 S
ED20 3.3163 1 P
ED20 6.3063 1 S
TERO 12.3063 1 S
ED15 13.9263 1 S
SMA1 8.5563 1 S
# 2016 10 14 01 22 39.072 42.5978 13.3263 5.54 0 0 0 0 61
RM33 4.7882 1 S
ED04 2.2282 1 S
ED02 5.8382 1 P
ED03 1.9382 1 P
T1218 3.1782 1 P
ED24 4.6682 1 S
T1299 1.2783 1 P
T1299 2.5782 1 S
T1202 2.4582 1 P
SMA1 1.2582 1 P
ED09 7.9382 1 S
ED07 2.1782 1 P
TERO 3.7982 1 P
T1246 4.7882 1 S
T1246 2.4482 1 P
ED25 1.0282 1 P
ED05 2.3882 1 P
ED05 4.7282 1 S
# 2016 10 14 01 25 00.337 42.7627 13.2099 7.47 0 0 0 0 62
ED24 2.4728 1 P
T1214 2.3028 1 S
T1214 1.3828 1 P
T1218 5.2128 1 S
T1212 4.6728 1 S
ED12 6.3328 1 S
ED12 3.6528 1 P
ED10 2.8228 1 S
ED10 1.5128 1 P
NRCA 4.3530 1 S
NRCA 2.1730 1 P
ED19 6.5028 1 S
ED17 8.1028 1 S
MMO1 6.5129 1 S
ED20 6.0928 1 S
ED20 3.1328 1 P
ED07 8.0028 1 S
T1204 4.8128 1 S
T1202 3.5128 1 S
T1202 1.7228 1 P
# 2016 10 14 01 25 51.455 42.7414 13.1984 6.28 0 0 0 0 63
T1218 1.8446 1 P
T1218 3.5846 1 S
ED11 2.5046 1 P
T1212 4.2046 1 S
T1212 2.2346 1 P
ED12 3.4346 1 P
ED10 1.3146 1 P
ED10 2.3546 1 S
NRCA 4.1548 1 S
T1214 0.8646 1 P
TERO 11.0746 1 S
T1246 9.4846 1 S
T1202 2.2546 1 S
T1202 1.1146 1 P
ED24 1.6446 1 P
ED24 3.2346 1 S
# 2016 10 14 01 27 04.199 42.7723 13.1992 4.41 0 0 0 0 64
ED24 2.3908 1 P
ED24 4.1008 1 S
ED03 3.5608 1 P
ED03 5.9908 1 S
T1218 2.5908 1 P
T1218 4.2908 1 S
ED02 5.2008 1 P
ED02 9.2908 1 S
ED11 3.2408 1 P
T1212 4.9608 1 S
ED10 2.1808 1 S
ED10 1.1108 1 P
NRCA 1.5910 1 P
NRCA 3.1210 1 S
T1245 3.4810 1 S
ED22 9.3408 1 S
ED16 3.9408 1 S
T1246 10.0808 1 S
ED25 8.2108 1 S
T1214 0.7408 1 P
T1214 1.5108 1 S
T1299 3.1609 1 P
ED05 11.1308 1 S
T1201 5.0708 1 S
T1201 2.6808 1 P
T1202 3.0008 1 S
T1202 1.6308 1 P
# 2016 10 14 01 29 25.503 42.8483 13.1615 6.06 0 0 0 0 65
ED01 11.1565 1 S
ED10 1.5265 1 P
ED11 3.4665 1 P
ED11 7.0165 1 S
ED02 5.4265 1 P
T1212 4.8065 1 S
T1212 2.5765 1 P
T1217 7.8865 1 S
NRCA 1.0267 1 P
ED12 2.7765 1 P
T1215 7.7365 1 S
T1215 4.1265 1 P
T1216 4.4965 1 S
T1216 2.2865 1 P
CESI 4.6965 1 P
CESI 8.8367 1 S
FDMO 3.9565 1 P
ED19 1.7965 1 P
ED19 2.8665 1 S
CSP1 4.8465 1 P
MC2 2.7067 1 S
ED18 3.1765 1 P
ED21 3.9165 1 P
ED21 7.4465 1 S
ED22 7.5265 1 S
ED17 3.1565 1 P
ED17 5.3665 1 S
MMO1 2.5766 1 P
MMO1 5.1866 1 S
T1245 0.9367 1 P
ED16 2.3165 1 P
ED16 4.5565 1 S
ED09 3.7265 1 P
ED09 7.2465 1 S
ED20 7.8365 1 S
ED20 4.1165 1 P
TERO 13.4765 1 S
ED14 15.4165 1 S
T1299 8.8565 1 S
ED05 13.7565 1 S
T1214 2.0065 1 P
T1201 8.0465 1 S
T1201 4.2465 1 P
T1202 5.8765 1 S
T1202 3.1965 1 P
ED24 3.7865 1 P
ED24 6.9765 1 S
RM33 12.1065 1 S
# 2016 10 14 01 30 54.946 42.7831 13.1494 -0.07 0 0 0 0 66
ED10 -0.0755 1 P
ED11 2.3545 1 P
T1212 1.5345 1 P
T1215 4.1945 1 P
ED12 2.6545 1 P
NRCA 1.2847 1 P
FDMO 9.7845 1 S
ED19 2.9545 1 P
ED19 5.7145 1 S
ED18 8.9245 1 S
ED21 9.9745 1 S
T1245 2.0247 1 P
ED17 8.4745 1 S
MMO1 3.6246 1 P
MMO1 7.2246 1 S
T1214 0.9045 1 P
T1202 1.8445 1 P
ED24 2.3645 1 P
# 2016 10 14 01 31 40.777 42.8580 13.2530 5.21 0 0 0 0 67
RM33 12.7632 1 S
T1202 3.2332 1 P
T1202 6.4032 1 S
ED03 5.0232 1 P
ED03 9.5532 1 S
ED24 4.0232 1 P
T1214 2.1032 1 P
ED01 12.5232 1 S
ED01 6.7732 1 P
T1218 8.0132 1 S
T1218 4.1332 1 P
ED02 12.0732 1 S
ED02 6.4532 1 P
ED11 8.8432 1 S
ED11 4.5032 1 P
ED10 4.5132 1 S
ED10 2.2632 1 P
T1212 3.6332 1 P
T1212 6.9232 1 S
T1217 9.9532 1 S
ED12 7.5332 1 S
ED12 4.0332 1 P
NRCA 2.0634 1 P
NRCA 4.0733 1 S
T1215 5.4332 1 P
T1215 10.2332 1 S
T1245 1.0433 1 P
T1216 3.4332 1 P
CESI 10.7133 1 S
ED19 4.2232 1 S
ED19 2.1732 1 P
MC2 1.7334 1 P
FDMO 8.0932 1 S
FDMO 4.1932 1 P
CSP1 8.9032 1 S
CSP1 4.7931 1 P
ED18 5.4732 1 S
ED18 2.8032 1 P
ED21 6.5032 1 S
ED21 3.4332 1 P
ED22 6.1532 1 S
ED17 2.3132 1 P
MMO1 1.1333 1 P
MMO1 2.8633 1 S
ED09 2.6232 1 P
ED16 1.1032 1 P
ED20 3.2232 1 P
ED20 6.2532 1 S
TERO 12.1232 1 S
TERO 6.4232 1 P
GIGS 16.0232 1 S
ED14 8.2632 1 P
ED25 5.2532 1 P
SMA1 8.4132 1 S
SMA1 4.5332 1 P
T1204 3.9632 1 P
ED05 13.6832 1 S
T1299 4.5433 1 P
# 2016 10 14 01 33 36.916 42.8815 13.2419 5.50 0 0 0 0 68
T1214 2.6338 1 P
T1214 5.0038 1 S
ED10 4.9538 1 S
T1245 1.1840 1 P
NRCA 2.1940 1 P
NRCA 4.0540 1 S
T1216 6.2938 1 S
ED19 1.8638 1 P
ED19 3.5138 1 S
MC2 2.3840 1 S
MC2 1.3140 1 P
FDMO 7.3238 1 S
CSP1 7.9838 1 S
ED18 2.2738 1 P
ED18 4.5738 1 S
ED21 3.0538 1 P
ED21 5.5938 1 S
ED22 5.4338 1 S
ED17 3.6738 1 S
ED17 1.9838 1 P
MMO1 1.3739 1 P
ED20 6.9538 1 S
ED16 2.3138 1 S
# 2016 10 14 01 35 49.624 42.7798 13.2195 5.15 0 0 0 0 69
T1214 0.6763 1 P
ED03 6.7163 1 S
ED24 2.6863 1 P
ED24 5.2063 1 S
T1218 5.1663 1 S
ED02 9.7163 1 S
T1212 2.5063 1 P
T1212 4.8963 1 S
ED10 2.3963 1 S
ED12 3.3463 1 P
T1245 3.5265 1 S
ED16 3.7963 1 S
ED09 5.5563 1 S
ED09 2.8363 1 P
ED20 2.9663 1 P
ED20 5.7863 1 S
ED07 8.4763 1 S
T1246 9.6863 1 S
T1202 1.6863 1 P
# 2016 10 14 01 36 34.762 42.9044 13.2412 3.67 0 0 0 0 70
ED03 11.2275 1 S
T1214 5.9875 1 S
T1214 2.9475 1 P
ED01 13.9075 1 S
ED10 2.8675 1 P
ED10 4.9575 1 S
T1245 1.2677 1 P
T1216 6.1675 1 S
ED19 1.5575 1 P
MC2 0.9377 1 P
CESI 9.8877 1 S
FDMO 6.6475 1 S
CSP1 7.2375 1 S
ED18 3.4575 1 S
ED18 1.6675 1 P
ED21 2.3575 1 P
GUMA 7.1078 1 S
ED22 4.6175 1 S
ED17 2.8575 1 S
ED17 1.3775 1 P
MMO1 1.1776 1 P
ED09 6.2775 1 S
ED09 3.2375 1 P
ED20 3.8975 1 P
ED20 7.6175 1 S
ED16 3.4075 1 S
ED16 1.6275 1 P
T1246 13.2975 1 S
SMA1 10.1875 1 S
# 2016 10 14 01 36 57.202 42.8189 13.1855 6.86 0 0 0 0 71
ED03 7.8777 1 S
T1218 6.1477 1 S
ED10 1.6477 1 P
ED10 2.5677 1 S
ED11 6.5377 1 S
T1212 4.6777 1 S
ED12 5.7077 1 S
T1215 8.2777 1 S
NRCA 1.3079 1 P
NRCA 2.6379 1 S
T1216 2.7377 1 P
ED19 2.2277 1 P
ED19 4.2777 1 S
T1245 2.4779 1 S
T1245 1.2579 1 P
ED17 3.3677 1 P
ED17 6.1477 1 S
ED16 3.9777 1 S
ED09 6.3577 1 S
ED20 3.6177 1 P
ED20 6.8777 1 S
T1214 1.5777 1 P
T1214 3.0577 1 S
ED24 6.4277 1 S
