# 2016 10 14 07 04 27.697 42.7388 13.1970 5.63 0 0 0 0 250
T1218 1.7831 1 P
ED02 4.4231 1 P
ED02 8.5231 1 S
ED11 2.4731 1 P
T1212 2.2431 1 P
T1215 8.9731 1 S
ED12 3.3631 1 P
ED10 1.1831 1 P
NRCA 2.1433 1 P
NRCA 4.1233 1 S
T1245 4.9333 1 S
MMO1 6.9932 1 S
T1214 0.8031 1 P
TERO 11.0331 1 S
ED07 8.4031 1 S
T1204 2.3231 1 P
T1246 9.4331 1 S
CAMP 8.9431 1 S
T1202 2.1831 1 S
T1201 2.0831 1 P
ED05 10.2031 1 S
ED24 1.5931 1 P
# 2016 10 14 07 05 24.666 42.8642 13.2433 5.78 0 0 0 0 251
T1211 7.7742 1 P
ED10 2.5142 1 P
ED10 4.6042 1 S
NRCA 4.0844 1 S
NRCA 2.2144 1 P
T1245 1.2944 1 P
T1245 2.3044 1 S
ED19 2.1242 1 P
ED18 5.1842 1 S
ED21 6.2842 1 S
ED22 6.2542 1 S
ED17 2.3242 1 P
ED17 4.4342 1 S
MMO1 3.1243 1 S
MMO1 1.6743 1 P
ED16 2.8842 1 S
# 2016 10 14 07 05 35.008 42.8167 13.2123 5.90 0 0 0 0 252
T1214 1.3223 1 P
ED03 8.0823 1 S
ED24 6.0623 1 S
ED01 11.1423 1 S
T1218 6.2723 1 S
T1218 3.2623 1 P
ED02 5.6923 1 P
ED02 10.5223 1 S
ED10 2.7123 1 S
ED10 1.4023 1 P
T1212 2.8423 1 P
T1212 5.4823 1 S
ED12 6.4123 1 S
T1215 9.0323 1 S
NRCA 2.6125 1 S
ED19 4.5423 1 S
T1245 2.3825 1 S
T1245 1.1325 1 P
FDMO 8.7723 1 S
ED18 6.7023 1 S
ED21 7.8123 1 S
ED21 4.1223 1 P
ED22 7.9323 1 S
ED17 3.1323 1 P
ED17 5.9823 1 S
MMO1 2.3124 1 P
MMO1 4.5624 1 S
ED16 1.6123 1 P
ED09 6.2023 1 S
TERO 11.8423 1 S
ED07 9.2423 1 S
T1246 10.6623 1 S
T1246 5.6523 1 P
GIGS 15.2623 1 S
T1204 6.0923 1 S
CAMP 10.9023 1 S
ED14 13.9123 1 S
T1201 3.5723 1 P
T1202 4.7623 1 S
# 2016 10 14 07 16 05.609 42.8201 13.2330 3.54 0 0 0 0 253
ED03 8.2111 1 S
ED24 6.5311 1 S
T1218 6.8711 1 S
ED10 3.0811 1 S
ED10 1.5811 1 P
NRCA 3.3113 1 S
NRCA 2.0713 1 P
T1216 6.3811 1 S
CESI 11.0213 1 S
T1245 1.1113 1 P
ED19 4.8211 1 S
ED19 2.3411 1 P
ED18 6.4711 1 S
MMO1 4.0812 1 S
ED16 1.3211 1 P
ED20 5.9911 1 S
TERO 6.1811 1 P
ED15 13.5011 1 S
T1246 5.6111 1 P
# 2016 10 14 07 18 36.320 42.8958 13.2341 4.86 0 0 0 0 254
ED03 10.5497 1 S
T1214 5.2297 1 S
T1218 8.7897 1 S
ED11 9.0597 1 S
ED02 12.8897 1 S
T1245 1.0299 1 P
T1212 7.2797 1 S
T1217 10.4197 1 S
NRCA 2.0199 1 P
NRCA 3.9799 1 S
ED12 7.5997 1 S
T1215 10.1097 1 S
T1216 5.9397 1 S
ED19 1.4497 1 P
ED19 3.0597 1 S
MC2 0.9399 1 P
FDMO 6.6197 1 S
CSP1 7.4497 1 S
ED18 3.6697 1 S
ED21 2.6497 1 P
ED21 4.9897 1 S
ED22 4.9997 1 S
ED17 1.5897 1 P
MMO1 1.1898 1 P
ED16 1.4697 1 P
T1246 12.4497 1 S
ED07 11.1297 1 S
GIGS 17.2097 1 S
# 2016 10 14 07 20 48.748 42.6515 13.3387 8.75 0 0 0 0 255
SMA1 1.3820 1 P
SMA1 2.6920 1 S
RM33 3.2320 1 P
ED03 2.4520 1 P
T1299 3.0220 1 S
ED24 2.4020 1 P
ED24 4.6520 1 S
T1201 1.9120 1 P
T1201 3.6020 1 S
T1218 3.1320 1 P
T1218 6.1620 1 S
NRCA 8.5622 1 S
T1204 1.4520 1 P
T1204 3.0420 1 S
ED16 7.2220 1 S
T1241 4.3020 1 P
ED09 6.0520 1 S
ED20 4.8220 1 S
TERO 3.7720 1 P
TERO 7.0520 1 S
ED07 4.1420 1 S
ED07 2.3620 1 P
T1246 5.2520 1 S
CAMP 4.9320 1 S
ED25 1.6820 1 P
ED25 3.0320 1 S
# 2016 10 14 07 32 18.490 42.6381 13.3393 7.60 0 0 0 0 256
RM33 6.0605 1 S
SMA1 1.2805 1 P
SMA1 2.6005 1 S
T1299 1.4506 1 P
T1299 2.9205 1 S
ED24 4.4905 1 S
T1201 3.4905 1 S
ED10 4.0105 1 P
T1204 2.8505 1 S
ED16 7.1705 1 S
MMO1 5.4106 1 P
ED20 2.4805 1 P
TERO 3.6905 1 P
TERO 6.9605 1 S
ED07 2.2205 1 P
T1246 5.1905 1 S
ED25 1.5605 1 P
ED25 3.2705 1 S
# 2016 10 14 07 33 55.926 42.7987 13.1655 10.45 0 0 0 0 257
T1218 3.2339 1 P
T1218 5.9139 1 S
ED10 1.9539 1 P
ED10 3.3839 1 S
ED11 6.0939 1 S
T1212 4.9339 1 S
T1217 7.5639 1 S
T1215 4.6239 1 P
T1215 8.4739 1 S
ED12 3.2039 1 P
T1216 3.1839 1 P
NRCA 1.9741 1 P
FDMO 4.8839 1 P
MC2 2.8341 1 P
ED18 8.0239 1 S
T1245 2.2641 1 P
ED21 5.0539 1 P
ED17 7.5439 1 S
MMO1 6.5740 1 S
ED16 5.5339 1 S
ED16 2.9539 1 P
ED09 3.9439 1 P
ED20 7.7739 1 S
ED20 4.1739 1 P
TERO 7.0039 1 P
TERO 13.1039 1 S
ED07 5.4939 1 P
ED07 10.1239 1 S
T1246 6.2339 1 P
T1246 11.5439 1 S
T1214 4.0839 1 S
T1214 2.2339 1 P
ED25 9.5339 1 S
CAMP 11.3339 1 S
T1202 5.5139 1 S
T1201 3.8039 1 P
ED24 6.5439 1 S
ED24 3.3839 1 P
RM33 10.8239 1 S
# 2016 10 14 07 42 09.310 42.8788 13.2212 4.37 0 0 0 0 258
T1218 8.3399 1 S
ED10 2.2699 1 P
T1245 1.3001 1 P
NRCA 1.7301 1 P
T1216 3.2099 1 P
ED19 1.5699 1 P
ED19 2.9599 1 S
MC2 2.0901 1 S
ED18 2.5099 1 P
ED21 3.4099 1 P
ED21 6.1299 1 S
ED17 4.4899 1 S
ED17 2.3299 1 P
MMO1 1.7700 1 P
ED16 3.2799 1 S
ED20 3.9799 1 P
ED20 7.5799 1 S
ED07 11.2599 1 S
T1246 12.7599 1 S
CAMP 12.8799 1 S
# 2016 10 14 07 43 00.672 42.8360 13.1627 6.48 0 0 0 0 259
T1218 3.3081 1 P
T1218 6.0781 1 S
ED10 1.3381 1 P
ED11 3.3281 1 P
ED02 5.2881 1 P
T1212 4.6181 1 S
T1212 2.4381 1 P
ED12 2.7181 1 P
T1215 4.1081 1 P
T1215 7.6981 1 S
NRCA 0.9183 1 P
T1216 2.3081 1 P
T1216 4.4181 1 S
CESI 9.0683 1 S
CESI 4.8081 1 P
FDMO 7.5081 1 S
FDMO 4.1181 1 P
ED19 1.8481 1 P
ED19 3.4881 1 S
CSP1 9.4081 1 S
CSP1 4.9681 1 P
MC2 3.2583 1 S
MC2 1.8083 1 P
ED18 3.3181 1 P
ED21 3.9881 1 P
ED21 7.5481 1 S
ED22 7.8181 1 S
ED17 3.2281 1 P
ED17 6.1781 1 S
T1245 0.8983 1 P
MMO1 2.6782 1 P
MMO1 5.1682 1 S
ED16 4.5181 1 S
ED09 7.2781 1 S
ED20 7.6581 1 S
ED20 4.0181 1 P
TERO 7.0081 1 P
TERO 13.2781 1 S
ED07 10.7081 1 S
ED07 5.5281 1 P
T1246 6.3681 1 P
T1246 11.9981 1 S
GIGS 16.6681 1 S
ED05 13.3081 1 S
T1214 1.7881 1 P
T1214 3.4681 1 S
T1201 3.9381 1 P
T1202 5.6281 1 S
ED06 13.1581 1 S
ED24 3.4881 1 P
ED24 7.1481 1 S
ED03 8.6681 1 S
ED03 4.5081 1 P
# 2016 10 14 07 48 47.931 42.6127 13.2225 9.11 0 0 0 0 260
ED03 1.7188 1 P
ED02 4.3688 1 P
ED11 6.3488 1 S
T1218 4.4888 1 S
ED12 5.2088 1 P
ED24 1.8488 1 P
ED24 3.5288 1 S
T1202 4.7288 1 S
T1201 1.9688 1 P
T1201 3.6688 1 S
T1204 4.5788 1 S
SMA1 4.2788 1 S
ED07 3.6188 1 P
ED07 6.6988 1 S
TERO 5.2688 1 P
ED25 2.5388 1 P
ED25 4.7488 1 S
ED04 4.0188 1 S
ED05 6.6788 1 S
RM33 4.8388 1 S
# 2016 10 14 08 01 54.743 42.7548 13.1823 6.43 0 0 0 0 261
T1218 2.0275 1 P
ED02 4.5275 1 P
ED02 8.5275 1 S
ED11 2.5375 1 P
T1217 7.2275 1 S
T1212 4.0175 1 S
T1212 2.0075 1 P
T1215 8.4375 1 S
T1215 4.4875 1 P
ED12 3.1975 1 P
ED12 6.0075 1 S
ED10 1.0275 1 P
NRCA 2.0677 1 P
NRCA 3.6877 1 S
ED19 6.1275 1 S
ED17 4.4875 1 P
MMO1 6.8876 1 S
ED16 2.6475 1 P
T1214 0.7375 1 P
ED20 3.4775 1 P
ED20 6.7175 1 S
TERO 11.4475 1 S
TERO 6.0775 1 P
ED07 8.7875 1 S
ED07 4.5475 1 P
T1246 9.9575 1 S
ED15 12.5275 1 S
T1204 5.1975 1 S
ED14 12.4075 1 S
T1299 2.9576 1 P
T1202 1.4975 1 P
ED05 5.7775 1 P
ED05 10.6375 1 S
RM33 9.0875 1 S
ED24 2.0275 1 P
ED03 5.9475 1 S
ED03 3.0475 1 P
# 2016 10 14 08 06 29.463 42.8652 13.0848 4.90 0 0 0 0 262
ED11 3.8368 1 P
ED11 6.9868 1 S
T1212 2.3668 1 P
T1212 4.6168 1 S
ED02 10.0468 1 S
T1211 13.3568 1 S
T1217 3.7168 1 P
ED12 1.9468 1 P
T1215 6.2868 1 S
T1215 3.2868 1 P
T1216 1.1068 1 P
CESI 7.0170 1 S
FEMA 4.0768 1 S
FDMO 3.3968 1 P
FDMO 6.3868 1 S
CSP1 9.5368 1 S
ED19 1.4568 1 P
ED21 4.0468 1 P
ED21 7.7768 1 S
ED18 6.4568 1 S
ED22 8.4868 1 S
MC2 3.9570 1 S
ED17 7.0468 1 S
ED17 3.6368 1 P
MMO1 6.7269 1 S
T1245 3.3270 1 S
ED16 6.4968 1 S
ED09 9.2068 1 S
ED07 6.9268 1 P
NRCA 0.8570 1 P
T1202 7.5968 1 S
T1201 4.3068 1 P
ED10 3.6768 1 S
ED10 1.9268 1 P
T1218 7.2568 1 S
T1218 3.8168 1 P
# 2016 10 14 08 07 37.723 42.7680 13.2446 5.09 0 0 0 0 263
ED06 11.1673 1 S
T1202 1.4973 1 P
ED03 3.3173 1 P
ED24 2.2873 1 P
ED01 5.0073 1 P
T1218 2.6673 1 P
ED02 10.2273 1 S
ED02 5.2873 1 P
ED11 3.3173 1 P
T1214 0.4673 1 P
T1212 5.8073 1 S
T1212 2.8173 1 P
T1215 9.8373 1 S
ED10 1.5073 1 P
ED10 3.1173 1 S
ED12 7.4173 1 S
ED12 3.7773 1 P
T1216 7.2373 1 S
NRCA 2.1675 1 P
CESI 12.3375 1 S
ED19 6.3773 1 S
ED19 3.2973 1 P
FDMO 10.6873 1 S
T1245 2.0475 1 P
MC2 5.9675 1 S
CSP1 11.8173 1 S
ED18 8.3973 1 S
ED18 4.2673 1 P
ED21 9.5573 1 S
ED21 4.8273 1 P
ED22 9.1673 1 S
MMO1 5.4074 1 S
MMO1 2.7474 1 P
ED16 1.6773 1 P
ED09 2.5473 1 P
ED09 5.1273 1 S
ED20 5.2273 1 S
ED07 7.5973 1 S
ED07 3.8873 1 P
T1246 4.7673 1 P
T1246 9.2173 1 S
T1204 4.4673 1 S
T1204 2.2273 1 P
SMA1 2.9173 1 P
CAMP 4.8173 1 P
CAMP 9.1973 1 S
ED25 3.5073 1 P
T1299 5.7173 1 S
T1299 2.8974 1 P
T1201 2.4873 1 P
# 2016 10 14 08 08 29.579 42.6635 13.2098 8.91 0 0 0 0 264
RM33 3.1011 1 P
RM33 6.0611 1 S
ED03 1.7011 1 P
ED03 3.5611 1 S
ED08 4.5711 1 P
ED01 3.2811 1 P
T1211 5.4511 1 P
T1211 10.3811 1 S
ED02 7.7711 1 S
ED02 4.1511 1 P
ED24 1.3711 1 P
ED24 3.0011 1 S
T1218 1.9111 1 P
T1218 3.5111 1 S
ED11 2.8411 1 P
T1217 7.7111 1 S
T1215 9.9211 1 S
T1212 5.6511 1 S
T1212 3.0911 1 P
ED12 8.1311 1 S
ED10 4.7511 1 S
NRCA 6.7113 1 S
NRCA 3.6213 1 P
FDMO 13.3411 1 S
ED19 4.9911 1 P
ED19 9.4211 1 S
T1245 7.4213 1 S
MC2 9.5013 1 S
T1214 2.3511 1 P
T1214 4.3511 1 S
ED18 6.0911 1 P
ED21 6.7211 1 P
T1202 1.8411 1 P
ED17 5.6711 1 P
ED17 10.8211 1 S
ED22 12.7711 1 S
MMO1 4.7312 1 P
MMO1 8.9912 1 S
ED16 7.2011 1 S
ED16 3.8211 1 P
T1241 5.0311 1 P
ED09 3.8611 1 P
ED20 3.3411 1 P
ED20 6.4711 1 S
T1204 3.6311 1 S
T1204 2.1611 1 P
T1201 1.6711 1 P
TERO 5.2811 1 P
ED07 3.7011 1 P
ED07 6.9511 1 S
SMA1 2.5411 1 P
T1299 3.4011 1 S
ED15 10.1311 1 S
ED25 2.8511 1 P
GIGS 11.3411 1 S
ED14 9.7011 1 S
ED04 4.8611 1 S
ED05 7.7711 1 S
ED05 4.1511 1 P
ED06 7.4811 1 S
ED06 3.9511 1 P
# 2016 10 14 08 09 45.316 42.6161 13.2872 6.99 0 0 0 0 265
T1211 11.6037 1 S
T1201 3.1837 1 S
T1299 1.2838 1 P
T1299 2.3437 1 S
T1204 3.3037 1 S
T1204 1.7937 1 P
SMA1 1.5237 1 P
SMA1 2.7137 1 S
ED07 2.7337 1 P
ED07 5.0337 1 S
TERO 4.5637 1 P
TERO 8.3337 1 S
ED25 1.6037 1 P
ED25 3.0837 1 S
ED05 5.8937 1 S
ED04 2.8037 1 S
# 2016 10 14 08 11 41.376 42.8108 13.2122 5.95 0 0 0 0 266
T1214 1.3839 1 P
T1214 2.8639 1 S
ED03 7.8339 1 S
ED24 6.1239 1 S
ED01 10.9239 1 S
T1218 6.0139 1 S
T1218 3.1739 1 P
ED02 5.5639 1 P
ED02 10.2839 1 S
ED11 6.8639 1 S
ED10 1.4639 1 P
ED10 2.6339 1 S
T1212 2.8339 1 P
T1212 5.2839 1 S
T1217 8.4839 1 S
ED12 6.5739 1 S
ED12 3.5039 1 P
T1215 4.8339 1 P
NRCA 1.6841 1 P
NRCA 2.8841 1 S
T1216 6.0039 1 S
CESI 10.6441 1 S
ED19 4.8139 1 S
ED19 2.5839 1 P
T1245 1.3741 1 P
MC2 2.3141 1 P
ED17 6.3239 1 S
ED17 3.3239 1 P
MMO1 2.5240 1 P
MMO1 4.8240 1 S
ED16 3.4939 1 S
ED16 1.7639 1 P
ED09 3.0039 1 P
ED09 5.7039 1 S
ED20 6.1739 1 S
ED20 3.2939 1 P
TERO 6.3539 1 P
ED07 4.9539 1 P
ED07 8.8639 1 S
T1246 5.6339 1 P
ED14 7.3339 1 P
ED05 12.1239 1 S
ED05 6.5039 1 P
T1202 4.6039 1 S
# 2016 10 14 08 12 24.801 42.8717 13.0845 3.53 0 0 0 0 267
ED11 3.9288 1 P
ED11 6.8188 1 S
T1212 2.4288 1 P
T1212 4.6888 1 S
T1217 7.2788 1 S
ED12 2.0288 1 P
T1215 3.3188 1 P
T1216 1.1088 1 P
CESI 6.9390 1 S
FDMO 3.2888 1 P
FDMO 6.3288 1 S
ED19 1.4888 1 P
ED18 6.5088 1 S
ED18 3.4388 1 P
ED17 3.6988 1 P
MC2 2.7590 1 S
MMO1 3.5789 1 P
MMO1 6.7989 1 S
T1241 4.8088 1 P
T1245 3.3790 1 S
T1201 9.6188 1 S
ED10 2.0788 1 P
ED24 8.3688 1 S
NRCA 0.9490 1 P
T1218 7.4088 1 S
# 2016 10 14 08 17 03.621 42.8048 13.0807 7.73 0 0 0 0 268
ED11 4.9488 1 S
T1212 3.3888 1 S
T1215 5.9288 1 S
ED12 2.1988 1 P
ED12 3.6588 1 S
CESI 8.6290 1 S
FDMO 8.6388 1 S
ED19 2.5888 1 P
ED21 4.9188 1 P
ED18 8.1588 1 S
NRCA 2.7690 1 S
T1245 4.1890 1 S
MMO1 7.5589 1 S
ED16 6.6988 1 S
ED10 3.0688 1 S
ED10 1.5688 1 P
T1246 6.8388 1 P
ED24 6.5188 1 S
T1218 5.4288 1 S
# 2016 10 14 08 18 32.674 42.6431 13.3371 9.25 0 0 0 0 269
ED04 2.2964 1 P
ED04 3.7464 1 S
ED06 4.0164 1 P
ED06 7.4064 1 S
ED01 7.8964 1 S
ED03 2.6564 1 P
ED03 4.8564 1 S
T1299 1.5865 1 P
ED24 2.6264 1 P
ED24 4.9264 1 S
T1204 1.6264 1 P
MMO1 9.2965 1 S
ED22 12.8964 1 S
ED09 6.4064 1 S
ED09 3.4664 1 P
TERO 3.9764 1 P
TERO 7.2964 1 S
ED07 4.4264 1 S
ED07 2.5564 1 P
T1246 5.2464 1 S
T1246 3.0164 1 P
GIGS 9.0564 1 S
CAMP 5.0864 1 S
ED14 8.0564 1 S
ED14 4.3964 1 P
ED25 1.7564 1 P
ED25 3.6064 1 S
ED05 6.4764 1 S
SMA1 1.5764 1 P
# 2016 10 14 08 20 19.000 42.6478 13.3313 9.52 0 0 0 0 270
SMA1 1.6798 1 P
SMA1 3.0298 1 S
ED03 4.8998 1 S
T1299 3.4098 1 S
T1299 1.8399 1 P
ED24 2.6898 1 P
ED24 4.8898 1 S
T1201 3.9098 1 S
T1201 2.1598 1 P
T1218 6.1898 1 S
T1218 3.4098 1 P
ED11 8.0798 1 S
T1214 5.7798 1 S
T1204 3.3198 1 S
T1204 1.7298 1 P
ED20 2.8998 1 P
ED20 5.1998 1 S
TERO 4.0398 1 P
TERO 7.3398 1 S
ED07 2.6098 1 P
T1246 5.5298 1 S
T1246 3.0698 1 P
CAMP 5.1598 1 S
ED25 1.9298 1 P
ED25 3.7298 1 S
# 2016 10 14 08 22 13.428 42.8893 13.2506 5.99 0 0 0 0 271
ED03 10.5620 1 S
ED24 8.4320 1 S
ED10 5.5720 1 S
ED10 3.1020 1 P
T1212 8.1320 1 S
T1245 1.6322 1 P
T1245 2.8522 1 S
ED12 8.3520 1 S
ED19 3.8820 1 S
ED19 2.0220 1 P
MC2 2.5922 1 S
FDMO 7.1020 1 S
ED18 4.5220 1 S
ED21 5.6820 1 S
ED17 3.7920 1 S
ED17 2.1520 1 P
MMO1 1.7821 1 P
MMO1 3.1121 1 S
TERO 12.9320 1 S
ED16 3.8320 1 S
# 2016 10 14 08 22 19.322 42.6532 13.3370 8.25 0 0 0 0 272
SMA1 1.3785 1 P
SMA1 2.5485 1 S
ED04 3.9185 1 S
T1299 1.5286 1 P
T1299 3.0685 1 S
ED24 2.4385 1 P
ED24 4.6285 1 S
T1201 1.8685 1 P
T1201 3.5585 1 S
T1218 3.1685 1 P
ED10 7.1185 1 S
T1204 1.5085 1 P
T1204 2.8585 1 S
ED19 10.7285 1 S
ED18 12.2385 1 S
ED21 13.2185 1 S
ED09 6.0785 1 S
ED20 2.5885 1 P
TERO 3.7785 1 P
ED07 2.3285 1 P
ED07 4.1985 1 S
T1246 2.8285 1 P
T1246 5.2485 1 S
CAMP 4.9085 1 S
CAMP 2.6185 1 P
ED25 1.6385 1 P
ED25 3.3685 1 S
ED05 6.2785 1 S
# 2016 10 14 08 23 13.009 42.6495 13.3321 8.97 0 0 0 0 273
SMA1 1.3914 1 P
T1247 7.8014 1 S
ED04 2.1814 1 P
ED04 3.8414 1 S
ED06 3.9914 1 P
ED06 7.3514 1 S
RM33 6.3614 1 S
ED01 4.2014 1 P
ED03 2.6114 1 P
T1299 1.6915 1 P
T1299 3.2014 1 S
T1211 6.7414 1 P
ED02 5.5714 1 P
ED24 2.5614 1 P
ED24 4.8314 1 S
T1201 2.0114 1 P
T1218 3.3014 1 P
T1218 6.0814 1 S
ED11 4.3014 1 P
ED11 7.9314 1 S
T1217 10.3814 1 S
T1212 8.2814 1 S
T1212 4.5414 1 P
ED12 6.0814 1 P
ED10 7.0014 1 S
ED10 3.8314 1 P
NRCA 4.6916 1 P
T1214 5.4114 1 S
T1204 1.6014 1 P
ED19 5.8314 1 P
ED19 10.7514 1 S
T1245 8.5716 1 S
FDMO 14.8014 1 S
MC2 10.2316 1 S
CSP1 15.5914 1 S
ED18 6.6214 1 P
ED18 12.2214 1 S
ED21 7.1214 1 P
ED21 13.0814 1 S
ED16 4.0014 1 P
ED17 5.9214 1 P
ED17 11.0014 1 S
MMO1 8.9815 1 S
ED22 12.6914 1 S
ED09 6.2114 1 S
ED09 3.3414 1 P
ED20 2.6114 1 P
TERO 7.1914 1 S
TERO 3.9114 1 P
ED07 2.4914 1 P
T1246 5.3614 1 S
T1246 2.9314 1 P
ED15 7.3614 1 S
ED15 3.9714 1 P
CAMP 2.7414 1 P
CAMP 5.0514 1 S
ED14 7.8114 1 S
ED14 4.1914 1 P
ED25 1.6414 1 P
ED25 3.5614 1 S
ED05 6.1614 1 S
ED05 3.4614 1 P
# 2016 10 14 08 26 20.809 42.6485 13.3308 10.37 0 0 0 0 274
SMA1 1.5906 1 P
ED04 2.2806 1 P
ED04 4.1506 1 S
ED03 2.7306 1 P
T1299 1.8107 1 P
ED02 10.4106 1 S
ED24 2.6906 1 P
ED24 4.8806 1 S
T1201 3.8206 1 S
T1201 2.1206 1 P
T1218 6.1606 1 S
T1218 3.4206 1 P
ED11 4.4206 1 P
ED11 8.0206 1 S
T1212 8.4206 1 S
T1212 4.6806 1 P
ED10 7.2906 1 S
NRCA 8.7908 1 S
T1204 1.7506 1 P
ED19 10.8806 1 S
FDMO 14.9906 1 S
MC2 10.4408 1 S
ED18 12.4506 1 S
ED21 13.3306 1 S
ED16 7.5406 1 S
ED17 11.1406 1 S
MMO1 9.2907 1 S
ED09 3.4606 1 P
ED09 6.3406 1 S
ED20 2.8106 1 P
TERO 7.2606 1 S
TERO 4.0206 1 P
ED07 4.7006 1 S
ED07 2.5706 1 P
T1246 3.1406 1 P
T1246 5.4406 1 S
ED15 7.4406 1 S
CAMP 5.1206 1 S
CAMP 2.8506 1 P
ED14 8.1006 1 S
ED25 1.8306 1 P
ED25 3.6006 1 S
ED05 6.3906 1 S
# 2016 10 14 08 27 18.950 42.8691 13.0811 4.79 0 0 0 0 275
ED11 7.0398 1 S
T1212 4.8998 1 S
T1212 2.5498 1 P
ED02 10.2998 1 S
T1211 13.6998 1 S
T1217 3.8498 1 P
T1217 7.4098 1 S
ED12 1.7998 1 P
ED12 4.0298 1 S
T1215 3.3298 1 P
T1215 6.2998 1 S
T1216 1.0998 1 P
CESI 6.9100 1 S
FDMO 3.1798 1 P
FDMO 6.2298 1 S
CSP1 4.5698 1 P
ED21 4.0698 1 P
ED21 7.8798 1 S
ED19 1.3998 1 P
ED18 3.3098 1 P
ED22 8.6598 1 S
ED17 7.2698 1 S
ED17 3.7298 1 P
MC2 2.0100 1 P
MMO1 6.9499 1 S
T1245 3.1600 1 S
ED20 10.2498 1 S
CAMP 14.3498 1 S
NRCA 1.1100 1 P
ED10 3.9098 1 S
ED10 2.2198 1 P
ED24 8.6198 1 S
ED03 10.3898 1 S
T1218 7.5398 1 S
# 2016 10 14 08 29 25.696 42.6406 13.2225 8.79 0 0 0 0 276
RM33 5.6535 1 S
ED03 1.5935 1 P
ED03 3.2635 1 S
ED01 3.3035 1 P
ED01 6.1435 1 S
T1211 5.6935 1 P
T1211 10.3535 1 S
ARRO 6.6537 1 P
ED02 4.4735 1 P
ED02 8.1035 1 S
T1217 4.5835 1 P
T1217 8.4135 1 S
ED11 3.2435 1 P
ED11 5.8635 1 S
T1218 2.2135 1 P
T1218 4.2035 1 S
T1215 5.8935 1 P
T1215 10.7835 1 S
T1212 6.6435 1 S
ED12 5.0435 1 P
ED12 9.2335 1 S
ED24 1.6235 1 P
ED10 5.8035 1 S
ED10 3.2735 1 P
NRCA 7.6637 1 S
NRCA 4.2137 1 P
ED19 10.3835 1 S
T1245 8.6337 1 S
ED18 6.8335 1 P
ED18 12.5935 1 S
T1202 2.1835 1 P
T1202 4.2535 1 S
ED21 13.6935 1 S
ED17 11.6335 1 S
ED17 6.3035 1 P
ED22 13.5435 1 S
MMO1 9.8536 1 S
ED16 7.9935 1 S
ED09 4.2235 1 P
T1201 1.6335 1 P
ED20 3.7235 1 P
T1204 4.0335 1 S
T1204 2.2335 1 P
T1299 1.7236 1 P
ED07 6.7035 1 S
ED07 3.6435 1 P
SMA1 3.9635 1 S
SMA1 2.3735 1 P
TERO 5.2235 1 P
T1246 7.4635 1 S
T1246 4.0835 1 P
ED25 2.6335 1 P
ED25 4.7435 1 S
ED04 4.3335 1 S
ED14 9.2635 1 S
ED05 4.0435 1 P
ED05 7.2035 1 S
ED06 6.9535 1 S
# 2016 10 14 08 32 40.893 42.8096 13.0815 7.69 0 0 0 0 277
ED11 4.8072 1 S
T1212 1.5372 1 P
ED12 1.8372 1 P
ED12 3.4772 1 S
T1215 5.6772 1 S
CESI 8.5274 1 S
T1216 4.0272 1 S
T1216 2.1072 1 P
FDMO 4.2572 1 P
CSP1 5.6872 1 P
CSP1 9.8272 1 S
ED19 2.4372 1 P
ED19 4.7572 1 S
ED21 4.7772 1 P
ED18 8.0172 1 S
ED17 4.1672 1 P
ED17 7.9472 1 S
T1245 4.0374 1 S
MMO1 7.4173 1 S
ED16 6.3372 1 S
T1218 5.2772 1 S
# 2016 10 14 08 33 51.248 42.7640 13.1353 9.42 0 0 0 0 278
T1218 2.4719 1 P
T1218 4.2819 1 S
ED02 4.3919 1 P
ED02 8.1419 1 S
ED11 2.6319 1 P
ED11 4.7919 1 S
T1217 3.4219 1 P
T1217 6.3319 1 S
T1212 2.1219 1 P
T1215 4.0319 1 P
ED12 2.9119 1 P
ED12 5.1619 1 S
CESI 10.5421 1 S
T1216 3.4119 1 P
T1216 5.9019 1 S
FEMA 8.0019 1 S
FDMO 9.9919 1 S
FDMO 5.5119 1 P
NRCA 2.0421 1 P
NRCA 3.9021 1 S
ED19 3.3919 1 P
ED19 6.2419 1 S
CSP1 12.1219 1 S
MC2 5.9721 1 S
ED18 4.8819 1 P
ED18 8.8519 1 S
ED21 5.4719 1 P
ED21 10.1119 1 S
T1245 2.5821 1 P
T1245 4.7521 1 S
ED22 10.1219 1 S
ED17 4.5819 1 P
ED10 1.5919 1 P
MMO1 7.3420 1 S
MMO1 3.9520 1 P
ED16 3.3319 1 P
ED16 6.2319 1 S
ED09 4.1119 1 P
T1214 2.0519 1 P
ED20 4.1919 1 P
TERO 6.7719 1 P
ED07 10.1119 1 S
ED07 5.2019 1 P
T1204 6.8519 1 S
T1204 3.4719 1 P
T1246 5.8919 1 P
T1246 11.1419 1 S
T1202 4.5019 1 S
ED25 4.5219 1 P
ED25 8.8819 1 S
CAMP 10.5719 1 S
T1201 3.2619 1 P
ED14 13.4419 1 S
ED14 7.3019 1 P
ED05 11.5719 1 S
ED24 2.7419 1 P
ED24 5.0719 1 S
ED03 6.7719 1 S
# 2016 10 14 08 34 39.327 42.8077 13.0817 6.89 0 0 0 0 279
T1212 1.7832 1 P
T1212 2.8732 1 S
T1215 3.2232 1 P
T1215 5.8732 1 S
ED12 2.0732 1 P
ED12 3.7232 1 S
T1216 4.2732 1 S
FDMO 8.7532 1 S
FDMO 4.4232 1 P
CSP1 5.7632 1 P
ED19 2.6832 1 P
ED19 5.0032 1 S
ED21 5.0132 1 P
ED21 9.3632 1 S
ED18 4.3032 1 P
ED18 8.2132 1 S
NRCA 2.7634 1 S
MC2 2.9334 1 P
ED22 9.9432 1 S
ED17 8.1632 1 S
ED17 4.4032 1 P
T1245 4.2834 1 S
MMO1 7.3633 1 S
ED16 6.6632 1 S
T1214 2.4332 1 P
ED10 1.6332 1 P
ED10 3.1532 1 S
T1246 6.9632 1 P
T1218 2.9832 1 P
T1218 5.5132 1 S
# 2016 10 14 08 44 51.764 42.7982 13.1619 6.25 0 0 0 0 280
T1218 2.6660 1 P
T1218 5.0060 1 S
ED10 0.9160 1 P
ED11 2.8960 1 P
ED11 5.5460 1 S
T1212 3.8160 1 S
T1212 1.9960 1 P
ED12 4.8260 1 S
NRCA 1.2662 1 P
NRCA 2.4362 1 S
ED19 4.8560 1 S
T1245 2.4762 1 S
ED21 8.9160 1 S
ED17 3.7860 1 P
MMO1 6.2961 1 S
ED20 7.2060 1 S
TERO 12.5460 1 S
ED07 9.7460 1 S
T1246 11.0460 1 S
T1214 1.3360 1 P
T1214 2.7060 1 S
T1201 3.2560 1 P
ED24 5.4760 1 S
# 2016 10 14 08 45 48.481 42.8766 13.0747 3.56 0 0 0 0 281
ED08 7.9089 1 P
ED11 3.8389 1 P
ED11 7.2389 1 S
T1212 4.8489 1 S
T1212 2.4089 1 P
ED02 10.8089 1 S
ED02 5.8389 1 P
T1211 14.2089 1 S
T1211 7.4089 1 P
T1217 7.5389 1 S
T1217 3.9589 1 P
ARRO 14.1192 1 S
ARRO 7.4391 1 P
ED12 4.4889 1 S
T1215 3.2689 1 P
T1215 6.7189 1 S
T1216 0.7389 1 P
CESI 7.3891 1 S
CESI 3.9189 1 P
SEF1 11.1791 1 S
FDMO 3.1689 1 P
MDAR 12.1591 1 S
ED21 3.8289 1 P
ED18 3.3389 1 P
ED19 1.1789 1 P
ED17 3.6589 1 P
MC2 1.7591 1 P
MMO1 3.5990 1 P
MMO1 7.5890 1 S
ED16 7.2989 1 S
T1245 1.6991 1 P
ED09 5.3989 1 P
ED09 10.0889 1 S
ED20 10.8289 1 S
ED20 5.7889 1 P
TERO 16.3489 1 S
TERO 8.7289 1 P
ED07 14.0489 1 S
ED07 7.4489 1 P
T1246 15.0589 1 S
T1246 8.1189 1 P
ED15 9.3489 1 P
T1204 5.6089 1 P
GIGS 10.5889 1 P
T1214 3.3989 1 P
T1214 5.7589 1 S
SMA1 6.3489 1 P
ED25 6.9489 1 P
T1299 11.2289 1 S
T1299 6.0390 1 P
ED14 18.3189 1 S
ED14 9.5989 1 P
T1202 8.5689 1 S
T1201 10.3189 1 S
ED05 16.1189 1 S
ED05 8.7089 1 P
NRCA 1.4591 1 P
ED10 2.5689 1 P
ED10 4.6589 1 S
T1247 9.1589 1 P
ED24 8.9089 1 S
ED24 4.8189 1 P
ED03 10.9089 1 S
ED03 5.8189 1 P
RM33 14.0989 1 S
RM33 7.3289 1 P
ED06 15.3789 1 S
ED06 8.3189 1 P
T1218 8.3289 1 S
T1218 4.2089 1 P
ED01 12.9289 1 S
ED01 6.9089 1 P
