# 2016 10 14 01 37 22.620 42.8755 13.0658 7.76 0 0 0 0 72
T1212 2.7996 1 P
T1212 5.1996 1 S
ED11 7.1496 1 S
T1217 7.1496 1 S
ED12 2.2996 1 P
ED12 4.1096 1 S
T1215 3.2696 1 P
T1216 1.3496 1 P
CESI 6.4298 1 S
FDMO 3.2296 1 P
FDMO 6.0396 1 S
CSP1 8.6496 1 S
ED21 4.1996 1 P
ED21 8.0596 1 S
ED18 3.5096 1 P
ED19 1.9296 1 P
ED17 3.9096 1 P
MC2 4.5498 1 S
MMO1 7.3397 1 S
MMO1 3.8697 1 P
T1245 2.3098 1 P
T1245 3.8898 1 S
ED16 7.0896 1 S
ED09 9.7996 1 S
ED09 5.1796 1 P
ED20 5.6696 1 P
ED20 10.4996 1 S
NRCA 1.6498 1 P
NRCA 3.2398 1 S
T1214 5.8296 1 S
ED10 4.6496 1 S
ED10 2.5196 1 P
T1218 7.8196 1 S
# 2016 10 14 01 40 03.903 42.8552 13.2559 4.31 0 0 0 0 73
ED10 2.2867 1 P
T1212 7.0467 1 S
NRCA 2.1769 1 P
T1245 1.2869 1 P
ED19 2.3567 1 P
ED19 4.4567 1 S
FDMO 8.3567 1 S
ED18 3.0067 1 P
ED18 5.7767 1 S
ED21 6.7267 1 S
ED17 4.6667 1 S
ED17 2.6967 1 P
ED22 6.6567 1 S
MMO1 1.5468 1 P
MMO1 2.8568 1 S
ED16 1.0067 1 P
ED09 2.7367 1 P
ED20 3.0867 1 P
# 2016 10 14 01 40 53.942 42.8153 13.1376 5.86 0 0 0 0 74
T1218 5.5277 1 S
ED11 5.8677 1 S
T1212 3.4277 1 S
ED12 2.6077 1 P
NRCA 1.1079 1 P
NRCA 1.7979 1 S
ED19 4.3677 1 S
ED21 8.2877 1 S
T1245 1.4279 1 P
T1245 2.8179 1 S
MMO1 6.1478 1 S
ED16 4.9177 1 S
T1214 1.6777 1 P
T1214 3.4777 1 S
ED10 1.1577 1 P
# 2016 10 14 01 45 57.570 42.8463 12.9922 7.92 0 0 0 0 75
ED12 1.3799 1 P
ED02 8.6899 1 S
ED02 4.8799 1 P
T1217 5.5899 1 S
T1217 2.9799 1 P
T1211 11.5199 1 S
T1215 2.1699 1 P
CESI 6.3201 1 S
CESI 3.4299 1 P
FDMO 7.3299 1 S
FDMO 3.8699 1 P
T1216 1.5299 1 P
ED21 5.1199 1 P
ED21 9.7299 1 S
ED18 4.4399 1 P
ED22 10.7299 1 S
ED19 2.7599 1 P
ED17 9.4999 1 S
ED17 4.8599 1 P
MMO1 9.2000 1 S
MMO1 4.7300 1 P
T1245 2.9701 1 P
T1245 5.8201 1 S
ED16 8.5099 1 S
ED09 11.2599 1 S
ED09 5.9299 1 P
NRCA 2.0701 1 P
NRCA 4.0701 1 S
T1214 6.7899 1 S
T1214 3.7999 1 P
ED10 2.7999 1 P
T1246 15.7899 1 S
ED24 8.7499 1 S
ED03 10.3699 1 S
T1212 4.4099 1 S
T1212 2.2799 1 P
ED01 11.6299 1 S
ED11 3.2099 1 P
ED11 6.1999 1 S
# 2016 10 14 01 46 32.947 42.8922 13.2400 5.40 0 0 0 0 76
ED03 5.6128 1 P
ED03 10.6728 1 S
ED24 4.8928 1 P
T1214 5.0928 1 S
T1214 2.7428 1 P
ED01 13.6528 1 S
T1218 8.9528 1 S
ED10 5.0628 1 S
ED10 2.6128 1 P
ED11 5.2128 1 P
T1211 15.9528 1 S
ED02 12.7728 1 S
T1245 1.0230 1 P
T1212 3.9028 1 P
T1212 7.3428 1 S
T1217 9.9128 1 S
NRCA 2.1530 1 P
ED12 4.0828 1 P
T1215 5.4328 1 P
T1215 10.2428 1 S
T1216 3.1728 1 P
T1216 6.0828 1 S
ED19 3.1928 1 S
ED19 1.4528 1 P
CESI 5.1528 1 P
CESI 9.7730 1 S
FEMA 6.0828 1 S
MC2 0.9430 1 P
FDMO 3.4428 1 P
FDMO 6.5828 1 S
ED18 4.0928 1 S
ED18 1.9828 1 P
ED21 5.1028 1 S
ED21 2.7328 1 P
GUMA 7.1731 1 S
GUMA 3.9529 1 P
ED22 5.1128 1 S
ED17 1.7428 1 P
MMO1 1.1729 1 P
ED09 6.1528 1 S
ED09 3.0728 1 P
ED20 3.7528 1 P
ED20 7.2128 1 S
TERO 13.2328 1 S
TERO 6.9028 1 P
ED16 1.5728 1 P
ED15 15.0128 1 S
T1246 12.5428 1 S
ED07 11.0628 1 S
GIGS 17.2428 1 S
CAMP 13.0628 1 S
SMA1 9.6528 1 S
ED05 14.9928 1 S
# 2016 10 14 01 50 44.260 42.7424 13.1747 5.28 0 0 0 0 77
T1218 1.6999 1 P
T1218 3.4499 1 S
ED02 8.1799 1 S
ED11 2.3299 1 P
T1212 2.0499 1 P
T1212 4.0099 1 S
T1215 8.5799 1 S
ED12 3.2599 1 P
ED12 5.4299 1 S
ED10 1.0599 1 P
NRCA 2.0301 1 P
NRCA 4.0101 1 S
T1245 4.7801 1 S
ED17 8.6799 1 S
MMO1 7.2000 1 S
ED16 5.2499 1 S
T1214 0.7899 1 P
T1202 1.0399 1 P
T1202 2.3399 1 S
T1201 2.0699 1 P
T1201 4.3999 1 S
ED24 1.7499 1 P
ED24 3.2699 1 S
# 2016 10 14 01 51 08.959 42.8960 13.2363 4.91 0 0 0 0 78
T1214 5.3411 1 S
ED10 2.7111 1 P
ED10 4.9511 1 S
T1245 1.1413 1 P
ED12 7.9011 1 S
T1216 6.0111 1 S
ED19 1.5811 1 P
ED19 3.1011 1 S
MC2 1.0413 1 P
MC2 1.7613 1 S
FDMO 6.7311 1 S
CSP1 7.6411 1 S
ED18 2.0311 1 P
ED18 3.8911 1 S
ED21 2.7211 1 P
ED21 5.0011 1 S
ED22 4.8811 1 S
ED17 1.6611 1 P
MMO1 1.2812 1 P
ED20 7.1711 1 S
TERO 13.7911 1 S
ED16 3.1211 1 S
# 2016 10 14 01 52 14.932 42.7678 13.1388 10.26 0 0 0 0 79
T1218 4.4982 1 S
ED10 1.5282 1 P
T1211 11.6782 1 S
ED11 2.4982 1 P
ED11 4.7582 1 S
ED02 8.1582 1 S
T1217 6.2782 1 S
T1212 2.0482 1 P
T1212 3.8382 1 S
ED12 2.9982 1 P
ED12 5.1482 1 S
T1216 5.9682 1 S
NRCA 2.0084 1 P
NRCA 3.8584 1 S
ED19 6.1582 1 S
ED21 10.0182 1 S
T1245 2.4684 1 P
T1245 4.7384 1 S
ED22 10.0282 1 S
ED17 8.4082 1 S
ED17 4.4782 1 P
MMO1 7.1883 1 S
ED16 6.0482 1 S
ED20 4.0482 1 P
ED20 7.7582 1 S
T1214 3.6982 1 S
T1214 1.8882 1 P
ED07 9.8482 1 S
T1246 11.0582 1 S
T1202 2.3282 1 P
T1202 4.6282 1 S
T1299 7.2282 1 S
ED05 11.6482 1 S
ED24 2.5782 1 P
ED24 4.9982 1 S
ED03 6.7082 1 S
# 2016 10 14 01 52 34.596 42.8912 13.2457 6.87 0 0 0 0 80
T1201 8.7737 1 S
T1214 6.5137 1 S
T1218 4.7037 1 P
ED10 5.9137 1 S
T1212 8.2837 1 S
T1245 2.0439 1 P
ED12 8.8537 1 S
T1215 11.2337 1 S
T1216 6.9437 1 S
ED19 2.5137 1 P
ED19 4.0337 1 S
MC2 1.9639 1 P
FDMO 7.6637 1 S
ED18 5.0137 1 S
ED21 6.1437 1 S
ED22 6.0437 1 S
ED17 4.0937 1 S
ED17 2.6337 1 P
MMO1 2.2238 1 P
ED20 8.1637 1 S
ED16 4.0737 1 S
# 2016 10 14 01 55 06.880 42.8201 13.2103 4.52 0 0 0 0 81
T1214 1.2696 1 P
ED03 8.0896 1 S
ED02 10.6096 1 S
ED10 1.3596 1 P
ED10 2.6596 1 S
NRCA 3.0698 1 S
ED19 4.5396 1 S
T1245 2.0398 1 S
T1245 1.0798 1 P
FDMO 8.8296 1 S
ED18 6.7296 1 S
ED21 7.8896 1 S
ED17 5.9196 1 S
ED17 3.0696 1 P
MMO1 4.4497 1 S
MMO1 2.2397 1 P
ED16 3.0796 1 S
ED16 1.6096 1 P
T1246 10.6596 1 S
# 2016 10 14 01 55 57.659 42.9006 13.2425 4.41 0 0 0 0 82
ED24 9.4005 1 S
T1214 5.5005 1 S
ED10 2.6205 1 P
T1212 7.5605 1 S
T1245 1.1707 1 P
ED12 7.9405 1 S
ED19 1.5705 1 P
MC2 2.1607 1 S
CESI 9.9607 1 S
FDMO 6.6205 1 S
CSP1 7.5105 1 S
ED18 3.7905 1 S
ED21 4.9905 1 S
ED22 5.0005 1 S
ED17 3.2805 1 S
ED17 1.6505 1 P
MMO1 1.2506 1 P
MMO1 2.5706 1 S
ED09 3.4505 1 P
ED20 7.2805 1 S
ED16 3.2605 1 S
# 2016 10 14 01 56 13.869 42.8473 13.2501 14.04 0 0 0 0 83
RM33 12.6413 1 S
T1202 7.4613 1 S
ED24 8.5213 1 S
T1214 6.0113 1 S
ED01 12.7413 1 S
ED02 12.4813 1 S
ED11 9.1113 1 S
ED11 5.0913 1 P
ED10 5.8313 1 S
T1212 7.8713 1 S
NRCA 5.6415 1 S
T1215 11.0713 1 S
T1245 2.8415 1 P
T1245 5.1115 1 S
CESI 11.2915 1 S
ED19 5.9713 1 S
ED19 3.4113 1 P
MC2 5.6915 1 S
FDMO 8.9613 1 S
CSP1 5.3813 1 P
ED18 6.8813 1 S
ED18 3.8913 1 P
ED21 7.9813 1 S
ED21 4.3213 1 P
ED22 7.6413 1 S
ED17 3.5213 1 P
ED17 6.1513 1 S
MMO1 5.3314 1 S
MMO1 3.0314 1 P
ED09 6.6513 1 S
ED09 3.6213 1 P
ED16 2.8713 1 P
ED16 5.1513 1 S
ED20 4.1213 1 P
ED20 7.3413 1 S
TERO 12.7913 1 S
T1246 6.6713 1 P
T1246 11.7913 1 S
ED07 10.2313 1 S
CAMP 12.4113 1 S
ED14 15.1913 1 S
ED25 10.2913 1 S
SMA1 9.0613 1 S
T1204 7.9013 1 S
ED05 14.1413 1 S
T1299 5.0214 1 P
T1299 9.0713 1 S
# 2016 10 14 02 01 16.549 42.6224 13.2590 12.23 0 0 0 0 84
RM33 3.3512 1 P
ED01 3.9212 1 P
ED01 6.8012 1 S
ED03 2.4812 1 P
ED02 9.3312 1 S
ED02 5.3212 1 P
ED11 4.2612 1 P
ED11 7.2712 1 S
T1218 5.4112 1 S
T1215 6.6012 1 P
ED24 2.5412 1 P
T1212 8.0512 1 S
ED12 5.3312 1 P
ED10 7.8012 1 S
T1202 5.5312 1 S
T1202 3.0412 1 P
T1201 2.3912 1 P
ED18 6.7912 1 P
ED21 7.5212 1 P
ED17 7.0712 1 P
ED16 8.8912 1 S
MMO1 10.2713 1 S
ED09 4.6012 1 P
T1204 2.6612 1 P
ED20 4.0512 1 P
T1299 2.1513 1 P
SMA1 2.5512 1 P
ED07 6.5312 1 S
ED07 3.7312 1 P
TERO 5.2712 1 P
T1246 4.1312 1 P
T1246 7.1112 1 S
ED25 2.7412 1 P
GIGS 10.3612 1 S
ED14 8.7512 1 S
ED04 4.2312 1 S
ED04 2.5512 1 P
ED05 6.8312 1 S
# 2016 10 14 02 01 51.051 43.0207 12.9805 9.72 0 0 0 0 85
T1215 4.6295 1 P
T1215 8.7995 1 S
CESI 2.0195 1 P
CSP1 7.0795 1 S
FDMO 2.3295 1 P
FDMO 4.3795 1 S
ED21 8.2495 1 S
ED18 7.8195 1 S
ED17 9.2595 1 S
MMO1 10.5296 1 S
ED19 6.4895 1 S
NRCA 4.2697 1 P
NRCA 8.0497 1 S
ED10 10.2195 1 S
T1216 5.7495 1 S
T1216 3.0495 1 P
ED12 4.4395 1 P
# 2016 10 14 02 02 15.947 42.8697 13.2398 4.39 0 0 0 0 86
T1202 6.7535 1 S
ED03 9.9035 1 S
ED24 8.1835 1 S
T1214 4.5735 1 S
T1218 8.2535 1 S
ED10 4.4335 1 S
ED10 2.3835 1 P
ED11 8.8335 1 S
ED02 12.3235 1 S
T1212 6.8935 1 S
T1217 10.0935 1 S
NRCA 3.9337 1 S
NRCA 2.0437 1 P
T1245 1.1137 1 P
ED12 7.5735 1 S
T1215 10.0235 1 S
CESI 10.2337 1 S
ED19 3.3335 1 S
ED19 1.9235 1 P
MC2 1.5337 1 P
MC2 2.2937 1 S
FDMO 7.7135 1 S
CSP1 8.4135 1 S
ED18 4.8935 1 S
ED18 2.5735 1 P
ED21 5.9735 1 S
ED17 2.1535 1 P
ED17 4.0735 1 S
MMO1 1.4936 1 P
ED09 2.8935 1 P
ED20 6.6335 1 S
ED16 2.3935 1 S
TERO 12.6235 1 S
# 2016 10 14 02 03 10.893 42.6549 13.2824 6.71 0 0 0 0 87
T1299 0.8168 1 P
ED03 3.6967 1 S
ED24 1.6367 1 P
T1201 0.9167 1 P
ED11 6.8767 1 S
T1202 1.6167 1 P
ED10 5.9867 1 S
NRCA 7.7669 1 S
ED17 11.1267 1 S
ED16 6.9067 1 S
ED20 2.5967 1 P
T1204 0.9567 1 P
ED07 2.6167 1 P
ED07 4.9767 1 S
T1246 6.1767 1 S
SMA1 1.1767 1 P
ED25 1.8567 1 P
ED25 3.4967 1 S
# 2016 10 14 02 04 24.498 42.8995 13.2442 4.12 0 0 0 0 88
ED06 15.1921 1 S
RM33 13.8121 1 S
RM33 7.5721 1 P
T1202 4.0021 1 P
ED03 10.8221 1 S
ED03 5.7821 1 P
ED24 4.7521 1 P
ED24 9.3221 1 S
T1214 5.5921 1 S
T1214 2.7621 1 P
ED01 13.4221 1 S
ED01 7.3021 1 P
T1218 9.1221 1 S
T1218 4.7421 1 P
ED10 2.7521 1 P
ED10 5.2521 1 S
ED11 4.9221 1 P
ED11 9.3821 1 S
T1211 16.2921 1 S
T1211 8.7921 1 P
ED02 6.9121 1 P
T1212 3.8821 1 P
T1212 7.5221 1 S
T1245 0.9223 1 P
T1217 5.6021 1 P
NRCA 2.1523 1 P
ED12 4.0621 1 P
ED12 8.0621 1 S
T1215 5.3921 1 P
T1215 10.5421 1 S
T1216 3.0721 1 P
T1216 6.1621 1 S
MC2 1.0723 1 P
CESI 9.8423 1 S
CESI 5.2121 1 P
FEMA 6.0721 1 S
FDMO 3.5121 1 P
CSP1 7.7321 1 S
CSP1 3.9121 1 P
ED18 1.9721 1 P
ED18 3.8821 1 S
ED21 2.6121 1 P
ED21 5.0621 1 S
ED22 4.5321 1 S
ED17 3.5121 1 S
ED17 1.4321 1 P
MMO1 0.8922 1 P
ED09 6.2721 1 S
ED09 3.2821 1 P
TERO 13.5621 1 S
TERO 7.1221 1 P
ED20 7.5321 1 S
ED20 3.9521 1 P
ED16 1.7421 1 P
ED15 8.0821 1 P
ED15 14.9721 1 S
T1246 6.8121 1 P
T1246 13.1021 1 S
ED07 6.0421 1 P
ED07 10.8321 1 S
GIGS 9.4221 1 P
GIGS 17.1721 1 S
CAMP 13.2421 1 S
ED14 8.8021 1 P
ED14 16.4921 1 S
ED25 6.0721 1 P
SMA1 5.2021 1 P
T1204 8.6521 1 S
T1204 4.5621 1 P
ED05 8.0021 1 P
ED05 15.1321 1 S
T1299 5.2622 1 P
T1247 16.2721 1 S
# 2016 10 14 02 05 21.635 42.9243 13.0746 8.87 0 0 0 0 89
T1212 6.9052 1 S
T1217 8.8652 1 S
ED12 3.2452 1 P
ED12 5.8752 1 S
T1216 3.3252 1 S
T1216 2.0152 1 P
T1215 7.3252 1 S
T1215 4.0652 1 P
CESI 3.3052 1 P
FDMO 2.8352 1 P
FDMO 4.9352 1 S
CSP1 7.3552 1 S
ED21 3.8452 1 P
ED21 6.9852 1 S
ED18 3.2452 1 P
ED18 5.8552 1 S
ED22 7.9452 1 S
ED17 6.8952 1 S
ED17 3.7552 1 P
MMO1 7.3153 1 S
MMO1 3.9853 1 P
ED19 3.6852 1 S
ED19 2.0352 1 P
ED09 10.3052 1 S
ED16 7.6752 1 S
ED20 11.4152 1 S
TERO 17.4852 1 S
T1245 5.1254 1 S
NRCA 2.5054 1 P
NRCA 4.6754 1 S
# 2016 10 14 02 07 57.318 42.8285 13.2390 6.25 0 0 0 0 90
T1202 2.7919 1 P
T1202 5.3319 1 S
RM33 11.7919 1 S
ED03 8.4519 1 S
ED24 3.7219 1 P
ED24 6.6919 1 S
T1214 3.7719 1 S
T1214 1.7019 1 P
ED01 11.5319 1 S
T1218 6.7919 1 S
ED02 11.1419 1 S
T1212 5.9919 1 S
T1217 9.4119 1 S
ED12 3.7719 1 P
NRCA 1.8621 1 P
T1216 3.3719 1 P
T1245 1.2921 1 P
ED19 2.4419 1 P
ED19 4.5319 1 S
FDMO 4.5819 1 P
ED17 3.0519 1 P
ED17 5.5819 1 S
MMO1 4.0820 1 S
MMO1 2.2520 1 P
ED16 2.5619 1 S
ED09 2.9419 1 P
ED09 5.4719 1 S
ED20 3.2719 1 P
ED20 6.1419 1 S
TERO 11.9219 1 S
TERO 6.3719 1 P
ED07 4.9819 1 P
ED07 9.4719 1 S
T1246 10.7919 1 S
T1246 5.8119 1 P
CAMP 11.0919 1 S
ED14 14.3019 1 S
SMA1 7.6719 1 S
SMA1 4.1719 1 P
ED05 12.7619 1 S
T1299 4.0220 1 P
# 2016 10 14 02 10 14.343 42.8935 13.2319 2.71 0 0 0 0 91
T1202 8.0471 1 S
ED03 11.0671 1 S
T1218 9.2371 1 S
ED10 2.6171 1 P
ED10 5.5771 1 S
ED11 5.3371 1 P
ED11 9.9471 1 S
T1245 1.1173 1 P
T1212 7.7271 1 S
T1217 10.6971 1 S
NRCA 2.4173 1 P
ED12 8.2271 1 S
T1215 10.6571 1 S
T1216 5.9371 1 S
T1216 3.4171 1 P
ED19 1.8071 1 P
MC2 1.4773 1 S
FDMO 7.1871 1 S
CSP1 7.6571 1 S
ED18 2.2171 1 P
ED21 3.0771 1 P
ED21 5.4071 1 S
ED22 5.0671 1 S
ED17 2.0371 1 P
MMO1 2.8772 1 S
MMO1 1.6372 1 P
ED09 6.4971 1 S
ED16 3.0071 1 S
ED07 11.7371 1 S
GIGS 17.7571 1 S
# 2016 10 14 02 11 27.309 42.5463 13.2359 -0.01 0 0 0 0 92
RM33 0.9210 1 P
ED01 2.2410 1 P
ED01 4.2710 1 S
T1218 5.6010 1 S
ED03 1.3910 1 P
ED03 2.5910 1 S
ED24 2.2310 1 P
ED24 4.5810 1 S
T1299 2.0611 1 P
T1299 3.9010 1 S
SMA1 4.2510 1 S
ED25 2.1710 1 P
ED25 3.9810 1 S
ED04 2.4510 1 S
ED07 3.4510 1 P
ED07 6.7110 1 S
ED05 2.2210 1 P
ED05 4.3510 1 S
ED14 6.7210 1 S
# 2016 10 14 02 13 47.007 42.6460 13.3321 9.63 0 0 0 0 93
SMA1 1.3427 1 P
ED04 3.9027 1 S
RM33 6.1527 1 S
ED01 7.5727 1 S
ED03 4.5827 1 S
ED03 2.4427 1 P
T1299 1.5128 1 P
T1299 3.1427 1 S
ED24 2.4127 1 P
ED24 4.6127 1 S
T1201 1.8827 1 P
T1201 3.5927 1 S
T1218 3.1327 1 P
T1218 5.9127 1 S
ED11 4.1227 1 P
ED11 7.8027 1 S
T1202 2.4827 1 P
T1214 5.9027 1 S
T1204 2.9127 1 S
T1204 1.4727 1 P
ED18 12.2427 1 S
ED21 13.2227 1 S
ED16 7.2727 1 S
MMO1 9.0728 1 S
ED22 12.6127 1 S
ED09 3.2227 1 P
ED09 6.1627 1 S
ED20 2.6027 1 P
ED20 4.9227 1 S
TERO 3.7527 1 P
TERO 7.0527 1 S
ED07 2.3327 1 P
ED07 4.2227 1 S
T1246 2.8127 1 P
T1246 5.2427 1 S
CAMP 4.8927 1 S
ED14 7.8227 1 S
ED25 1.6727 1 P
ED25 3.3627 1 S
ED05 6.2327 1 S
# 2016 10 14 02 18 18.749 42.5596 13.2895 5.95 0 0 0 0 94
RM33 3.5708 1 S
ED01 3.2108 1 P
ED02 9.6908 1 S
ED03 3.8008 1 S
T1218 6.3208 1 S
ED12 6.6308 1 P
ED04 2.2808 1 S
T1201 2.4108 1 P
T1299 1.8509 1 P
ED18 8.0508 1 P
ED21 8.5808 1 P
T1204 2.5408 1 P
SMA1 3.6408 1 S
ED25 1.6008 1 P
ED25 3.1108 1 S
ED07 2.8908 1 P
TERO 4.3508 1 P
T1246 2.9408 1 P
ED14 3.1708 1 P
ED05 4.1008 1 S
ED05 2.1408 1 P
# 2016 10 14 02 19 36.090 42.7398 13.1871 4.78 0 0 0 0 95
ED03 2.8001 1 P
ED03 5.5101 1 S
ED01 4.3301 1 P
ED01 8.6301 1 S
T1218 1.6001 1 P
T1218 3.5701 1 S
T1211 6.0201 1 P
ED02 4.3601 1 P
ED02 8.5701 1 S
ARRO 6.7303 1 P
ED11 2.3701 1 P
T1217 3.7501 1 P
T1212 2.0701 1 P
T1212 4.2301 1 S
T1215 4.6001 1 P
T1215 8.8401 1 S
ED12 3.2401 1 P
ED10 1.2401 1 P
T1216 3.7901 1 P
CESI 6.4201 1 P
NRCA 2.2103 1 P
NRCA 4.0903 1 S
FDMO 5.8001 1 P
ED19 3.6201 1 P
ED19 7.0401 1 S
T1245 2.4503 1 P
MC2 6.9303 1 S
MC2 3.5703 1 P
CSP1 6.6801 1 P
CSP1 12.6701 1 S
ED18 4.8901 1 P
ED18 9.4801 1 S
ED21 5.6101 1 P
ED21 10.7901 1 S
ED17 4.6001 1 P
ED17 8.8701 1 S
MMO1 7.0902 1 S
MMO1 3.6202 1 P
T1214 0.7101 1 P
ED16 2.8001 1 P
ED16 5.4801 1 S
ED09 6.8501 1 S
ED09 3.4401 1 P
ED20 3.1701 1 P
ED20 6.7501 1 S
TERO 11.3401 1 S
TERO 6.0301 1 P
ED07 8.7501 1 S
ED07 4.4601 1 P
T1246 9.7301 1 S
T1246 5.2001 1 P
ED15 6.4401 1 P
SMA1 3.2801 1 P
ED25 3.9701 1 P
CAMP 9.3201 1 S
T1202 1.0801 1 P
T1299 2.8802 1 P
ED14 6.5201 1 P
ED05 5.5601 1 P
ED05 10.6301 1 S
RM33 4.4501 1 P
RM33 8.5701 1 S
ED24 1.8001 1 P
# 2016 10 14 02 21 17.890 42.7442 13.2139 5.43 0 0 0 0 96
ED03 5.4698 1 S
ED24 1.7698 1 P
ED24 3.6198 1 S
T1218 4.1798 1 S
T1218 2.0598 1 P
ED02 8.8598 1 S
ED02 4.6998 1 P
ED11 2.7498 1 P
T1215 9.4798 1 S
ED10 2.5098 1 S
T1214 0.7498 1 P
ED09 6.1698 1 S
ED20 3.0898 1 P
ED20 5.9698 1 S
T1246 9.2798 1 S
T1202 2.2798 1 S
T1202 1.1398 1 P
# 2016 10 14 02 28 49.381 42.6471 13.2381 9.90 0 0 0 0 97
ED03 2.3290 1 P
ED03 3.9290 1 S
ED01 6.7890 1 S
ED11 3.6790 1 P
ED11 6.5690 1 S
T1218 4.7490 1 S
T1218 2.2790 1 P
ED24 2.1090 1 P
ED24 3.5790 1 S
T1212 4.0190 1 P
ED10 3.1090 1 P
ED10 6.3590 1 S
NRCA 8.0392 1 S
T1214 5.3290 1 S
T1202 4.5390 1 S
ED16 8.0990 1 S
ED09 4.2990 1 P
T1204 4.1590 1 S
TERO 9.6290 1 S
TERO 5.3790 1 P
ED07 3.8690 1 P
ED07 6.8390 1 S
SMA1 4.3490 1 S
SMA1 2.6490 1 P
T1299 3.4690 1 S
T1246 7.6090 1 S
ED25 2.9190 1 P
ED25 5.2190 1 S
ED14 9.4990 1 S
ED05 7.6190 1 S
# 2016 10 14 02 30 46.865 42.8035 13.2084 5.90 0 0 0 0 98
T1214 1.2045 1 P
T1214 2.4045 1 S
ED03 7.3845 1 S
ED24 6.0945 1 S
ED01 10.2145 1 S
T1218 5.8745 1 S
ED02 9.9245 1 S
ED11 6.4545 1 S
ED10 1.2545 1 P
T1217 8.1645 1 S
T1212 2.6045 1 P
T1212 4.8845 1 S
ED12 6.2645 1 S
ED12 3.2445 1 P
NRCA 1.5247 1 P
CESI 10.9247 1 S
ED19 4.9145 1 S
ED19 2.5345 1 P
FDMO 8.9945 1 S
T1245 2.1947 1 S
ED21 8.5545 1 S
ED17 6.4445 1 S
MMO1 5.0046 1 S
ED16 3.6845 1 S
ED16 1.8245 1 P
ED09 2.9645 1 P
ED20 3.2145 1 P
ED20 6.1845 1 S
TERO 6.1245 1 P
ED07 4.6345 1 P
ED07 9.0445 1 S
T1246 5.4745 1 P
T1246 10.3945 1 S
ED05 11.9245 1 S
# 2016 10 14 02 31 46.541 42.7468 13.1767 5.45 0 0 0 0 99
T1218 3.8987 1 S
ED02 4.4087 1 P
ED11 2.4687 1 P
T1212 3.9387 1 S
T1212 2.0987 1 P
T1215 8.5687 1 S
ED10 2.0487 1 S
ED10 1.2387 1 P
NRCA 2.0589 1 P
NRCA 3.8989 1 S
ED17 8.8787 1 S
MMO1 7.4888 1 S
T1214 1.0187 1 P
ED09 3.5387 1 P
ED20 3.6087 1 P
ED20 6.8987 1 S
T1246 9.8587 1 S
T1202 1.3887 1 P
T1202 2.9387 1 S
ED24 1.9787 1 P
ED24 3.5887 1 S
# 2016 10 14 02 33 17.351 42.8982 13.2474 4.74 0 0 0 0 100
T1245 1.2391 1 P
NRCA 2.1591 1 P
ED19 1.6489 1 P
ED19 3.1689 1 S
MC2 2.2691 1 S
CESI 9.8791 1 S
FDMO 6.7289 1 S
FDMO 3.3889 1 P
CSP1 7.4889 1 S
ED18 1.9289 1 P
ED18 3.8989 1 S
ED21 5.0189 1 S
ED17 3.2689 1 S
ED17 1.6389 1 P
MMO1 1.2290 1 P
ED20 7.3989 1 S
ED20 3.7089 1 P
ED16 3.1389 1 S
T1246 13.1689 1 S
# 2016 10 14 02 36 06.081 42.5609 13.2884 6.13 0 0 0 0 101
RM33 3.3689 1 S
ED01 3.0389 1 P
ED01 5.8789 1 S
ED02 9.5989 1 S
T1218 6.1589 1 S
ED24 2.6089 1 P
ED24 4.8289 1 S
T1201 2.2789 1 P
T1299 3.2889 1 S
T1299 1.6890 1 P
ED04 2.1389 1 S
SMA1 1.8489 1 P
SMA1 3.4289 1 S
ED25 1.4089 1 P
ED07 2.7189 1 P
T1246 2.7789 1 P
ED14 5.9889 1 S
ED14 2.9989 1 P
ED05 1.9689 1 P
ED05 3.7889 1 S
# 2016 10 14 02 40 37.641 42.8428 13.2151 -0.01 0 0 0 0 102
T1214 3.6790 1 S
NRCA 2.2692 1 S
NRCA 1.6992 1 P
T1245 0.6092 1 P
ED19 1.9390 1 P
ED19 3.7490 1 S
MC2 1.5392 1 P
MC2 2.9692 1 S
CSP1 10.1690 1 S
ED18 6.1290 1 S
ED22 7.0990 1 S
ED17 2.6790 1 P
MMO1 3.7691 1 S
MMO1 1.9791 1 P
ED16 2.7890 1 S
ED20 7.1490 1 S
T1202 2.9490 1 P
# 2016 10 14 02 43 38.104 42.7670 13.1382 8.96 0 0 0 0 103
T1218 2.1261 1 P
T1218 4.5261 1 S
ED02 4.4161 1 P
ED02 8.2661 1 S
ED11 2.6261 1 P
ED11 4.7961 1 S
T1217 3.4061 1 P
T1217 6.3361 1 S
T1212 2.1061 1 P
T1215 4.0161 1 P
T1215 7.8061 1 S
ED12 2.8961 1 P
ED12 5.1861 1 S
T1216 3.4561 1 P
T1216 6.1161 1 S
NRCA 3.6763 1 S
NRCA 2.0363 1 P
ED19 3.5061 1 P
ED19 6.1461 1 S
CSP1 11.7761 1 S
ED18 4.7361 1 P
ED18 8.8461 1 S
ED21 5.4261 1 P
ED21 10.0361 1 S
T1245 2.5663 1 P
T1245 4.5163 1 S
ED10 1.6261 1 P
ED22 10.0661 1 S
ED17 8.5561 1 S
ED17 4.5761 1 P
MMO1 7.4062 1 S
MMO1 3.9962 1 P
ED16 6.1761 1 S
ED16 3.2961 1 P
ED09 4.1361 1 P
ED09 7.8061 1 S
T1214 1.9861 1 P
T1214 3.5461 1 S
ED20 4.2461 1 P
TERO 12.9261 1 S
TERO 6.9961 1 P
ED07 5.3961 1 P
T1246 11.3561 1 S
T1202 2.5561 1 P
SMA1 4.0261 1 P
ED05 11.8361 1 S
ED24 2.8061 1 P
ED24 5.3861 1 S
# 2016 10 14 02 44 24.058 42.8860 13.2494 4.13 0 0 0 0 104
RM33 14.0117 1 S
ED03 10.7517 1 S
ED24 4.7617 1 P
T1214 2.8317 1 P
T1214 5.4017 1 S
ED01 13.4417 1 S
T1218 9.0417 1 S
T1218 4.7617 1 P
ED10 2.7517 1 P
ED11 9.7517 1 S
ED02 13.0117 1 S
T1212 4.0617 1 P
T1212 7.7417 1 S
T1245 1.3219 1 P
NRCA 2.3519 1 P
ED12 4.2917 1 P
T1215 5.6617 1 P
T1216 3.4517 1 P
T1216 6.4317 1 S
ED19 1.9117 1 P
CESI 10.2819 1 S
MC2 1.3619 1 P
FDMO 3.7217 1 P
CSP1 4.1717 1 P
ED18 2.2317 1 P
ED18 4.4117 1 S
ED21 2.9417 1 P
GUMA 7.8720 1 S
ED22 5.5317 1 S
ED17 1.9317 1 P
ED17 3.6417 1 S
MMO1 1.2418 1 P
ED09 3.1217 1 P
ED20 7.2117 1 S
ED20 3.8017 1 P
TERO 13.3117 1 S
TERO 6.9817 1 P
ED16 1.6317 1 P
T1246 6.6317 1 P
T1246 12.8417 1 S
ED07 11.3417 1 S
SMA1 9.6417 1 S
T1204 8.5117 1 S
ED05 15.0017 1 S
# 2016 10 14 02 46 18.090 42.7895 13.2190 6.11 0 0 0 0 105
T1214 1.2899 1 P
T1217 8.4199 1 S
T1212 5.2499 1 S
ED10 1.5499 1 P
T1215 9.2699 1 S
ED12 6.7799 1 S
NRCA 1.9301 1 P
NRCA 3.5601 1 S
ED19 5.5199 1 S
T1245 3.2101 1 S
ED18 7.6299 1 S
ED22 9.1799 1 S
ED17 6.7099 1 S
ED17 3.7399 1 P
MMO1 2.7200 1 P
MMO1 5.1500 1 S
ED16 3.5599 1 S
ED16 1.8899 1 P
ED09 5.6699 1 S
ED09 2.9899 1 P
ED20 6.0499 1 S
ED20 3.2199 1 P
TERO 11.5799 1 S
TERO 6.1099 1 P
T1246 10.2499 1 S
T1246 5.5299 1 P
# 2016 10 14 02 46 32.146 42.7396 13.1882 5.37 0 0 0 0 106
T1218 1.7643 1 P
T1218 3.5143 1 S
ED02 4.3543 1 P
ED02 8.3943 1 S
ED11 2.4143 1 P
ED11 4.7643 1 S
T1212 2.1343 1 P
T1212 4.0943 1 S
T1215 8.8443 1 S
ED12 3.3243 1 P
ED12 6.4543 1 S
NRCA 4.0345 1 S
ED17 4.6643 1 P
ED17 8.9143 1 S
MMO1 7.1844 1 S
T1214 1.7543 1 S
T1214 0.8643 1 P
ED09 6.7043 1 S
ED20 6.5443 1 S
TERO 5.8543 1 P
ED07 8.4443 1 S
T1246 9.4743 1 S
T1202 1.1243 1 P
T1202 2.3043 1 S
T1201 2.1943 1 P
ED05 10.2943 1 S
RM33 8.6643 1 S
ED24 1.6343 1 P
ED24 3.2243 1 S
