# 2016 10 14 00 00 09.270 42.8085 13.2121 6.63 0 0 0 0 1
T1214 1.3196 1 P
ED03 7.7896 1 S
ED24 3.0596 1 P
ED01 5.6196 1 P
ED01 10.4696 1 S
T1218 3.1396 1 P
T1218 5.3896 1 S
T1211 13.2596 1 S
ED02 5.4696 1 P
ED02 10.2796 1 S
ED11 6.6496 1 S
ED11 3.3996 1 P
ED10 1.3596 1 P
T1217 8.2996 1 S
T1212 5.2496 1 S
T1212 2.7196 1 P
T1215 4.6596 1 P
ED12 3.2896 1 P
NRCA 1.5298 1 P
T1216 6.0096 1 S
T1216 3.0296 1 P
CESI 10.4298 1 S
ED19 4.5296 1 S
ED19 2.3696 1 P
FDMO 4.4696 1 P
MC2 4.1198 1 S
CSP1 10.4696 1 S
ED18 6.8896 1 S
ED18 3.3996 1 P
ED22 8.1896 1 S
ED22 4.3196 1 P
ED17 3.1096 1 P
MMO1 2.3197 1 P
MMO1 4.5297 1 S
ED16 1.6296 1 P
ED09 2.8396 1 P
ED20 3.0596 1 P
T1243 3.7198 1 P
T1243 7.3798 1 S
TERO 6.1596 1 P
ED07 4.6596 1 P
ED23 4.0196 1 S
ED23 1.9396 1 P
T1246 5.5396 1 P
T1246 10.5496 1 S
ED15 6.6696 1 P
GIGS 14.9596 1 S
T1204 3.0596 1 P
CAMP 5.5596 1 P
CAMP 10.5096 1 S
SMA1 3.7796 1 P
ED25 4.7396 1 P
ED14 7.1296 1 P
ED14 13.6096 1 S
ED05 6.3496 1 P
ED05 12.1596 1 S
T1299 3.6297 1 P
T1202 2.3396 1 P
RM33 10.6096 1 S
# 2016 10 14 00 01 50.170 42.7388 13.1928 5.58 0 0 0 0 2
ED03 5.2796 1 S
T1218 3.6296 1 S
ED02 8.5396 1 S
ED02 4.4496 1 P
ED11 2.4796 1 P
T1217 7.4696 1 S
T1212 2.1896 1 P
T1215 8.8296 1 S
ED12 3.3696 1 P
ED12 6.4796 1 S
ED10 2.3196 1 S
ED10 1.1896 1 P
NRCA 2.5198 1 P
ED17 4.7096 1 P
ED17 8.8696 1 S
MMO1 7.0197 1 S
T1214 0.8396 1 P
ED16 5.2896 1 S
T1241 7.8496 1 S
ED09 3.4696 1 P
ED09 6.6896 1 S
T1244 1.6698 1 P
ED20 3.3396 1 P
ED20 6.6196 1 S
ED23 1.7896 1 P
T1243 6.9898 1 S
T1243 3.7098 1 P
TERO 11.0796 1 S
ED07 8.4896 1 S
T1246 9.5396 1 S
T1202 1.0996 1 P
T1201 2.2496 1 P
RM33 8.7796 1 S
ED24 1.6696 1 P
# 2016 10 14 00 02 37.367 42.6557 13.2774 11.41 0 0 0 0 3
RM33 6.5327 1 S
ED01 4.2027 1 P
ED01 7.7527 1 S
ED03 2.6227 1 P
T1211 11.9327 1 S
ED02 9.6327 1 S
ED24 2.4027 1 P
T1218 5.4727 1 S
T1218 3.0927 1 P
ED11 7.0627 1 S
ED11 4.0327 1 P
T1201 2.0427 1 P
T1201 3.7127 1 S
T1217 9.5427 1 S
T1215 11.9027 1 S
T1212 7.5227 1 S
ED10 6.3927 1 S
T1202 2.4527 1 P
T1202 4.7327 1 S
T1214 5.6527 1 S
ED17 11.3227 1 S
ED23 4.6027 1 S
ED23 2.6327 1 P
ED16 7.4127 1 S
MMO1 9.1628 1 S
T1204 1.9427 1 P
T1243 3.0129 1 P
TERO 4.7527 1 P
ED07 3.2527 1 P
ED07 5.8227 1 S
T1246 3.7827 1 P
SMA1 3.6527 1 S
SMA1 2.0827 1 P
ED15 9.2427 1 S
GIGS 10.4827 1 S
ED25 2.4927 1 P
ED25 4.5227 1 S
CAMP 6.2027 1 S
ED14 9.0327 1 S
ED05 7.5927 1 S
ED04 4.7127 1 S
T1299 1.9928 1 P
# 2016 10 14 00 03 19.807 42.8167 13.1517 5.75 0 0 0 0 4
ED10 1.1930 1 P
ED10 2.2930 1 S
ED11 5.9030 1 S
ED02 9.5930 1 S
T1212 2.1330 1 P
T1212 4.0930 1 S
T1215 3.9130 1 P
NRCA 2.1632 1 S
ED19 4.3430 1 S
ED18 7.1030 1 S
ED21 8.3330 1 S
ED17 6.7730 1 S
ED17 3.6130 1 P
MMO1 5.7631 1 S
ED16 4.8030 1 S
ED09 3.7230 1 P
T1214 3.2430 1 S
# 2016 10 14 00 03 42.830 42.8154 13.2097 4.95 0 0 0 0 5
T1214 2.7104 1 S
ED10 1.4604 1 P
ED10 2.7104 1 S
T1212 5.3004 1 S
T1212 2.8004 1 P
T1217 8.6504 1 S
NRCA 1.5906 1 P
NRCA 3.0606 1 S
ED19 4.6804 1 S
T1245 2.4506 1 S
T1245 1.2806 1 P
FDMO 8.8204 1 S
ED17 6.4004 1 S
MMO1 4.6605 1 S
ED16 3.4104 1 S
ED09 2.9504 1 P
ED20 3.2604 1 P
ED23 4.2604 1 S
# 2016 10 14 00 04 25.804 42.5802 13.2774 12.43 0 0 0 0 6
ED08 8.0958 1 S
ED01 6.3258 1 S
ED01 3.4758 1 P
T1211 11.1358 1 S
ED02 9.4358 1 S
ED03 4.4358 1 S
ED03 2.4458 1 P
T1217 10.4058 1 S
ED11 8.1358 1 S
T1215 12.9558 1 S
T1212 8.8958 1 S
ED12 11.3758 1 S
ED24 2.8558 1 P
ED24 5.0858 1 S
ED10 8.2158 1 S
NRCA 10.1660 1 S
T1202 3.4558 1 P
T1201 2.7158 1 P
T1201 4.9958 1 S
T1299 4.2658 1 S
T1299 2.3259 1 P
ED23 3.8658 1 P
ED23 6.9358 1 S
ED16 9.8558 1 S
ED22 15.3058 1 S
MMO1 11.4859 1 S
T1204 5.0258 1 S
T1204 2.8458 1 P
ED09 8.7558 1 S
ED09 4.7758 1 P
ED20 4.1058 1 P
SMA1 4.5058 1 S
SMA1 2.5058 1 P
T1243 3.6660 1 P
T1243 6.7560 1 S
ED25 2.3658 1 P
ED25 4.3858 1 S
ED07 3.3558 1 P
TERO 4.6858 1 P
T1246 3.5058 1 P
T1246 6.3558 1 S
ED04 2.1458 1 P
ED15 7.7558 1 S
ED15 4.2258 1 P
CAMP 5.0158 1 S
ED14 6.5958 1 S
ED14 3.8258 1 P
ED05 3.0658 1 P
ED05 5.4658 1 S
# 2016 10 14 00 04 53.082 42.8967 13.2404 6.91 0 0 0 0 7
T1202 7.4576 1 S
ED03 10.5976 1 S
T1214 5.3676 1 S
T1218 8.8576 1 S
ED10 5.0576 1 S
ED11 9.1176 1 S
ED02 12.7876 1 S
T1245 1.0978 1 P
T1212 7.3376 1 S
T1217 10.4676 1 S
ED12 7.6476 1 S
T1215 10.1476 1 S
T1216 3.0876 1 P
T1216 5.9876 1 S
ED19 1.4876 1 P
ED19 3.1076 1 S
CESI 9.5778 1 S
MC2 0.9878 1 P
FDMO 6.5176 1 S
ED18 1.9576 1 P
ED18 3.9476 1 S
ED21 2.6176 1 P
ED21 4.8976 1 S
ED22 2.5976 1 P
ED22 5.0376 1 S
ED17 1.6476 1 P
ED17 3.1376 1 S
MMO1 1.2077 1 P
ED09 6.0276 1 S
ED09 2.9976 1 P
ED20 3.6776 1 P
ED20 7.1276 1 S
TERO 13.1576 1 S
ED16 1.5176 1 P
T1246 12.4976 1 S
ED07 11.1976 1 S
GIGS 17.2876 1 S
CAMP 13.0476 1 S
ED05 14.9176 1 S
# 2016 10 14 00 05 17.636 42.7321 13.1600 1.39 0 0 0 0 8
ED01 8.1443 1 S
ED02 8.2043 1 S
ED11 2.3043 1 P
T1217 6.9543 1 S
T1212 1.9443 1 P
T1212 3.9243 1 S
T1215 8.2943 1 S
ED12 3.2443 1 P
ED12 5.9943 1 S
CSP1 13.4743 1 S
T1214 0.7243 1 P
T1244 2.1845 1 P
ED23 3.7043 1 S
T1202 1.2343 1 P
T1202 2.3643 1 S
ED25 7.4743 1 S
T1201 2.2343 1 P
ED24 3.5243 1 S
ED24 1.6343 1 P
# 2016 10 14 00 05 56.362 42.7231 13.1857 4.82 0 0 0 0 9
T1218 1.5784 1 P
T1218 2.7484 1 S
ED02 8.1384 1 S
ED11 2.1984 1 P
ED10 1.8884 1 S
CSP1 13.2984 1 S
CSP1 7.2484 1 P
T1214 0.5284 1 P
ED23 1.5584 1 P
ED23 3.4384 1 S
ED20 6.3784 1 S
T1243 6.7686 1 S
TERO 10.9884 1 S
ED07 8.3384 1 S
T1202 1.0984 1 P
T1202 2.1184 1 S
ED24 1.4384 1 P
ED24 3.2384 1 S
# 2016 10 14 00 08 00.117 42.6475 13.2308 8.94 0 0 0 0 10
RM33 5.8125 1 S
ED03 2.0025 1 P
ED03 3.3625 1 S
ED01 3.6025 1 P
ED01 6.3825 1 S
ED02 4.6525 1 P
ED11 3.1725 1 P
ED11 5.8325 1 S
T1218 2.2325 1 P
ED24 1.6225 1 P
ED24 3.1125 1 S
T1212 3.6825 1 P
ED12 5.1125 1 P
ED10 5.8325 1 S
NRCA 7.4827 1 S
T1202 4.0525 1 S
T1202 1.9825 1 P
ED23 2.9025 1 P
ED23 5.0525 1 S
T1201 1.6525 1 P
ED09 3.8925 1 P
T1204 3.8925 1 S
TERO 5.3325 1 P
TERO 9.6325 1 S
ED07 6.9025 1 S
ED07 3.5625 1 P
SMA1 4.1825 1 S
T1299 1.7526 1 P
T1299 3.4425 1 S
T1246 4.2725 1 P
T1246 7.4925 1 S
ED25 5.0225 1 S
ED05 7.5925 1 S
# 2016 10 14 00 08 30.608 42.7712 13.1763 6.83 0 0 0 0 11
T1218 2.5425 1 P
T1218 4.5125 1 S
ED02 9.1525 1 S
ED10 1.9225 1 S
T1215 4.1025 1 P
ED12 2.8525 1 P
ED12 5.1825 1 S
NRCA 1.8227 1 P
ED18 4.1525 1 P
ED21 4.9025 1 P
ED17 4.4425 1 P
T1241 7.1425 1 S
ED20 7.1125 1 S
ED20 3.9925 1 P
T1243 7.6527 1 S
TERO 11.8225 1 S
T1214 1.4125 1 P
ED07 9.3025 1 S
T1246 10.2225 1 S
ED25 8.1425 1 S
T1202 1.7825 1 P
ED05 11.1925 1 S
T1201 2.8725 1 P
RM33 9.4125 1 S
ED24 2.3325 1 P
ED03 3.4225 1 P
# 2016 10 14 00 09 02.961 42.6819 13.3159 11.54 0 0 0 0 12
T1299 2.2489 1 P
T1299 4.1088 1 S
T1204 1.9488 1 P
ED01 8.6788 1 S
ED03 5.4488 1 S
T1201 4.3388 1 S
T1201 2.2788 1 P
ED24 4.9588 1 S
T1218 6.0288 1 S
T1202 2.3988 1 P
ED16 6.5188 1 S
T1243 4.9590 1 S
TERO 8.1488 1 S
ED07 3.0888 1 P
ED07 5.4088 1 S
T1246 6.6988 1 S
ED25 2.6088 1 P
ED25 4.9488 1 S
SMA1 2.1888 1 P
SMA1 4.0288 1 S
# 2016 10 14 00 10 23.952 42.7512 13.1862 5.14 0 0 0 0 13
ED03 2.9078 1 P
ED24 1.8078 1 P
ED24 3.4478 1 S
ED01 9.0478 1 S
T1218 1.9478 1 P
T1218 4.0278 1 S
ED02 8.5678 1 S
ED02 4.5078 1 P
ED11 2.5378 1 P
T1217 7.0878 1 S
T1212 2.1778 1 P
T1212 4.2378 1 S
T1215 4.5778 1 P
T1215 8.5978 1 S
ED12 3.4378 1 P
ED12 5.9578 1 S
ED10 2.0578 1 S
T1216 7.0578 1 S
CESI 11.4780 1 S
NRCA 2.0680 1 P
NRCA 3.8380 1 S
ED19 6.7878 1 S
T1245 3.6680 1 S
CSP1 6.6678 1 P
ED17 8.6678 1 S
ED17 4.4578 1 P
MMO1 3.5379 1 P
MMO1 6.9479 1 S
ED16 2.6378 1 P
T1214 0.4278 1 P
ED09 3.4278 1 P
ED09 6.7878 1 S
ED20 3.4078 1 P
ED20 6.5978 1 S
T1243 7.1380 1 S
T1243 3.6880 1 P
TERO 5.9578 1 P
TERO 11.3878 1 S
ED07 4.5378 1 P
ED07 8.4878 1 S
T1246 5.2178 1 P
T1246 9.8378 1 S
T1204 2.5478 1 P
T1204 4.9578 1 S
SMA1 3.4278 1 P
ED25 4.0778 1 P
CAMP 9.4478 1 S
ED14 12.3878 1 S
ED14 6.6678 1 P
T1299 2.8779 1 P
ED05 10.7078 1 S
T1201 4.5478 1 S
T1201 2.3378 1 P
T1202 1.2778 1 P
RM33 9.0078 1 S
# 2016 10 14 00 12 10.024 42.7406 13.1896 4.04 0 0 0 0 14
ED01 4.4659 1 P
ED01 8.7859 1 S
ED08 5.8259 1 P
T1218 1.9659 1 P
T1211 6.2359 1 P
T1211 11.9259 1 S
ED02 8.8159 1 S
ED02 4.5759 1 P
ARRO 6.7761 1 P
ED11 2.4059 1 P
T1217 3.8859 1 P
T1212 2.1359 1 P
T1215 4.8159 1 P
T1215 9.3359 1 S
ED12 3.4859 1 P
ED10 0.8759 1 P
T1216 4.0159 1 P
T1216 7.2759 1 S
CESI 12.1661 1 S
CESI 6.6059 1 P
NRCA 4.3761 1 S
NRCA 2.4261 1 P
FDMO 6.0159 1 P
ED19 3.9459 1 P
ED19 7.2659 1 S
MC2 7.3661 1 S
MC2 3.7661 1 P
CSP1 6.8759 1 P
CSP1 13.1959 1 S
ED18 5.0859 1 P
ED18 9.8659 1 S
ED21 5.7259 1 P
ED21 10.9159 1 S
ED22 10.9759 1 S
ED17 9.1159 1 S
ED17 4.7159 1 P
MMO1 3.7760 1 P
MMO1 7.3160 1 S
T1214 0.4359 1 P
ED16 5.4959 1 S
ED16 2.8659 1 P
ED09 3.5059 1 P
ED09 6.9759 1 S
ED20 3.4259 1 P
T1243 3.8661 1 P
TERO 6.1159 1 P
ED07 4.5259 1 P
ED07 8.8759 1 S
T1204 2.5859 1 P
T1204 4.9659 1 S
T1246 5.2859 1 P
ED15 6.5159 1 P
SMA1 3.2759 1 P
GIGS 7.5059 1 P
ED25 3.8659 1 P
ED25 7.6459 1 S
T1202 1.4859 1 S
CAMP 5.2159 1 P
T1299 2.9660 1 P
ED14 6.5559 1 P
ED05 5.6359 1 P
ED05 10.6459 1 S
ED04 4.0959 1 P
ED04 7.4459 1 S
T1247 11.6259 1 S
ED06 5.7159 1 P
ED06 10.1659 1 S
RM33 8.6059 1 S
RM33 4.6459 1 P
ED24 1.7959 1 P
ED03 5.6459 1 S
ED03 2.9359 1 P
# 2016 10 14 00 14 43.407 42.8203 13.3452 15.19 0 0 0 0 15
SMA1 7.8827 1 S
T1299 8.2727 1 S
ED24 4.6627 1 P
ED24 8.3727 1 S
T1215 12.8427 1 S
ED12 10.6827 1 S
NRCA 7.3929 1 S
T1245 6.5629 1 S
ED16 5.2727 1 S
ED19 7.7527 1 S
ED18 8.0527 1 S
CSP1 11.1327 1 S
ED21 8.7027 1 S
ED17 6.8627 1 S
MMO1 5.5428 1 S
ED09 2.7027 1 P
TERO 5.7727 1 P
ED20 3.0727 1 P
T1246 5.3227 1 P
T1246 9.8127 1 S
ED07 4.6427 1 P
ED07 8.5527 1 S
ED25 8.9227 1 S
# 2016 10 14 00 17 10.367 42.8574 13.1574 4.08 0 0 0 0 16
ED10 1.4727 1 P
ED11 3.8527 1 P
T1212 2.6227 1 P
NRCA 0.7529 1 P
ED12 3.0127 1 P
ED12 5.5527 1 S
T1215 4.1727 1 P
T1216 4.1327 1 S
CESI 8.8629 1 S
ED19 1.4627 1 P
MC2 1.5129 1 P
ED21 3.7627 1 P
ED21 7.3827 1 S
ED22 7.5527 1 S
ED17 3.0427 1 P
MMO1 5.1428 1 S
MMO1 2.6028 1 P
T1245 0.6029 1 P
ED16 4.2027 1 S
ED16 2.4627 1 P
ED09 3.9327 1 P
ED20 4.2527 1 P
TERO 7.3127 1 P
ED07 6.0227 1 P
T1246 6.7127 1 P
ED05 14.2127 1 S
T1214 2.1627 1 P
T1202 3.2227 1 P
T1202 6.3527 1 S
ED24 4.0127 1 P
ED03 5.1127 1 P
# 2016 10 14 00 19 50.205 42.8203 13.3421 15.60 0 0 0 0 17
SMA1 4.3651 1 P
T1204 3.8651 1 P
T1204 6.9951 1 S
T1299 4.5752 1 P
T1299 8.2451 1 S
T1201 8.0751 1 S
ED24 4.6251 1 P
ED24 8.7351 1 S
T1202 4.0351 1 P
T1218 4.9251 1 P
T1218 9.1551 1 S
T1211 16.2751 1 S
T1214 3.5651 1 P
T1214 6.5451 1 S
ED11 5.4551 1 P
ED11 10.2051 1 S
T1217 11.8151 1 S
T1212 9.1851 1 S
T1212 4.9951 1 P
T1215 12.8051 1 S
ED12 10.3951 1 S
NRCA 7.4153 1 S
T1216 9.5751 1 S
T1245 6.5753 1 S
T1245 3.5453 1 P
ED16 2.8651 1 P
ED16 5.2951 1 S
CESI 13.3853 1 S
ED19 4.2851 1 P
ED19 7.7951 1 S
FDMO 10.6451 1 S
FDMO 5.7851 1 P
ED18 4.4051 1 P
ED18 8.1151 1 S
CSP1 10.9951 1 S
ED21 4.7151 1 P
ED21 8.7051 1 S
ED17 3.7351 1 P
ED17 6.9251 1 S
MMO1 5.5852 1 S
MMO1 3.0452 1 P
ED09 5.2151 1 S
ED09 2.7651 1 P
TERO 10.4451 1 S
TERO 5.5251 1 P
ED20 3.0451 1 P
ED20 5.8551 1 S
ED15 12.4851 1 S
T1246 5.3951 1 P
T1246 9.8751 1 S
ED07 4.7251 1 P
ED07 8.5251 1 S
CAMP 10.5451 1 S
ED05 12.2851 1 S
ED25 8.9051 1 S
# 2016 10 14 00 20 41.544 42.8674 13.0811 4.77 0 0 0 0 18
ED11 3.6660 1 P
ED11 7.1360 1 S
T1212 2.5160 1 P
T1212 4.8260 1 S
ED02 10.2160 1 S
T1217 7.3260 1 S
ED12 2.1460 1 P
ED12 3.6160 1 S
T1215 6.9860 1 S
T1216 1.2560 1 P
CESI 7.1062 1 S
FDMO 3.4060 1 P
FDMO 6.4360 1 S
CSP1 4.7260 1 P
ED21 4.1760 1 P
ED21 7.9660 1 S
ED19 1.5860 1 P
ED18 6.6860 1 S
ED18 3.4960 1 P
ED22 8.5660 1 S
ED17 3.7660 1 P
ED17 7.1660 1 S
MMO1 3.6361 1 P
MMO1 6.8461 1 S
ED16 6.6160 1 S
ED09 9.3260 1 S
TERO 15.7860 1 S
T1214 5.6260 1 S
ED25 12.6060 1 S
NRCA 1.0362 1 P
T1202 4.3160 1 P
T1299 10.4060 1 S
T1201 9.6560 1 S
ED10 3.9560 1 S
ED24 8.3460 1 S
# 2016 10 14 00 21 36.710 42.8741 13.0765 3.31 0 0 0 0 19
ED11 7.2900 1 S
T1212 4.9300 1 S
T1217 7.5000 1 S
ED12 2.1500 1 P
ED12 4.0600 1 S
T1215 6.3500 1 S
T1216 1.1400 1 P
CESI 6.9002 1 S
FDMO 6.2600 1 S
FDMO 3.3600 1 P
ED19 1.5400 1 P
ED22 8.6400 1 S
ED17 3.7500 1 P
ED17 7.0900 1 S
MMO1 6.9401 1 S
T1245 3.5002 1 S
ED20 11.1000 1 S
TERO 16.4500 1 S
ED07 13.4400 1 S
T1246 14.6700 1 S
ED25 12.8600 1 S
T1202 8.0100 1 S
NRCA 1.1402 1 P
NRCA 2.3202 1 S
ED05 15.5800 1 S
ED10 4.2500 1 S
# 2016 10 14 00 21 47.138 42.8492 13.1662 4.61 0 0 0 0 20
ED10 3.0118 1 S
T1212 2.6018 1 P
NRCA 1.0220 1 P
ED19 1.4318 1 P
ED19 2.7418 1 S
CSP1 9.0918 1 S
MC2 3.1220 1 S
MC2 1.4720 1 P
ED21 7.2918 1 S
ED22 7.5018 1 S
T1245 0.6220 1 P
ED17 5.9218 1 S
MMO1 5.0719 1 S
ED16 4.5618 1 S
ED20 8.0918 1 S
TERO 13.8018 1 S
T1246 12.6118 1 S
RM33 11.2418 1 S
# 2016 10 14 00 22 04.347 42.8936 13.2333 3.46 0 0 0 0 21
T1202 7.6435 1 S
ED03 10.6235 1 S
T1214 5.3535 1 S
ED10 5.0235 1 S
ED11 9.4535 1 S
T1245 2.1236 1 S
T1245 1.0636 1 P
T1212 7.3335 1 S
T1216 5.8935 1 S
ED19 1.5035 1 P
ED19 2.9735 1 S
MC2 0.9437 1 P
FDMO 6.7935 1 S
CSP1 7.7835 1 S
ED18 4.0035 1 S
ED21 5.1735 1 S
ED22 5.2235 1 S
ED17 3.3735 1 S
ED17 1.7035 1 P
MMO1 1.2936 1 P
MMO1 2.6336 1 S
TERO 13.5735 1 S
ED16 3.0835 1 S
T1246 12.7835 1 S
# 2016 10 14 00 25 29.039 42.8353 13.1583 8.31 0 0 0 0 22
ED10 1.6810 1 P
ED10 3.2010 1 S
ED11 3.3410 1 P
ED11 6.8010 1 S
ED02 5.2510 1 P
T1212 4.8110 1 S
T1212 2.5410 1 P
ED12 2.8310 1 P
ED12 5.2910 1 S
T1215 7.8410 1 S
NRCA 1.4212 1 P
CESI 8.9912 1 S
FDMO 4.0310 1 P
ED19 2.2310 1 P
ED19 3.9110 1 S
CSP1 4.9610 1 P
CSP1 9.5010 1 S
ED18 3.4510 1 P
ED18 6.5310 1 S
ED21 4.1310 1 P
ED21 7.7810 1 S
ED22 7.8410 1 S
ED17 6.4110 1 S
ED17 3.4010 1 P
T1245 1.5712 1 P
MMO1 5.4911 1 S
ED16 4.9210 1 S
ED20 7.8110 1 S
TERO 13.3710 1 S
ED07 10.6210 1 S
ED25 5.1410 1 P
T1214 4.1010 1 S
T1214 2.1210 1 P
T1299 4.3511 1 P
ED05 13.5310 1 S
T1201 3.9710 1 P
T1202 2.9910 1 P
ED24 3.4910 1 P
ED03 4.4710 1 P
# 2016 10 14 00 25 56.834 42.8680 13.0806 4.64 0 0 0 0 23
ED11 6.8960 1 S
T1212 4.7460 1 S
T1212 2.5160 1 P
T1217 7.3660 1 S
ED12 3.9360 1 S
T1215 6.4060 1 S
T1216 2.1360 1 S
T1216 1.3360 1 P
CESI 7.1262 1 S
FDMO 3.4060 1 P
FDMO 6.6560 1 S
ED21 7.8260 1 S
ED19 2.3360 1 S
ED19 1.5960 1 P
ED18 6.3660 1 S
ED22 8.6460 1 S
ED17 7.1760 1 S
ED17 3.8060 1 P
MMO1 6.8661 1 S
MMO1 3.6861 1 P
T1245 3.5162 1 S
NRCA 1.0262 1 P
ED10 4.1360 1 S
ED24 8.3460 1 S
T1218 7.5360 1 S
# 2016 10 14 00 26 43.708 42.8656 13.2409 5.43 0 0 0 0 24
T1214 4.4924 1 S
ED10 4.3124 1 S
T1212 7.0224 1 S
ED12 7.9324 1 S
NRCA 2.0326 1 P
T1215 10.0724 1 S
T1245 1.0926 1 P
ED19 1.9924 1 P
ED19 3.7124 1 S
MC2 3.2626 1 S
ED18 5.2624 1 S
ED21 6.2324 1 S
ED17 2.3424 1 P
ED17 4.3324 1 S
MMO1 1.6225 1 P
ED20 6.7324 1 S
# 2016 10 14 00 28 25.327 42.7449 13.1878 4.95 0 0 0 0 25
ED03 2.9125 1 P
ED01 8.8125 1 S
ED01 4.4225 1 P
T1218 4.0225 1 S
T1218 1.9725 1 P
T1211 11.5125 1 S
ED02 8.5925 1 S
ED02 4.5325 1 P
ED11 2.5625 1 P
T1217 7.2625 1 S
T1212 4.2825 1 S
T1212 2.0725 1 P
T1215 8.6125 1 S
T1215 4.6025 1 P
ED12 3.3125 1 P
ED10 1.1125 1 P
T1216 3.7525 1 P
NRCA 2.0527 1 P
FDMO 5.7525 1 P
ED19 3.5825 1 P
ED19 6.8425 1 S
T1245 2.3327 1 P
MC2 6.9527 1 S
CSP1 12.5425 1 S
ED18 4.7525 1 P
ED18 9.3525 1 S
ED21 10.4825 1 S
ED22 10.5925 1 S
ED17 4.4525 1 P
ED17 8.7125 1 S
MMO1 6.9126 1 S
MMO1 3.5726 1 P
T1214 0.6125 1 P
ED16 2.6825 1 P
ED16 5.2025 1 S
ED09 6.8325 1 S
ED09 3.4425 1 P
ED20 3.4425 1 P
ED20 6.6325 1 S
TERO 5.9825 1 P
TERO 11.4125 1 S
ED07 8.5525 1 S
ED07 4.5025 1 P
T1204 2.5725 1 P
T1246 5.1825 1 P
T1246 9.8625 1 S
SMA1 3.4025 1 P
CAMP 9.4025 1 S
T1202 1.3125 1 P
T1299 2.9026 1 P
ED14 6.6425 1 P
ED14 12.6825 1 S
ED05 10.7325 1 S
ED05 5.7125 1 P
ED24 1.8025 1 P
# 2016 10 14 00 29 29.652 42.8975 13.2428 4.83 0 0 0 0 26
T1214 5.5679 1 S
ED10 2.7079 1 P
ED10 5.1479 1 S
T1212 7.6679 1 S
T1245 1.2081 1 P
NRCA 4.6181 1 S
ED12 7.9479 1 S
ED19 1.6079 1 P
MC2 1.0581 1 P
MC2 2.0081 1 S
CESI 9.8481 1 S
FDMO 6.6579 1 S
ED18 4.0879 1 S
ED21 5.1479 1 S
ED22 5.0679 1 S
ED17 1.7179 1 P
ED17 3.3579 1 S
MMO1 2.6580 1 S
MMO1 1.3280 1 P
ED20 7.3679 1 S
# 2016 10 14 00 32 46.215 42.7380 13.1906 6.31 0 0 0 0 27
ED03 5.2652 1 S
T1218 3.6152 1 S
ED02 8.5552 1 S
ED02 4.4152 1 P
ED11 2.4652 1 P
ED11 4.8152 1 S
T1212 2.1852 1 P
T1212 4.0952 1 S
T1215 8.9052 1 S
ED12 3.3852 1 P
ED12 6.5052 1 S
ED10 1.1952 1 P
NRCA 4.1354 1 S
ED17 4.7252 1 P
T1214 0.9052 1 P
ED09 6.9152 1 S
ED20 6.6052 1 S
TERO 11.1352 1 S
T1246 9.5552 1 S
T1202 1.1652 1 P
T1202 2.3752 1 S
T1201 2.2652 1 P
ED05 10.3952 1 S
ED24 1.6752 1 P
ED24 3.1852 1 S
# 2016 10 14 00 33 27.043 42.7435 13.1889 4.93 0 0 0 0 28
ED03 2.7173 1 P
ED01 4.4673 1 P
T1218 1.9173 1 P
T1218 3.5373 1 S
ED02 8.5373 1 S
ED02 4.5173 1 P
ED11 2.5573 1 P
ED11 5.0173 1 S
T1217 7.5973 1 S
T1215 8.7973 1 S
ED12 3.4573 1 P
ED12 6.2673 1 S
ED10 1.2973 1 P
T1216 7.2373 1 S
CESI 11.7875 1 S
NRCA 2.1175 1 P
NRCA 4.0275 1 S
FDMO 10.8573 1 S
ED19 6.8673 1 S
T1245 4.7075 1 S
CSP1 12.4973 1 S
ED18 9.5073 1 S
ED21 10.7473 1 S
ED17 8.7773 1 S
ED17 4.5373 1 P
MMO1 7.0774 1 S
T1214 0.7673 1 P
ED09 3.4673 1 P
ED09 6.7073 1 S
ED20 6.4273 1 S
ED20 3.3573 1 P
TERO 11.4973 1 S
T1204 2.4573 1 P
T1246 9.6573 1 S
ED25 3.8673 1 P
ED25 7.5073 1 S
T1202 1.1773 1 P
T1202 2.0673 1 S
T1299 2.7474 1 P
T1201 2.2273 1 P
ED05 10.6573 1 S
ED24 1.7273 1 P
ED24 3.3073 1 S
# 2016 10 14 00 36 21.775 42.7620 13.2273 9.43 0 0 0 0 29
T1202 3.9854 1 S
ED03 3.4154 1 P
ED03 6.2854 1 S
ED24 2.6254 1 P
ED24 4.8754 1 S
ED01 9.4754 1 S
T1218 5.4454 1 S
T1218 2.8554 1 P
ED02 10.1054 1 S
ED11 3.3754 1 P
ED11 6.2454 1 S
T1217 8.2054 1 S
T1214 1.7154 1 P
T1212 3.0354 1 P
T1212 5.5654 1 S
T1215 9.6354 1 S
ED10 2.0254 1 P
ED10 3.6654 1 S
NRCA 4.8156 1 S
ED18 8.8354 1 S
ED17 8.0754 1 S
MMO1 6.4455 1 S
ED09 5.8754 1 S
ED20 5.8754 1 S
T1299 5.7454 1 S
# 2016 10 14 00 37 20.823 42.7418 13.1964 5.64 0 0 0 0 30
T1218 3.7068 1 S
ED11 2.5268 1 P
T1212 2.2368 1 P
ED12 3.4468 1 P
ED10 0.9668 1 P
NRCA 4.0670 1 S
MMO1 7.0969 1 S
T1214 0.8268 1 P
ED09 6.7468 1 S
ED20 3.3468 1 P
ED20 6.4668 1 S
TERO 11.1868 1 S
T1246 9.5668 1 S
T1202 2.3268 1 S
T1202 1.1468 1 P
T1201 2.2268 1 P
ED24 1.7068 1 P
ED24 3.3968 1 S
# 2016 10 14 00 38 33.541 42.8961 13.2452 5.11 0 0 0 0 31
ED03 10.6687 1 S
T1214 5.3587 1 S
T1218 8.9787 1 S
ED10 2.6087 1 P
ED10 5.0287 1 S
ED11 9.3987 1 S
T1245 1.1189 1 P
T1212 7.3687 1 S
NRCA 2.0989 1 P
ED12 7.8587 1 S
T1216 5.9887 1 S
T1216 3.1087 1 P
ED19 1.5487 1 P
ED19 3.2787 1 S
MC2 1.0189 1 P
ED18 2.0687 1 P
ED18 3.9387 1 S
ED21 5.0487 1 S
ED22 5.0787 1 S
ED17 1.6787 1 P
ED17 3.3087 1 S
MMO1 1.2988 1 P
MMO1 2.6088 1 S
ED09 6.0587 1 S
ED20 7.2187 1 S
ED16 3.1987 1 S
GIGS 17.3687 1 S
# 2016 10 14 00 40 28.561 42.8974 13.2448 4.90 0 0 0 0 32
T1214 5.4786 1 S
ED10 2.9886 1 P
T1212 7.5386 1 S
T1245 1.1088 1 P
ED12 7.8886 1 S
ED19 1.5386 1 P
ED19 3.1386 1 S
MC2 2.1588 1 S
ED18 4.0386 1 S
ED21 5.2286 1 S
ED22 5.0686 1 S
ED17 3.2986 1 S
ED17 1.6786 1 P
MMO1 1.2787 1 P
MMO1 2.5787 1 S
ED20 7.2386 1 S
ED16 3.2686 1 S
# 2016 10 14 00 41 27.039 42.8776 13.2429 5.84 0 0 0 0 33
T1214 4.6006 1 S
ED10 2.4306 1 P
T1212 6.9506 1 S
NRCA 3.7608 1 S
NRCA 2.0308 1 P
ED19 1.9706 1 P
MC2 2.8008 1 S
FDMO 7.5006 1 S
CSP1 7.9606 1 S
ED18 4.3506 1 S
ED18 2.4806 1 P
ED21 3.1406 1 P
ED21 5.3806 1 S
ED22 5.3206 1 S
ED17 2.0906 1 P
ED17 3.5406 1 S
MMO1 2.9607 1 S
MMO1 1.7407 1 P
ED16 3.3906 1 S
# 2016 10 14 00 41 49.389 42.8748 13.0844 1.75 0 0 0 0 34
ED11 7.2712 1 S
T1212 4.6912 1 S
T1212 2.6112 1 P
ED12 2.1012 1 P
T1216 1.1012 1 P
T1216 2.2212 1 S
CESI 6.9714 1 S
FDMO 6.1412 1 S
ED21 8.0512 1 S
ED19 1.4512 1 P
ED17 3.7012 1 P
ED17 7.0312 1 S
T1245 3.4914 1 S
NRCA 1.6814 1 S
NRCA 0.9914 1 P
ED10 4.0112 1 S
ED24 8.6712 1 S
# 2016 10 14 00 42 01.316 42.6658 13.2780 10.54 0 0 0 0 35
RM33 6.7341 1 S
ED03 2.4741 1 P
T1211 11.8241 1 S
ED02 9.4541 1 S
T1201 3.3041 1 S
T1201 1.8341 1 P
ED24 2.1641 1 P
T1218 5.1441 1 S
T1218 2.8241 1 P
ED11 6.9041 1 S
T1202 3.9741 1 S
NRCA 7.6043 1 S
ED17 10.4641 1 S
ED22 12.5941 1 S
ED16 6.9741 1 S
T1204 1.7341 1 P
T1204 3.1841 1 S
TERO 8.5041 1 S
ED07 5.8141 1 S
ED07 3.1941 1 P
T1246 6.7341 1 S
SMA1 3.4941 1 S
SMA1 1.9641 1 P
ED25 4.5241 1 S
T1299 1.8442 1 P
