# 2016 10 14 05 46 04.342 42.6433 13.3402 8.84 0 0 0 0 215
SMA1 1.6375 1 P
SMA1 2.9775 1 S
RM33 6.3075 1 S
T1299 1.8276 1 P
T1299 3.2775 1 S
ED24 2.6775 1 P
ED24 4.9975 1 S
T1201 2.1575 1 P
T1201 3.9175 1 S
T1218 3.4075 1 P
T1204 1.7775 1 P
ED20 5.1875 1 S
TERO 7.3475 1 S
TERO 4.0375 1 P
ED07 4.3175 1 S
ED07 2.5975 1 P
T1246 5.4775 1 S
ED25 3.6275 1 S
ED05 6.7875 1 S
# 2016 10 14 05 50 18.806 42.6528 13.3305 10.69 0 0 0 0 216
RM33 6.8838 1 S
T1299 2.2639 1 P
T1299 3.7438 1 S
ED24 5.3538 1 S
ED17 5.5738 1 P
T1204 2.2138 1 P
T1204 3.6638 1 S
ED20 3.2838 1 P
TERO 7.7538 1 S
TERO 4.4938 1 P
ED07 5.1638 1 S
ED07 3.0038 1 P
T1246 5.9538 1 S
SMA1 2.0738 1 P
ED25 2.3538 1 P
ED25 4.0338 1 S
ED05 7.2938 1 S
# 2016 10 14 05 50 38.760 42.4673 13.3693 11.33 0 0 0 0 217
ED01 8.8904 1 S
RM33 6.0404 1 S
RM33 3.4404 1 P
T1217 14.2704 1 S
ED12 16.0304 1 S
CESI 22.2806 1 S
NRCA 15.0906 1 S
FEMA 19.3404 1 S
T1214 11.6804 1 S
T1299 8.0504 1 S
MC2 16.8206 1 S
CSP1 22.2704 1 S
ED18 18.9904 1 S
ED25 3.6604 1 P
ED05 2.4004 1 P
ED09 13.1204 1 S
ED07 4.3004 1 P
OFFI 18.2804 1 S
T1246 3.9004 1 P
T1246 6.6804 1 S
ED15 6.5804 1 S
ED14 4.2304 1 S
ED14 2.5604 1 P
# 2016 10 14 05 50 48.511 42.7465 13.2312 10.50 0 0 0 0 218
RM33 4.7293 1 P
RM33 8.9493 1 S
T1202 2.1593 1 P
ED03 3.2293 1 P
ED24 2.2993 1 P
ED24 5.0293 1 S
ED08 5.9793 1 P
ED08 11.3693 1 S
ED01 9.0693 1 S
ED01 4.8093 1 P
T1218 2.5193 1 P
T1211 6.6993 1 P
ED02 9.6493 1 S
ED02 5.1393 1 P
ARRO 7.5495 1 P
ED11 3.1293 1 P
T1217 8.4193 1 S
T1217 4.4893 1 P
T1212 5.7493 1 S
T1212 3.2793 1 P
T1215 9.8693 1 S
T1215 5.4393 1 P
ED12 4.1993 1 P
ED10 2.1093 1 P
ED10 4.1193 1 S
T1216 4.2393 1 P
T1214 3.6693 1 S
NRCA 2.7395 1 P
CESI 6.8393 1 P
ED19 3.6593 1 P
ED19 7.2893 1 S
FDMO 11.0793 1 S
FDMO 6.0393 1 P
T1245 5.7895 1 S
T1245 2.5195 1 P
MC2 3.6595 1 P
CSP1 6.7893 1 P
ED21 5.6293 1 P
ED21 10.2693 1 S
ED17 8.4993 1 S
ED17 4.5893 1 P
ED22 10.0893 1 S
MMO1 3.6994 1 P
MMO1 6.7094 1 S
ED16 2.8393 1 P
ED16 4.9693 1 S
ED09 3.2993 1 P
ED20 6.0193 1 S
ED20 3.1793 1 P
TERO 5.8293 1 P
TERO 10.6693 1 S
ED07 4.4393 1 P
T1246 9.1593 1 S
T1246 5.0693 1 P
ED15 6.1393 1 P
T1204 2.6793 1 P
T1204 4.8193 1 S
GIGS 7.2093 1 P
SMA1 3.2393 1 P
CAMP 4.9293 1 P
CAMP 8.9193 1 S
ED25 3.7993 1 P
ED25 6.9993 1 S
ED14 11.8593 1 S
ED14 6.4993 1 P
ED05 10.3893 1 S
ED05 5.6393 1 P
T1299 2.9494 1 P
T1299 5.5193 1 S
ED04 7.3993 1 S
ED04 3.9993 1 P
T1201 5.2093 1 S
T1201 2.6293 1 P
ED06 10.3193 1 S
ED06 5.6493 1 P
# 2016 10 14 05 51 52.107 42.8222 13.3525 15.34 0 0 0 0 219
SMA1 7.9327 1 S
RM33 12.2727 1 S
ED24 4.7027 1 P
ED24 8.6927 1 S
T1202 7.5727 1 S
T1218 4.8827 1 P
T1218 9.0527 1 S
T1214 6.5527 1 S
ED19 7.8127 1 S
CSP1 11.1827 1 S
MMO1 5.6028 1 S
ED21 8.7527 1 S
ED09 2.7727 1 P
ED20 3.1227 1 P
T1246 5.3627 1 P
T1246 9.8827 1 S
ED07 4.6827 1 P
ED07 8.6027 1 S
# 2016 10 14 05 52 18.967 42.6255 13.2245 10.32 0 0 0 0 220
ED06 3.4535 1 P
RM33 5.2235 1 S
RM33 2.7235 1 P
ED01 5.7135 1 S
ED03 3.2135 1 S
ED03 1.7735 1 P
ED02 8.0335 1 S
ED11 6.1735 1 S
T1218 2.3935 1 P
T1218 4.2735 1 S
T1212 6.7435 1 S
ED12 9.5635 1 S
ED24 1.8035 1 P
ED24 3.4335 1 S
ED10 6.3235 1 S
T1214 5.9135 1 S
T1202 4.4735 1 S
ED16 8.5035 1 S
T1201 1.8735 1 P
ED20 7.0235 1 S
T1204 2.3635 1 P
T1204 4.4135 1 S
T1299 1.8336 1 P
T1299 3.3635 1 S
SMA1 4.4135 1 S
ED07 6.6835 1 S
ED07 3.1635 1 P
ED25 4.6935 1 S
GIGS 10.4535 1 S
ED14 4.7335 1 P
ED05 6.8735 1 S
# 2016 10 14 05 54 11.375 42.7448 13.1939 5.09 0 0 0 0 221
T1218 1.8750 1 P
T1218 3.4750 1 S
ED02 4.4550 1 P
ED02 8.3550 1 S
ED11 2.5350 1 P
T1212 4.0450 1 S
T1212 2.3150 1 P
T1215 8.9050 1 S
T1215 4.8250 1 P
ED12 3.4950 1 P
ED12 6.4250 1 S
ED10 1.3750 1 P
NRCA 4.3652 1 S
ED19 6.1850 1 S
MMO1 6.3751 1 S
ED16 4.8350 1 S
T1214 1.3050 1 S
ED20 3.5250 1 P
ED20 6.7750 1 S
TERO 11.1850 1 S
ED07 8.5450 1 S
T1246 9.3750 1 S
T1204 2.2850 1 P
ED25 7.2350 1 S
T1202 1.2950 1 P
T1202 1.8450 1 S
T1201 2.2650 1 P
T1201 4.3850 1 S
ED05 10.4050 1 S
RM33 8.5350 1 S
ED24 3.3350 1 S
ED24 1.8250 1 P
ED03 5.2150 1 S
ED03 2.8450 1 P
# 2016 10 14 05 56 08.521 42.7386 13.1889 5.87 0 0 0 0 222
ED01 8.2690 1 S
T1218 1.7390 1 P
T1211 11.5190 1 S
ED02 4.3390 1 P
ED02 8.2890 1 S
ED11 2.3890 1 P
T1212 4.1990 1 S
T1212 2.1290 1 P
T1215 8.8290 1 S
T1215 4.5890 1 P
ED12 3.2990 1 P
ED10 1.1990 1 P
CESI 12.0292 1 S
NRCA 2.1892 1 P
NRCA 3.7692 1 S
ED17 4.6590 1 P
ED17 8.9290 1 S
MMO1 7.1591 1 S
T1214 0.6490 1 P
ED16 5.2290 1 S
ED09 6.9190 1 S
ED20 3.2890 1 P
TERO 11.0090 1 S
TERO 5.7990 1 P
ED07 4.3190 1 P
ED07 8.3290 1 S
T1204 2.3190 1 P
T1204 4.6490 1 S
T1246 9.3590 1 S
ED25 7.2590 1 S
CAMP 9.1790 1 S
T1202 1.0790 1 P
ED14 11.9990 1 S
T1201 2.0690 1 P
T1201 4.1290 1 S
ED05 10.2790 1 S
RM33 8.5290 1 S
ED24 3.2690 1 S
ED24 1.8490 1 P
# 2016 10 14 05 58 34.100 42.8730 13.0693 5.12 0 0 0 0 223
T1212 2.4404 1 P
T1212 4.7204 1 S
ED11 3.8304 1 P
ED11 6.9204 1 S
ED12 1.9204 1 P
ED12 3.8404 1 S
T1215 6.1104 1 S
T1216 0.8704 1 P
FDMO 6.1804 1 S
ED21 4.0804 1 P
ED21 7.8604 1 S
ED19 1.3604 1 P
ED17 3.6404 1 P
MC2 4.3606 1 S
MMO1 6.9005 1 S
T1245 3.4706 1 S
ED16 6.8604 1 S
NRCA 0.9906 1 P
NRCA 2.2806 1 S
# 2016 10 14 05 59 56.296 42.6454 13.3382 8.49 0 0 0 0 224
SMA1 1.3341 1 P
SMA1 2.6441 1 S
ED04 3.8941 1 S
ED03 4.6041 1 S
T1299 1.5142 1 P
ED24 4.6741 1 S
T1201 3.3941 1 S
T1204 1.4441 1 P
T1204 2.7841 1 S
ED16 7.2841 1 S
ED20 5.1241 1 S
ED20 2.3041 1 P
TERO 3.7441 1 P
TERO 6.9941 1 S
ED07 2.2741 1 P
T1246 5.2041 1 S
CAMP 4.8641 1 S
ED25 1.6041 1 P
ED25 3.2941 1 S
# 2016 10 14 06 02 04.476 42.7381 13.1912 6.01 0 0 0 0 225
ED03 2.6440 1 P
ED03 5.1740 1 S
T1218 1.7040 1 P
T1211 11.5740 1 S
ED02 4.3840 1 P
ED02 8.3740 1 S
ED11 2.4340 1 P
T1212 2.1940 1 P
T1212 4.1940 1 S
T1215 4.5740 1 P
T1215 8.8940 1 S
ED12 3.3540 1 P
ED10 1.2040 1 P
CESI 11.9742 1 S
NRCA 4.1342 1 S
NRCA 2.2442 1 P
ED17 4.6640 1 P
ED17 8.9840 1 S
MMO1 7.1041 1 S
T1214 0.6740 1 P
ED16 5.2740 1 S
ED20 3.3340 1 P
ED20 6.6040 1 S
TERO 5.8140 1 P
TERO 11.0340 1 S
ED07 4.3240 1 P
ED07 8.3740 1 S
T1204 4.6840 1 S
T1204 2.3540 1 P
T1246 4.9640 1 P
T1246 9.4140 1 S
CAMP 8.8940 1 S
T1202 1.1140 1 P
T1201 2.0840 1 P
T1201 4.1140 1 S
ED05 10.2940 1 S
RM33 8.5440 1 S
ED24 1.6140 1 P
# 2016 10 14 06 06 08.717 42.5922 13.3045 6.08 0 0 0 0 226
ED04 0.9832 1 P
ED04 2.1332 1 S
RM33 2.0932 1 P
ED01 3.1632 1 P
ED24 4.3232 1 S
T1201 1.8932 1 P
T1299 1.2433 1 P
T1299 2.4732 1 S
T1204 1.9032 1 P
T1204 3.7332 1 S
SMA1 2.7432 1 S
SMA1 1.4232 1 P
ED07 4.8532 1 S
ED07 2.5132 1 P
TERO 4.1432 1 P
TERO 7.9132 1 S
ED25 1.2432 1 P
T1246 5.3232 1 S
T1246 2.7832 1 P
ED05 2.4432 1 P
ED05 4.7432 1 S
# 2016 10 14 06 08 09.461 42.6434 13.3288 9.26 0 0 0 0 227
SMA1 1.3686 1 P
SMA1 2.4986 1 S
RM33 6.1686 1 S
ED03 4.6786 1 S
T1299 1.5687 1 P
ED24 4.6286 1 S
T1201 1.8886 1 P
T1218 5.9486 1 S
ED11 7.8586 1 S
T1204 2.8586 1 S
T1204 1.5086 1 P
CSP1 15.7786 1 S
ED16 7.3286 1 S
ED20 2.5786 1 P
TERO 7.0186 1 S
TERO 3.7686 1 P
ED07 2.2986 1 P
ED07 4.4486 1 S
T1246 5.2386 1 S
ED25 1.6486 1 P
ED25 3.3186 1 S
ED05 6.5686 1 S
# 2016 10 14 06 09 11.926 42.6450 13.3317 9.97 0 0 0 0 228
ED04 4.5240 1 S
RM33 6.7640 1 S
T1299 3.6340 1 S
T1299 2.1341 1 P
ED24 5.2240 1 S
T1218 6.5240 1 S
T1201 4.1840 1 S
T1201 2.4740 1 P
SEF1 10.4042 1 P
ED16 7.8840 1 S
T1204 2.0940 1 P
T1204 3.4340 1 S
ED07 2.9040 1 P
ED07 5.0140 1 S
TERO 7.6540 1 S
SMA1 3.2640 1 S
SMA1 1.9540 1 P
T1246 5.8340 1 S
ED25 2.2240 1 P
ED25 3.9140 1 S
CAMP 5.4740 1 S
ED05 6.9840 1 S
# 2016 10 14 06 09 57.243 42.7596 13.2334 9.65 0 0 0 0 229
RM33 9.1375 1 S
ED24 2.6775 1 P
ED24 5.0075 1 S
T1218 2.8975 1 P
T1218 5.5275 1 S
ED11 3.4375 1 P
ED11 6.4475 1 S
T1214 1.6475 1 P
T1212 5.7075 1 S
T1212 3.0975 1 P
T1215 9.6775 1 S
ED10 2.0375 1 P
ED10 3.7875 1 S
ED12 7.2675 1 S
T1216 7.9275 1 S
NRCA 2.5877 1 P
ED19 3.5875 1 P
FDMO 5.6075 1 P
T1245 2.5177 1 P
MC2 3.3777 1 P
ED18 8.6675 1 S
ED17 4.1175 1 P
ED17 7.7975 1 S
ED22 9.4875 1 S
MMO1 3.2576 1 P
MMO1 6.1276 1 S
ED16 4.6675 1 S
ED16 2.4775 1 P
ED07 4.1575 1 P
ED07 7.8475 1 S
T1246 4.9075 1 P
T1246 9.2475 1 S
T1204 2.5875 1 P
T1204 4.7875 1 S
SMA1 3.1275 1 P
SMA1 5.8475 1 S
ED25 3.6975 1 P
ED25 7.0575 1 S
ED05 10.7475 1 S
T1299 5.6875 1 S
T1299 3.0176 1 P
T1201 2.7275 1 P
# 2016 10 14 06 14 23.500 42.6481 13.3253 9.66 0 0 0 0 230
ED04 2.2402 1 P
RM33 6.3302 1 S
RM33 3.4402 1 P
ED03 2.6602 1 P
ED02 10.2202 1 S
T1299 3.2702 1 S
T1299 1.7503 1 P
ED24 2.6002 1 P
ED24 4.8602 1 S
T1218 6.0302 1 S
T1218 3.3302 1 P
ED11 7.8902 1 S
T1201 2.0602 1 P
T1201 3.8502 1 S
T1212 8.3002 1 S
ED12 11.2302 1 S
T1202 4.9002 1 S
ED10 7.0402 1 S
NRCA 8.7404 1 S
ED16 7.4602 1 S
ED17 11.1802 1 S
T1204 3.1202 1 S
T1204 1.6802 1 P
ED22 12.9402 1 S
MMO1 9.2003 1 S
ED20 2.8102 1 P
ED07 4.7302 1 S
ED07 2.5402 1 P
TERO 7.3502 1 S
SMA1 2.7002 1 S
SMA1 1.6102 1 P
T1246 5.4902 1 S
T1246 3.0302 1 P
ED25 1.9202 1 P
CAMP 5.1502 1 S
ED14 8.1002 1 S
ED14 4.3702 1 P
ED05 3.5202 1 P
ED05 6.5602 1 S
# 2016 10 14 06 19 59.081 42.8064 13.1586 7.93 0 0 0 0 231
ED01 5.5393 1 P
ED01 10.2693 1 S
ED10 1.4193 1 P
T1218 2.9393 1 P
ED11 3.1993 1 P
ED11 5.6793 1 S
T1211 12.5193 1 S
ED02 9.5593 1 S
ED02 5.1693 1 P
T1212 2.2693 1 P
T1212 4.4793 1 S
T1217 3.9793 1 P
T1217 7.4693 1 S
T1215 4.3093 1 P
T1215 7.8693 1 S
ED12 2.9793 1 P
T1216 5.2793 1 S
T1216 2.9393 1 P
CESI 5.3993 1 P
CESI 9.9495 1 S
NRCA 1.4995 1 P
FDMO 4.6893 1 P
ED19 2.5293 1 P
ED19 4.8693 1 S
CSP1 5.6393 1 P
MC2 4.9695 1 S
MC2 2.6195 1 P
ED18 4.0093 1 P
ED18 7.4593 1 S
ED21 4.6993 1 P
ED21 8.7093 1 S
T1245 1.7295 1 P
T1245 3.3695 1 S
ED22 8.7693 1 S
ED17 7.1693 1 S
ED17 3.8293 1 P
MMO1 6.0294 1 S
ED16 2.7093 1 P
ED09 3.8793 1 P
ED20 4.1293 1 P
TERO 6.9893 1 P
TERO 12.9193 1 S
ED07 10.2693 1 S
T1246 11.5493 1 S
T1246 6.2593 1 P
T1204 6.8693 1 S
T1204 3.7393 1 P
ED25 5.1793 1 P
CAMP 11.4093 1 S
ED14 7.8693 1 P
T1299 7.8093 1 S
T1299 4.1594 1 P
T1202 4.9993 1 S
T1202 2.8793 1 P
T1201 3.7093 1 P
ED05 12.6993 1 S
ED05 6.7493 1 P
ED24 6.1393 1 S
ED24 3.2093 1 P
ED06 12.5093 1 S
RM33 10.9293 1 S
RM33 5.7193 1 P
ED03 4.1193 1 P
ED03 7.8593 1 S
# 2016 10 14 06 21 55.844 42.7430 13.1806 6.34 0 0 0 0 232
T1218 1.8457 1 P
ED02 4.4057 1 P
ED02 8.3657 1 S
T1212 4.0657 1 S
T1212 2.0857 1 P
T1215 8.4257 1 S
ED12 3.2257 1 P
ED12 6.2757 1 S
CESI 11.6758 1 S
ED10 1.0557 1 P
NRCA 3.7358 1 S
NRCA 1.9659 1 P
ED19 6.7357 1 S
CSP1 12.4357 1 S
MC2 3.2959 1 P
ED18 9.1857 1 S
ED21 10.5657 1 S
ED17 8.5957 1 S
ED17 4.4757 1 P
MMO1 3.4958 1 P
ED16 2.5857 1 P
T1214 0.7857 1 P
ED09 6.9057 1 S
ED20 3.4657 1 P
T1204 4.6057 1 S
SMA1 2.9957 1 P
T1202 2.5057 1 S
T1299 4.7357 1 S
T1299 2.9358 1 P
T1201 2.3156 1 P
T1201 4.5357 1 S
ED24 1.7557 1 P
ED24 3.3457 1 S
ED03 5.4857 1 S
# 2016 10 14 06 23 52.127 42.7432 13.1686 9.34 0 0 0 0 233
ED01 4.4830 1 P
ED01 8.2330 1 S
T1218 2.1830 1 P
T1218 4.0930 1 S
ED02 4.4030 1 P
ED02 8.3430 1 S
ED11 2.7230 1 P
ED11 4.7030 1 S
T1217 3.7530 1 P
T1217 7.0630 1 S
T1212 2.2530 1 P
T1212 4.5330 1 S
T1215 4.5730 1 P
ED12 3.2830 1 P
ED12 6.2730 1 S
CESI 11.6232 1 S
ED10 1.7830 1 P
ED10 3.2830 1 S
NRCA 2.4632 1 P
ED19 3.7730 1 P
ED19 6.9430 1 S
MC2 6.8932 1 S
T1245 2.7732 1 P
T1245 5.2432 1 S
ED18 9.4530 1 S
ED21 5.6730 1 P
ED21 10.4630 1 S
ED22 10.3830 1 S
ED17 4.7430 1 P
ED17 8.7630 1 S
MMO1 3.9631 1 P
MMO1 7.4031 1 S
ED16 3.2130 1 P
ED16 5.8530 1 S
T1214 1.4430 1 P
ED09 3.8530 1 P
ED20 3.7530 1 P
TERO 6.2930 1 P
ED07 4.6930 1 P
ED07 8.9930 1 S
T1204 5.3730 1 S
T1246 5.3830 1 P
ED15 13.0330 1 S
SMA1 3.4730 1 P
T1202 2.1230 1 P
T1202 3.9930 1 S
ED25 3.9930 1 P
ED25 7.7530 1 S
T1299 5.5830 1 S
T1201 2.7330 1 P
ED14 6.6830 1 P
ED14 12.3730 1 S
ED05 10.8030 1 S
ED24 2.3730 1 P
ED24 4.3930 1 S
ED03 3.0730 1 P
ED03 5.7630 1 S
# 2016 10 14 06 25 44.227 42.6485 13.3359 9.56 0 0 0 0 234
T1299 2.9834 1 S
ED24 2.4334 1 P
ED24 4.6934 1 S
T1218 3.1534 1 P
ED11 7.8334 1 S
T1201 3.6934 1 S
T1212 8.2534 1 S
NRCA 8.5836 1 S
T1204 2.8034 1 S
ED16 7.2834 1 S
ED20 4.8134 1 S
TERO 6.9734 1 S
TERO 3.7634 1 P
ED07 4.4434 1 S
ED07 2.2734 1 P
T1246 5.1534 1 S
GIGS 8.7534 1 S
CAMP 4.8334 1 S
ED14 4.1034 1 P
ED25 1.6234 1 P
ED25 3.1634 1 S
ED05 3.2434 1 P
SMA1 2.6134 1 S
# 2016 10 14 06 26 22.004 42.6621 13.3399 6.05 0 0 0 0 235
SMA1 1.0760 1 P
SMA1 2.1960 1 S
T1299 2.5660 1 S
ED24 2.2460 1 P
ED24 4.2960 1 S
T1201 3.1360 1 S
T1201 1.5460 1 P
T1214 5.5560 1 S
T1204 1.0060 1 P
T1204 2.1760 1 S
ED16 6.5760 1 S
ED20 2.1560 1 P
ED20 4.2160 1 S
TERO 7.3360 1 S
ED07 2.1460 1 P
T1246 5.4160 1 S
CAMP 5.1660 1 S
ED25 3.0360 1 S
# 2016 10 14 06 27 38.895 42.7400 13.1921 5.22 0 0 0 0 236
T1218 1.8150 1 P
T1218 3.5850 1 S
ED02 4.4350 1 P
ED02 8.5550 1 S
ED11 2.4850 1 P
T1217 7.5050 1 S
T1212 2.1850 1 P
T1212 4.2350 1 S
ED12 3.4150 1 P
ED10 1.4550 1 P
ED10 2.2550 1 S
NRCA 4.1352 1 S
ED17 4.6750 1 P
ED17 8.9950 1 S
MMO1 7.1051 1 S
T1214 0.7950 1 P
ED20 6.5050 1 S
TERO 11.1250 1 S
ED07 8.4250 1 S
T1246 9.4850 1 S
T1202 2.2150 1 S
T1201 4.2050 1 S
T1201 2.1450 1 P
ED05 10.3850 1 S
ED24 1.6250 1 P
# 2016 10 14 06 28 04.031 42.7391 13.1940 5.07 0 0 0 0 237
ED03 5.3592 1 S
T1218 3.6892 1 S
T1218 1.7892 1 P
ED02 8.4992 1 S
ED02 4.5392 1 P
ED11 2.5492 1 P
ED12 6.5992 1 S
ED10 1.2792 1 P
NRCA 4.1194 1 S
ED19 7.1292 1 S
ED17 8.9792 1 S
T1214 0.7492 1 P
ED20 3.3092 1 P
ED20 6.4492 1 S
T1246 9.5892 1 S
T1202 1.1592 1 P
T1202 2.1692 1 S
T1201 2.1692 1 P
RM33 8.6992 1 S
ED24 1.6692 1 P
ED24 3.3292 1 S
# 2016 10 14 06 30 44.449 42.7431 13.1770 10.28 0 0 0 0 238
T1218 2.2608 1 P
T1218 4.2208 1 S
ED11 2.6908 1 P
T1217 6.9708 1 S
T1212 2.4108 1 P
ED12 3.5108 1 P
ED12 6.2308 1 S
ED10 1.7708 1 P
NRCA 2.4910 1 P
ED19 6.9408 1 S
T1245 5.2010 1 S
ED17 8.7608 1 S
MMO1 7.3709 1 S
ED16 5.9408 1 S
T1214 3.1208 1 S
T1214 1.7608 1 P
ED20 3.7508 1 P
T1246 9.9308 1 S
T1202 3.9608 1 S
ED24 2.3508 1 P
ED24 4.3408 1 S
# 2016 10 14 06 31 52.122 42.6817 13.1900 9.75 0 0 0 0 239
ED03 2.1582 1 P
ED03 3.8982 1 S
ED24 1.6682 1 P
ED01 6.5982 1 S
ED01 3.6682 1 P
ED02 7.6282 1 S
ED02 4.1782 1 P
T1218 1.9682 1 P
ED11 5.0882 1 S
ED11 2.7682 1 P
T1212 5.4582 1 S
ED10 4.6882 1 S
NRCA 6.5284 1 S
T1245 6.5984 1 S
T1214 2.3982 1 P
T1214 4.4182 1 S
ED20 7.0882 1 S
ED07 7.7582 1 S
T1246 8.9982 1 S
SMA1 5.2982 1 S
T1201 1.9982 1 P
T1201 3.6782 1 S
ED25 6.1082 1 S
RM33 3.5282 1 P
RM33 6.4982 1 S
# 2016 10 14 06 32 53.030 42.6510 13.3327 8.93 0 0 0 0 240
SMA1 1.4497 1 P
SMA1 2.6097 1 S
ED04 2.1497 1 P
ED04 4.0097 1 S
ED06 7.4097 1 S
RM33 6.2597 1 S
RM33 3.3497 1 P
ED03 2.5997 1 P
ED02 5.5497 1 P
ED24 2.5497 1 P
ED24 4.7497 1 S
T1201 1.9797 1 P
T1218 6.0197 1 S
T1218 3.2797 1 P
ED11 4.2797 1 P
ED11 7.8797 1 S
T1212 8.2697 1 S
T1212 4.5097 1 P
ED10 6.9897 1 S
NRCA 8.6699 1 S
T1204 1.6097 1 P
ED19 10.8097 1 S
T1245 8.7099 1 S
ED18 12.2197 1 S
ED21 13.1897 1 S
ED16 3.9797 1 P
ED17 11.0197 1 S
MMO1 9.1098 1 S
ED09 3.3297 1 P
ED09 6.1597 1 S
ED20 2.6497 1 P
TERO 3.8797 1 P
TERO 7.1297 1 S
ED07 2.4097 1 P
T1246 5.2997 1 S
T1246 2.9197 1 P
ED15 7.3497 1 S
CAMP 4.9897 1 S
CAMP 2.7097 1 P
ED14 7.9497 1 S
ED14 4.3297 1 P
ED25 1.6597 1 P
ED25 3.4597 1 S
ED05 3.4197 1 P
ED05 6.0997 1 S
# 2016 10 14 06 33 41.338 42.8944 13.2471 4.91 0 0 0 0 241
T1214 5.3621 1 S
T1218 8.8821 1 S
ED10 2.5821 1 P
ED11 9.5221 1 S
T1245 1.1023 1 P
NRCA 2.0923 1 P
ED12 7.7721 1 S
T1216 6.0121 1 S
ED19 1.5621 1 P
MC2 1.0323 1 P
CESI 9.9823 1 S
FDMO 6.7121 1 S
CSP1 7.5521 1 S
ED18 4.0121 1 S
ED18 2.0821 1 P
ED21 5.1721 1 S
ED22 5.1021 1 S
ED17 3.2621 1 S
ED17 1.6721 1 P
MMO1 1.2622 1 P
ED20 7.1721 1 S
ED16 1.5221 1 P
ED16 2.9921 1 S
T1246 12.7821 1 S
GIGS 17.3521 1 S
# 2016 10 14 06 37 24.573 42.8753 13.2186 -0.01 0 0 0 0 242
T1214 2.7371 1 P
T1214 4.8971 1 S
ED24 9.0671 1 S
T1218 8.4171 1 S
ED10 2.2971 1 P
T1245 0.4973 1 P
NRCA 1.7473 1 P
NRCA 3.3973 1 S
T1216 3.1971 1 P
ED19 2.9371 1 S
ED19 1.5571 1 P
MC2 1.0473 1 P
ED21 6.0871 1 S
ED22 6.2571 1 S
ED17 4.3871 1 S
ED17 2.3071 1 P
MMO1 1.7772 1 P
ED16 2.8471 1 S
ED20 3.9971 1 P
ED07 11.3471 1 S
# 2016 10 14 06 40 18.046 42.9409 13.2612 6.02 0 0 0 0 243
T1214 3.6040 1 P
T1218 5.5240 1 P
ED10 3.4740 1 P
T1245 3.8242 1 S
T1245 1.9842 1 P
T1212 8.9040 1 S
NRCA 2.8942 1 P
NRCA 5.6342 1 S
MC2 1.4342 1 P
T1216 6.8240 1 S
ED19 1.9240 1 P
CESI 9.8542 1 S
FDMO 5.8940 1 S
ED18 1.3140 1 P
CSP1 6.1040 1 S
ED21 1.8740 1 P
ED21 3.5740 1 S
ED22 3.7040 1 S
ED17 0.8240 1 P
MMO1 1.3041 1 P
ED20 8.1140 1 S
ED20 4.2140 1 P
ED07 12.1340 1 S
ED16 2.3140 1 P
ED16 4.2140 1 S
# 2016 10 14 06 43 45.324 42.7491 13.1868 5.19 0 0 0 0 244
T1218 1.9262 1 P
T1218 3.8262 1 S
ED02 4.5062 1 P
ED11 2.5262 1 P
T1212 2.1362 1 P
T1212 4.1062 1 S
T1215 4.5462 1 P
T1215 8.6162 1 S
ED12 3.2462 1 P
ED12 6.3362 1 S
ED10 1.0562 1 P
NRCA 3.7764 1 S
NRCA 1.9864 1 P
ED19 6.3162 1 S
CSP1 12.4862 1 S
ED18 9.2862 1 S
ED21 10.4462 1 S
ED17 8.6162 1 S
ED17 4.4062 1 P
MMO1 3.4863 1 P
MMO1 6.7663 1 S
ED16 5.0762 1 S
ED16 2.5862 1 P
T1214 0.6462 1 P
ED09 6.6262 1 S
ED09 3.4462 1 P
ED20 6.5262 1 S
ED20 3.3662 1 P
TERO 5.9762 1 P
ED07 4.5262 1 P
T1246 5.2262 1 P
T1246 9.8062 1 S
T1204 5.0762 1 S
ED25 3.8262 1 P
CAMP 9.4162 1 S
T1202 2.4062 1 S
T1202 1.3362 1 P
T1201 2.2762 1 P
ED05 10.7062 1 S
RM33 9.0462 1 S
ED24 1.8062 1 P
# 2016 10 14 06 48 50.139 42.7352 13.1949 5.01 0 0 0 0 245
T1218 1.8705 1 P
T1218 3.6505 1 S
ED02 4.5005 1 P
ED02 8.5005 1 S
ED11 2.5505 1 P
T1212 2.2605 1 P
T1215 9.0605 1 S
ED12 3.4505 1 P
ED10 1.2705 1 P
NRCA 4.2107 1 S
NRCA 2.2607 1 P
MMO1 7.2306 1 S
T1214 0.7905 1 P
ED16 5.3405 1 S
ED20 6.8805 1 S
TERO 11.1105 1 S
T1204 2.4005 1 P
T1246 5.0605 1 P
T1246 9.5105 1 S
CAMP 9.0005 1 S
T1202 1.9405 1 S
T1201 2.1305 1 P
ED05 10.4005 1 S
RM33 8.2805 1 S
ED24 1.6605 1 P
ED24 3.1605 1 S
# 2016 10 14 06 55 21.320 42.9653 13.1665 5.22 0 0 0 0 246
ED10 7.3199 1 S
T1218 10.8399 1 S
NRCA 5.5101 1 S
ED19 0.9399 1 P
T1212 8.5399 1 S
T1217 11.2099 1 S
ED12 7.7099 1 S
FEMA 3.2799 1 S
CESI 7.1101 1 S
CSP1 5.0799 1 S
ED21 2.1299 1 P
ED21 4.0999 1 S
ED18 1.4199 1 P
ED17 2.1799 1 P
ED17 4.2299 1 S
MMO1 5.4200 1 S
T1241 7.5699 1 S
ED20 10.8199 1 S
ED16 6.6899 1 S
ED07 13.2699 1 S
MC2 2.4601 1 S
T1204 10.2999 1 S
T1299 11.8299 1 S
T1201 10.6199 1 S
T1245 4.6601 1 S
T1245 2.1701 1 P
ED24 11.3699 1 S
ED03 12.8499 1 S
# 2016 10 14 06 55 30.031 42.6474 13.3340 9.61 0 0 0 0 247
SMA1 1.4188 1 P
T1247 7.7288 1 S
ED04 2.0988 1 P
ED04 3.9688 1 S
ED06 7.2588 1 S
RM33 6.2088 1 S
RM33 3.2988 1 P
ED03 2.5388 1 P
T1299 1.6289 1 P
ED24 2.5088 1 P
ED24 4.6888 1 S
T1201 3.6588 1 S
T1201 1.9288 1 P
T1218 5.9988 1 S
T1218 3.2288 1 P
ED11 7.8988 1 S
ED10 7.1888 1 S
NRCA 8.6590 1 S
T1204 1.5388 1 P
ED18 12.3088 1 S
ED21 13.2688 1 S
ED16 3.9288 1 P
MMO1 9.1289 1 S
ED09 6.1288 1 S
ED09 3.2688 1 P
ED20 2.2988 1 P
TERO 3.8388 1 P
TERO 7.0888 1 S
ED07 2.3888 1 P
T1246 2.8788 1 P
T1246 5.2988 1 S
ED15 7.3088 1 S
CAMP 4.9488 1 S
CAMP 2.6788 1 P
ED14 7.9188 1 S
ED14 4.2688 1 P
ED25 1.6188 1 P
ED25 3.4188 1 S
ED05 6.0588 1 S
ED05 3.3888 1 P
# 2016 10 14 06 57 33.428 42.8715 13.0860 4.20 0 0 0 0 248
ED11 7.2322 1 S
T1212 4.9022 1 S
T1212 2.4922 1 P
T1217 7.4722 1 S
ED12 2.0322 1 P
T1215 3.2822 1 P
T1216 1.0122 1 P
FDMO 6.1722 1 S
ED21 4.1222 1 P
ED21 7.8622 1 S
ED19 1.4122 1 P
ED22 8.4722 1 S
ED17 3.6622 1 P
ED17 7.1122 1 S
MMO1 6.8523 1 S
MMO1 3.5823 1 P
ED16 6.6922 1 S
ED20 10.4022 1 S
T1214 5.7922 1 S
NRCA 1.0524 1 P
NRCA 1.7524 1 S
ED10 2.1822 1 P
ED24 8.6222 1 S
T1218 3.9822 1 P
# 2016 10 14 07 02 14.546 42.6510 13.3346 8.64 0 0 0 0 249
SMA1 1.4438 1 P
ED04 2.1238 1 P
ED04 3.7838 1 S
ED06 3.9238 1 P
RM33 3.3238 1 P
ED01 4.1338 1 P
ED03 2.5538 1 P
T1299 3.1438 1 S
T1299 1.6639 1 P
ED02 5.5138 1 P
ED24 2.4938 1 P
ED24 4.8338 1 S
T1201 1.9738 1 P
T1218 3.2438 1 P
T1218 6.1438 1 S
ED11 4.2538 1 P
ED11 7.9638 1 S
T1212 4.4838 1 P
T1212 8.2738 1 S
ED12 11.2338 1 S
ED10 3.6338 1 P
NRCA 8.7340 1 S
NRCA 4.6940 1 P
T1204 1.5338 1 P
ED21 7.1538 1 P
ED21 13.2838 1 S
ED16 7.3338 1 S
ED17 5.9238 1 P
ED09 6.1438 1 S
ED20 2.6838 1 P
ED20 4.9538 1 S
TERO 7.1338 1 S
TERO 3.8438 1 P
ED07 4.1238 1 S
ED07 2.4738 1 P
T1246 2.9038 1 P
CAMP 4.9638 1 S
ED14 4.2838 1 P
ED14 7.9538 1 S
ED25 1.6938 1 P
ED05 6.4338 1 S
