# 2016 10 14 04 01 22.846 42.7419 13.1857 5.40 0 0 0 0 144
ED01 4.2640 1 P
ED01 8.4240 1 S
T1218 1.7140 1 P
ED02 4.3740 1 P
ED02 8.3840 1 S
ED11 2.4140 1 P
T1212 2.0840 1 P
T1212 4.0540 1 S
T1215 4.4840 1 P
T1215 8.6340 1 S
ED12 3.2340 1 P
ED10 1.0840 1 P
FDMO 6.0840 1 P
ED19 6.8340 1 S
CSP1 12.5940 1 S
ED18 9.2840 1 S
ED21 10.6040 1 S
ED17 8.6940 1 S
ED17 4.5740 1 P
MMO1 6.9241 1 S
MMO1 3.6241 1 P
T1214 0.7240 1 P
ED16 5.2440 1 S
ED16 2.6540 1 P
ED09 3.4140 1 P
ED09 6.8340 1 S
ED20 6.6040 1 S
ED20 3.3640 1 P
TERO 5.8740 1 P
ED07 4.4440 1 P
T1204 2.4440 1 P
T1204 4.8840 1 S
T1246 5.0540 1 P
T1246 9.6640 1 S
SMA1 3.1240 1 P
T1202 1.1740 1 P
T1299 2.7441 1 P
T1201 2.2439 1 P
T1201 4.0840 1 S
RM33 8.6240 1 S
ED24 1.6940 1 P
ED03 2.7340 1 P
ED03 5.3440 1 S
# 2016 10 14 04 03 30.512 42.8983 13.2213 4.10 0 0 0 0 145
T1214 2.8081 1 P
T1214 5.5681 1 S
ED03 5.9781 1 P
ED03 11.3581 1 S
ED24 4.8281 1 P
ED24 9.4481 1 S
ED01 7.2781 1 P
ED01 13.6181 1 S
ED08 8.5681 1 P
T1218 9.1281 1 S
T1218 4.7981 1 P
T1245 0.8783 1 P
ED10 2.6681 1 P
ED10 5.1881 1 S
ED11 5.0281 1 P
ED11 9.8581 1 S
ED02 13.1681 1 S
ED02 6.9981 1 P
T1212 3.9481 1 P
T1212 7.9681 1 S
NRCA 2.1183 1 P
T1217 5.6681 1 P
ED12 4.1081 1 P
T1215 5.5081 1 P
T1216 3.1881 1 P
ED19 1.3081 1 P
FDMO 3.5981 1 P
FDMO 6.9481 1 S
CSP1 4.1681 1 P
ED18 2.1981 1 P
ED21 2.8981 1 P
ED21 5.6181 1 S
GUMA 7.7984 1 S
ED22 5.7481 1 S
ED17 3.9681 1 S
ED17 1.7181 1 P
MMO1 3.2982 1 S
ED09 3.5681 1 P
ED16 1.9181 1 P
ED20 4.2281 1 P
TERO 7.4581 1 P
T1246 7.1481 1 P
GIGS 17.9381 1 S
ED14 16.9381 1 S
T1204 4.9581 1 P
ED25 6.2781 1 P
ED25 11.6581 1 S
SMA1 5.4381 1 P
ED05 15.3881 1 S
ED05 8.2681 1 P
T1299 5.4682 1 P
ED04 12.6981 1 S
T1201 5.1681 1 P
T1202 4.1981 1 P
T1202 7.8581 1 S
# 2016 10 14 04 06 57.126 42.8081 13.2440 3.54 0 0 0 0 146
T1214 1.0337 1 P
T1218 6.4337 1 S
T1212 6.3437 1 S
ED10 1.6937 1 P
ED10 3.1537 1 S
T1245 2.6339 1 S
ED18 7.2937 1 S
ED21 8.2937 1 S
ED17 3.1537 1 P
ED17 6.1937 1 S
ED22 8.1037 1 S
MMO1 4.1938 1 S
MMO1 2.2538 1 P
ED16 1.2737 1 P
ED20 2.9437 1 P
ED20 5.7537 1 S
TERO 11.6537 1 S
# 2016 10 14 04 07 14.736 42.8746 13.0715 5.97 0 0 0 0 147
T1212 2.5045 1 P
T1212 4.7145 1 S
ED11 6.9745 1 S
ED12 2.0045 1 P
ED12 3.9345 1 S
T1215 6.2045 1 S
T1216 0.9545 1 P
CESI 6.7847 1 S
FDMO 6.0745 1 S
FDMO 3.3145 1 P
ED19 1.3945 1 P
ED19 2.6145 1 S
ED22 8.5545 1 S
ED17 7.0045 1 S
ED17 3.6545 1 P
MMO1 3.6046 1 P
MMO1 6.8646 1 S
T1245 3.8447 1 S
ED16 6.8845 1 S
ED10 4.3445 1 S
# 2016 10 14 04 08 05.509 42.8285 13.0999 5.92 0 0 0 0 148
ED11 5.5414 1 S
T1212 3.7614 1 S
T1212 1.9714 1 P
ED12 2.0014 1 P
ED12 3.8214 1 S
T1215 6.5114 1 S
T1215 3.2314 1 P
ED19 2.2014 1 P
ED19 3.6014 1 S
ED21 4.5414 1 P
ED21 8.6314 1 S
ED17 3.9514 1 P
ED17 7.4714 1 S
MMO1 6.7615 1 S
MMO1 3.5415 1 P
T1245 3.0716 1 S
T1245 1.8616 1 P
ED16 6.1314 1 S
ED20 9.2014 1 S
T1214 4.3914 1 S
T1218 5.8814 1 S
# 2016 10 14 04 09 20.389 42.6366 13.3063 3.74 0 0 0 0 149
ED04 2.2905 1 S
ED06 3.6505 1 P
RM33 2.5105 1 P
ED08 4.6805 1 P
ED01 3.5205 1 P
ED03 1.9705 1 P
ARRO 7.5107 1 P
ED02 4.9605 1 P
T1218 2.7205 1 P
ED11 3.7005 1 P
T1217 5.2605 1 P
ED24 1.6805 1 P
T1215 6.5005 1 P
T1215 13.2605 1 S
T1212 3.9605 1 P
T1201 1.7505 1 S
ED12 5.4305 1 P
ED10 7.3705 1 S
ED10 3.7005 1 P
T1216 6.1905 1 P
CESI 8.8705 1 P
T1202 3.0505 1 S
T1214 3.1405 1 P
ED19 11.4805 1 S
ED19 6.0805 1 P
FDMO 15.5105 1 S
FDMO 8.0305 1 P
T1245 4.8507 1 P
MC2 5.9707 1 P
MC2 11.0307 1 S
MDAR 19.9107 1 S
CSP1 16.2905 1 S
ED18 12.9705 1 S
ED18 6.4905 1 P
ED21 13.7505 1 S
ED17 11.5405 1 S
ED16 8.0305 1 S
ED16 3.9905 1 P
ED22 13.3205 1 S
GUMA 15.5208 1 S
MMO1 9.4206 1 S
T1204 0.8005 1 P
T1241 8.7705 1 S
ED09 6.8505 1 S
ED20 5.6205 1 S
OFFI 7.8705 1 P
ED07 4.9005 1 S
ED07 1.9905 1 P
SMA1 0.6505 1 P
T1246 5.9005 1 S
ED15 7.9805 1 S
ED25 0.7305 1 P
GIGS 4.9905 1 P
CAMP 2.3905 1 P
CAMP 5.5105 1 S
ED14 8.3005 1 S
ED14 4.2105 1 P
T1247 4.0005 1 P
# 2016 10 14 04 11 55.147 42.6417 13.3368 9.15 0 0 0 0 150
SMA1 1.6634 1 P
SMA1 3.0034 1 S
ED03 4.8834 1 S
T1299 3.3134 1 S
T1299 1.8235 1 P
ED24 2.7234 1 P
ED24 4.9434 1 S
T1218 3.3534 1 P
T1201 3.9834 1 S
ED10 7.4734 1 S
T1204 1.7734 1 P
ED16 7.6434 1 S
ED22 13.0534 1 S
TERO 4.0634 1 P
TERO 7.3534 1 S
T1246 5.5734 1 S
# 2016 10 14 04 12 34.037 42.6409 13.3391 9.02 0 0 0 0 151
ED04 4.0934 1 S
RM33 6.4234 1 S
SMA1 1.6234 1 P
ED03 4.9034 1 S
ED03 2.6934 1 P
T1299 3.3534 1 S
T1299 1.8235 1 P
ED24 2.6834 1 P
ED24 4.9934 1 S
T1218 6.4334 1 S
T1218 3.4134 1 P
T1201 3.8734 1 S
T1201 2.1834 1 P
T1204 3.1834 1 S
T1204 1.7534 1 P
ED16 7.7134 1 S
MMO1 9.3835 1 S
ED22 13.0934 1 S
ED20 2.8734 1 P
TERO 4.0234 1 P
TERO 7.2834 1 S
T1246 5.3834 1 S
CAMP 5.0534 1 S
ED25 1.8834 1 P
ED25 3.2234 1 S
# 2016 10 14 04 14 05.334 42.6470 13.3353 9.56 0 0 0 0 152
SMA1 1.4057 1 P
ED04 3.8857 1 S
RM33 6.1157 1 S
ED03 4.5557 1 S
ED03 2.4457 1 P
T1299 3.0757 1 S
T1299 1.5658 1 P
ED24 2.4257 1 P
ED24 4.6657 1 S
T1201 3.6157 1 S
T1201 1.8957 1 P
T1218 3.1557 1 P
ED11 7.8257 1 S
T1212 4.3857 1 P
ED12 11.1957 1 S
ED10 6.9657 1 S
NRCA 8.6459 1 S
T1204 1.5057 1 P
T1204 2.9257 1 S
ED19 10.7357 1 S
T1245 8.8159 1 S
ED18 12.2357 1 S
ED21 13.2457 1 S
ED16 7.3257 1 S
ED17 10.9257 1 S
MMO1 9.0158 1 S
ED22 12.6557 1 S
ED20 2.6257 1 P
ED20 4.9657 1 S
TERO 3.7757 1 P
TERO 7.1057 1 S
ED07 2.3457 1 P
T1246 4.9957 1 S
T1246 2.8057 1 P
ED15 7.2557 1 S
CAMP 4.8557 1 S
CAMP 2.5757 1 P
ED14 7.7857 1 S
ED25 1.6157 1 P
ED25 3.4057 1 S
ED05 6.3157 1 S
# 2016 10 14 04 14 30.011 42.6420 13.3219 9.09 0 0 0 0 153
ED04 4.2291 1 S
RM33 6.3591 1 S
ED03 4.7891 1 S
T1299 1.7592 1 P
T1299 3.2391 1 S
ED24 4.8191 1 S
T1218 6.0991 1 S
ED11 8.0091 1 S
T1201 3.7991 1 S
T1201 2.0691 1 P
T1212 8.3391 1 S
CSP1 16.5491 1 S
ED18 12.4391 1 S
ED16 7.4591 1 S
T1204 3.0391 1 S
T1241 4.6391 1 P
ED20 2.7691 1 P
ED07 4.6791 1 S
ED07 2.5191 1 P
TERO 3.9791 1 P
SMA1 1.5791 1 P
SMA1 2.7091 1 S
T1246 5.4891 1 S
ED25 1.8591 1 P
ED25 3.5391 1 S
CAMP 5.1191 1 S
ED14 8.0891 1 S
# 2016 10 14 04 15 01.307 42.6513 13.3396 8.28 0 0 0 0 154
SMA1 2.4926 1 S
ED04 3.7126 1 S
RM33 6.0226 1 S
T1299 2.8526 1 S
T1299 1.4127 1 P
ED03 2.2726 1 P
ED24 2.2826 1 P
ED24 4.5026 1 S
T1201 3.4526 1 S
T1218 3.6126 1 P
T1218 5.8826 1 S
T1212 8.0826 1 S
ED10 3.5226 1 P
T1214 2.9826 1 P
NRCA 4.4128 1 P
ED19 5.5126 1 P
ED19 10.9526 1 S
ED18 12.1026 1 S
ED16 7.1226 1 S
ED21 13.0426 1 S
ED17 10.6826 1 S
MMO1 8.8727 1 S
ED22 12.4826 1 S
ED09 5.9026 1 S
ED20 2.3926 1 P
TERO 6.7726 1 S
ED07 2.1326 1 P
T1246 2.5726 1 P
T1246 5.0426 1 S
CAMP 2.3726 1 P
ED14 3.9226 1 P
ED25 1.4626 1 P
ED25 3.1226 1 S
ED05 6.1826 1 S
# 2016 10 14 04 15 18.714 42.6474 13.3405 8.24 0 0 0 0 155
SMA1 1.3256 1 P
SMA1 2.6856 1 S
RM33 6.2156 1 S
ED03 4.5156 1 S
T1299 2.9956 1 S
T1299 1.4857 1 P
ARRO 8.1558 1 P
ED24 4.5256 1 S
T1201 1.7956 1 P
T1201 3.6356 1 S
T1204 1.4256 1 P
T1204 2.8656 1 S
MMO1 8.9757 1 S
ED22 12.5656 1 S
ED20 2.5256 1 P
ED20 4.8456 1 S
TERO 7.0056 1 S
TERO 3.7256 1 P
ED07 2.2856 1 P
T1246 5.2356 1 S
CAMP 4.8556 1 S
ED25 1.6056 1 P
ED25 3.4056 1 S
# 2016 10 14 04 16 45.832 42.8175 13.1577 10.66 0 0 0 0 156
ED01 5.7782 1 P
ED10 2.0182 1 P
ED10 3.6182 1 S
T1218 6.4282 1 S
T1218 3.5082 1 P
ED11 3.5482 1 P
ED11 6.4882 1 S
ED02 5.3882 1 P
ED02 9.7982 1 S
T1211 12.8682 1 S
T1212 5.0382 1 S
T1212 2.8182 1 P
T1217 7.8082 1 S
ED12 3.3282 1 P
ED12 5.8682 1 S
T1215 8.1082 1 S
NRCA 2.2984 1 P
NRCA 3.4684 1 S
T1216 2.9782 1 P
T1216 5.7982 1 S
CESI 9.6384 1 S
FDMO 4.5382 1 P
ED19 2.7182 1 P
ED19 4.8982 1 S
MC2 5.1384 1 S
ED18 3.9482 1 P
ED21 4.5982 1 P
ED21 8.4982 1 S
T1245 2.1184 1 P
T1245 3.7784 1 S
ED17 7.1082 1 S
ED17 3.9382 1 P
MMO1 6.2683 1 S
ED16 5.5982 1 S
ED20 4.3782 1 P
TERO 13.2582 1 S
ED07 10.4882 1 S
ED15 14.3182 1 S
T1214 4.3482 1 S
T1214 2.3682 1 P
T1202 5.9382 1 S
T1201 4.0982 1 P
ED24 3.6682 1 P
ED24 6.7882 1 S
RM33 11.3682 1 S
ED03 8.5382 1 S
# 2016 10 14 04 17 28.829 42.8670 13.2372 5.11 0 0 0 0 157
ED06 14.1708 1 S
ED03 9.8208 1 S
ED03 5.1708 1 P
ED24 8.0908 1 S
T1214 2.3108 1 P
T1214 4.4608 1 S
ED01 6.7408 1 P
ED01 12.7108 1 S
T1218 4.1408 1 P
T1218 8.0708 1 S
ED10 4.3708 1 S
ED10 2.2608 1 P
ED11 8.5408 1 S
ED02 12.2208 1 S
ED02 6.4408 1 P
T1212 6.8108 1 S
T1212 3.5908 1 P
T1217 9.7208 1 S
NRCA 1.9310 1 P
NRCA 3.8610 1 S
ED12 7.4508 1 S
ED12 3.8708 1 P
T1215 5.2708 1 P
T1215 9.9408 1 S
T1245 0.6410 1 P
T1216 6.1108 1 S
T1216 3.1708 1 P
CESI 10.1410 1 S
CESI 5.3008 1 P
FEMA 6.6008 1 S
ED19 3.2908 1 S
ED19 1.6808 1 P
FDMO 3.7908 1 P
FDMO 7.4108 1 S
MC2 1.3610 1 P
CSP1 8.2608 1 S
CSP1 4.2808 1 P
ED18 4.8108 1 S
ED18 2.3908 1 P
ED21 3.0708 1 P
GUMA 8.1411 1 S
ED17 2.0308 1 P
ED16 1.2708 1 P
ED09 5.6708 1 S
ED09 2.7808 1 P
ED20 3.3908 1 P
TERO 12.5208 1 S
TERO 6.5408 1 P
ED15 14.0308 1 S
ED07 10.5208 1 S
ED07 5.5208 1 P
T1246 6.2008 1 P
T1246 11.7408 1 S
GIGS 8.8308 1 P
CAMP 12.0808 1 S
ED14 15.3608 1 S
T1204 7.6008 1 S
T1204 3.8908 1 P
ED25 5.6608 1 P
ED25 9.9908 1 S
ED05 13.9708 1 S
T1201 4.3408 1 P
# 2016 10 14 04 18 27.421 42.6461 13.3294 9.59 0 0 0 0 158
SMA1 1.6693 1 P
SMA1 2.8293 1 S
ED04 4.2093 1 S
RM33 6.4393 1 S
ED03 4.9193 1 S
T1299 1.8394 1 P
T1299 3.3593 1 S
ED24 2.7693 1 P
ED24 4.9493 1 S
T1201 2.1793 1 P
T1201 3.9093 1 S
ED11 8.1593 1 S
T1212 8.4593 1 S
ED10 7.2893 1 S
NRCA 8.8795 1 S
T1204 3.1593 1 S
T1204 1.8193 1 P
ED19 5.7193 1 P
T1245 4.8995 1 P
ED18 12.5093 1 S
ED21 13.5193 1 S
MNTP 17.4093 1 S
ED09 3.5093 1 P
ED20 2.8793 1 P
TERO 7.2993 1 S
TERO 4.0793 1 P
ED07 4.7393 1 S
ED07 2.6293 1 P
T1246 5.4793 1 S
CAMP 5.2093 1 S
ED14 8.1393 1 S
ED25 1.9193 1 P
ED25 3.6393 1 S
ED05 6.9193 1 S
# 2016 10 14 04 18 44.093 42.6513 13.3280 9.73 0 0 0 0 159
SMA1 1.6566 1 P
SMA1 2.8766 1 S
ED03 4.8766 1 S
T1299 3.2966 1 S
T1299 1.8167 1 P
ED24 2.7166 1 P
ED24 4.8366 1 S
T1201 3.8966 1 S
T1201 2.1166 1 P
T1218 6.1366 1 S
ED11 8.0266 1 S
T1212 8.3866 1 S
T1204 1.7566 1 P
MMO1 9.3167 1 S
ED20 5.1766 1 S
TERO 7.3266 1 S
TERO 4.0466 1 P
ED07 2.5966 1 P
ED07 4.7866 1 S
T1246 5.5766 1 S
ED25 1.9366 1 P
ED25 3.6766 1 S
# 2016 10 14 04 19 21.504 42.6423 13.3337 8.58 0 0 0 0 160
SMA1 1.3857 1 P
SMA1 2.4857 1 S
RM33 6.1757 1 S
ED03 4.6857 1 S
T1299 3.0557 1 S
T1299 1.5658 1 P
ED24 2.4757 1 P
ED24 4.6357 1 S
T1201 1.8957 1 P
T1218 5.9457 1 S
T1204 2.9757 1 S
ED16 7.3157 1 S
TERO 3.7857 1 P
TERO 7.0357 1 S
ED07 2.3157 1 P
T1246 5.3157 1 S
ED25 1.6657 1 P
ED25 3.3357 1 S
# 2016 10 14 04 19 46.203 42.7612 13.1353 3.39 0 0 0 0 161
T1218 3.3269 1 S
ED02 7.9369 1 S
ED11 3.8169 1 S
T1212 3.0069 1 S
T1212 1.4769 1 P
ED12 2.5969 1 P
CESI 11.0571 1 S
NRCA 1.3571 1 P
NRCA 2.5471 1 S
ED19 5.8069 1 S
MC2 6.5971 1 S
ED21 10.4669 1 S
T1245 3.8771 1 S
ED17 8.9969 1 S
T1214 0.8169 1 P
T1201 2.8369 1 P
ED24 2.1169 1 P
ED24 4.7569 1 S
# 2016 10 14 04 21 11.594 42.6464 13.3374 8.69 0 0 0 0 162
SMA1 1.3464 1 P
SMA1 2.6664 1 S
RM33 6.2364 1 S
ED03 2.3964 1 P
ED03 4.5964 1 S
T1299 1.5065 1 P
T1299 3.0064 1 S
ED24 2.3964 1 P
ED24 4.5564 1 S
T1201 1.8364 1 P
T1201 3.6064 1 S
T1204 1.4464 1 P
T1204 2.9864 1 S
MMO1 9.0165 1 S
ED20 2.5664 1 P
ED20 4.8864 1 S
TERO 3.7464 1 P
TERO 7.0164 1 S
ED07 2.3064 1 P
T1246 5.2164 1 S
T1246 2.7764 1 P
ED14 7.8364 1 S
ED25 1.6264 1 P
ED25 3.3464 1 S
# 2016 10 14 04 21 42.728 42.7034 13.3405 10.87 0 0 0 0 163
SMA1 2.2921 1 P
T1299 2.4622 1 P
T1299 3.9621 1 S
T1204 2.4021 1 P
T1204 3.9321 1 S
T1201 2.7721 1 P
T1201 4.6621 1 S
ED24 5.5021 1 S
T1218 6.7921 1 S
NRCA 8.5123 1 S
ED19 9.2521 1 S
FDMO 13.6521 1 S
MC2 8.9923 1 S
CSP1 14.2721 1 S
ED18 10.9021 1 S
TERO 4.6821 1 P
TERO 7.9621 1 S
ED07 5.3821 1 S
T1246 6.1921 1 S
ED25 2.5721 1 P
# 2016 10 14 04 21 48.337 42.8594 13.2649 6.92 0 0 0 0 164
T1214 2.4830 1 P
ED02 12.3830 1 S
ED10 2.4730 1 P
ED10 4.5930 1 S
T1212 7.1830 1 S
T1217 10.2230 1 S
NRCA 2.2732 1 P
T1245 2.5832 1 S
T1245 1.3632 1 P
T1216 6.7130 1 S
ED19 2.2630 1 P
FDMO 4.2230 1 P
ED18 2.7630 1 P
ED21 6.1730 1 S
ED17 2.1830 1 P
ED17 4.1930 1 S
ED22 5.9730 1 S
MMO1 1.3431 1 P
ED09 5.0630 1 S
ED16 1.1230 1 P
ED20 6.1330 1 S
TERO 12.2430 1 S
# 2016 10 14 04 24 24.043 42.6488 13.3389 8.70 0 0 0 0 165
SMA1 1.3773 1 P
SMA1 2.7373 1 S
ED03 2.4073 1 P
T1299 3.0273 1 S
T1299 1.5574 1 P
ED24 2.3873 1 P
ED24 4.6773 1 S
T1201 3.5773 1 S
T1201 1.8973 1 P
T1218 6.0973 1 S
T1204 1.4873 1 P
MMO1 9.0374 1 S
ED20 2.5973 1 P
ED20 4.8773 1 S
TERO 7.0773 1 S
TERO 3.7773 1 P
ED07 2.3473 1 P
ED07 4.1673 1 S
T1246 5.2073 1 S
CAMP 4.9273 1 S
ED25 1.6673 1 P
ED25 3.4173 1 S
# 2016 10 14 04 25 05.051 42.6443 13.3251 10.88 0 0 0 0 166
SMA1 1.6793 1 P
ED04 4.2593 1 S
RM33 6.4193 1 S
ED03 4.8893 1 S
T1299 1.8094 1 P
ED02 10.4193 1 S
ED24 2.7393 1 P
ED24 4.9093 1 S
T1201 2.1393 1 P
T1201 3.9493 1 S
T1218 6.1993 1 S
ED11 8.0993 1 S
T1212 8.4193 1 S
T1204 3.2093 1 S
T1204 1.8093 1 P
ED18 12.5293 1 S
ED16 7.5493 1 S
MMO1 9.3194 1 S
ED20 2.8693 1 P
TERO 7.3193 1 S
ED07 2.6193 1 P
ED07 4.7793 1 S
T1246 5.5693 1 S
ED25 1.9793 1 P
ED25 3.6393 1 S
ED05 6.9093 1 S
# 2016 10 14 04 25 40.646 42.9203 13.1852 6.76 0 0 0 0 167
ED24 9.3637 1 S
T1245 3.3039 1 S
ED10 5.4537 1 S
T1212 7.4837 1 S
NRCA 4.0439 1 S
MC2 2.1139 1 S
MC2 1.0339 1 P
T1216 4.9337 1 S
ED19 2.2037 1 S
ED19 1.1437 1 P
FDMO 5.2637 1 S
ED18 1.7937 1 P
ED21 4.7937 1 S
ED21 2.5037 1 P
ED22 5.3037 1 S
ED17 3.9737 1 S
ED17 2.0537 1 P
MMO1 4.2938 1 S
T1202 8.0937 1 S
# 2016 10 14 04 27 00.821 42.6523 13.3387 9.86 0 0 0 0 168
SMA1 2.9787 1 S
RM33 6.4087 1 S
T1299 1.8388 1 P
T1299 3.3087 1 S
ED24 2.6987 1 P
ED24 5.0187 1 S
T1201 2.1787 1 P
T1201 4.0287 1 S
ED12 11.0087 1 S
ED10 7.1887 1 S
T1214 2.7687 1 P
NRCA 8.8989 1 S
T1204 1.8087 1 P
MMO1 8.7988 1 S
ED20 5.2087 1 S
TERO 7.3287 1 S
TERO 4.0187 1 P
ED07 2.5787 1 P
T1246 5.4487 1 S
CAMP 5.1087 1 S
ED25 3.6287 1 S
# 2016 10 14 04 28 28.075 42.6440 13.3323 9.21 0 0 0 0 169
SMA1 1.5452 1 P
ED06 7.3652 1 S
ED04 3.1352 1 S
ED04 2.2252 1 P
RM33 3.3752 1 P
RM33 6.3152 1 S
ED03 4.7552 1 S
ED03 2.6152 1 P
T1211 6.7552 1 P
ED02 10.3452 1 S
ED02 5.5552 1 P
T1299 3.3352 1 S
T1299 1.7553 1 P
ED24 2.5752 1 P
ED24 4.7952 1 S
T1218 6.0952 1 S
T1218 3.2952 1 P
ED11 4.2952 1 P
ED11 7.9352 1 S
T1217 10.5052 1 S
T1217 5.6352 1 P
T1201 2.0452 1 P
T1201 3.7952 1 S
T1212 8.3452 1 S
T1212 4.5352 1 P
ED12 11.3352 1 S
ED10 7.0952 1 S
NRCA 8.7354 1 S
T1214 6.0852 1 S
ED19 10.8852 1 S
T1245 8.9354 1 S
FDMO 14.9152 1 S
T1204 1.6652 1 P
CSP1 15.7552 1 S
CSP1 8.5252 1 P
ED18 12.3852 1 S
ED18 6.6652 1 P
ED21 7.1452 1 P
ED21 13.2652 1 S
ED16 7.4752 1 S
ED16 4.0752 1 P
ED17 11.0752 1 S
ED17 5.9852 1 P
MMO1 5.0053 1 P
MMO1 9.1053 1 S
ED22 12.7852 1 S
ED09 3.4152 1 P
ED09 6.3752 1 S
ED20 5.1252 1 S
ED20 2.5952 1 P
TERO 7.2452 1 S
TERO 3.9352 1 P
T1246 5.1452 1 S
T1246 2.9552 1 P
ED15 3.9852 1 P
ED15 7.4852 1 S
GIGS 8.9552 1 S
CAMP 5.0452 1 S
ED14 4.3052 1 P
ED14 7.5152 1 S
ED25 1.7152 1 P
ED05 6.4152 1 S
# 2016 10 14 04 29 13.655 42.6503 13.3335 9.87 0 0 0 0 170
SMA1 1.6851 1 P
ED04 2.2651 1 P
ED04 4.1351 1 S
RM33 6.4351 1 S
RM33 3.4551 1 P
ED03 2.7051 1 P
ED03 4.9151 1 S
T1299 1.8452 1 P
T1299 3.3051 1 S
ED24 2.6751 1 P
ED24 4.9451 1 S
T1201 2.1451 1 P
T1201 3.8351 1 S
T1218 3.4151 1 P
T1218 6.3551 1 S
ED11 8.0951 1 S
T1212 8.4751 1 S
T1212 4.6551 1 P
NRCA 8.8453 1 S
T1214 6.2251 1 S
T1204 1.7551 1 P
ED19 11.0351 1 S
FDMO 15.1551 1 S
ED18 12.5251 1 S
ED21 13.4751 1 S
ED17 11.2151 1 S
MMO1 9.3652 1 S
T1241 7.6551 1 S
ED09 6.4351 1 S
ED20 5.1951 1 S
ED20 2.9051 1 P
TERO 4.0251 1 P
TERO 7.3051 1 S
ED07 2.5951 1 P
ED07 4.7351 1 S
T1246 3.0451 1 P
T1246 5.4751 1 S
CAMP 5.1651 1 S
ED14 8.0551 1 S
ED25 1.9251 1 P
ED05 6.8551 1 S
# 2016 10 14 04 32 02.848 42.7305 13.2514 5.21 0 0 0 0 171
T1201 1.8117 1 P
ED03 2.8317 1 P
ED24 2.0717 1 P
T1202 2.0617 1 S
T1218 2.3317 1 P
T1218 4.5517 1 S
ED02 9.4517 1 S
T1214 2.1417 1 S
T1214 1.0217 1 P
ED18 5.0417 1 P
ED17 4.4717 1 P
ED20 4.9917 1 S
T1246 4.3617 1 P
T1246 8.3317 1 S
GIGS 12.7417 1 S
T1299 4.4017 1 S
# 2016 10 14 04 33 10.072 42.6443 13.3274 10.09 0 0 0 0 172
SMA1 1.6685 1 P
RM33 6.4485 1 S
ED03 4.9385 1 S
T1299 3.3285 1 S
T1299 1.8486 1 P
ED24 4.9485 1 S
T1201 2.1585 1 P
T1218 6.2185 1 S
ED11 8.1385 1 S
T1204 3.2585 1 S
ED20 2.8585 1 P
TERO 4.0585 1 P
TERO 7.3185 1 S
ED07 4.7385 1 S
ED07 2.5985 1 P
T1246 5.5885 1 S
ED25 1.9385 1 P
ED25 3.6085 1 S
# 2016 10 14 04 34 13.276 42.6493 13.3289 9.78 0 0 0 0 173
SMA1 1.6336 1 P
RM33 6.4136 1 S
ED03 4.8936 1 S
T1299 3.2936 1 S
T1299 1.7937 1 P
ED24 2.6936 1 P
ED24 4.8536 1 S
T1201 3.8436 1 S
T1218 6.1636 1 S
T1212 8.4036 1 S
T1204 3.2936 1 S
ED20 2.8336 1 P
ED20 5.1836 1 S
TERO 7.3636 1 S
TERO 4.0136 1 P
ED07 2.5636 1 P
T1246 3.0336 1 P
T1246 5.5836 1 S
ED25 3.5836 1 S
ED05 6.8636 1 S
# 2016 10 14 04 35 27.500 42.6942 13.1957 9.51 0 0 0 0 174
ED03 2.1197 1 P
ED03 4.0897 1 S
ED24 1.5597 1 P
ED24 3.2097 1 S
ED01 6.6997 1 S
T1211 10.5697 1 S
ED02 4.0797 1 P
ED02 7.7297 1 S
T1218 3.1997 1 S
T1218 1.8497 1 P
ED11 2.5897 1 P
ED11 4.8997 1 S
T1217 7.3597 1 S
T1215 4.9497 1 P
T1215 9.2897 1 S
T1212 2.7097 1 P
T1212 5.0897 1 S
ED12 7.4097 1 S
ED10 4.2197 1 S
T1214 1.9897 1 P
ED17 10.0397 1 S
MMO1 8.2998 1 S
ED09 7.0697 1 S
ED09 3.6797 1 P
ED20 3.3997 1 P
ED20 6.4397 1 S
ED07 7.3997 1 S
ED07 3.8897 1 P
SMA1 5.1997 1 S
ED25 6.0497 1 S
T1201 1.7797 1 P
T1201 3.5997 1 S
T1299 2.1098 1 P
ED05 8.6997 1 S
RM33 6.7397 1 S
# 2016 10 14 04 36 25.546 42.6511 13.3374 9.04 0 0 0 0 175
SMA1 1.3938 1 P
SMA1 2.7038 1 S
ED03 2.4438 1 P
T1299 3.0238 1 S
T1299 1.5739 1 P
ED24 2.3938 1 P
ED24 4.6638 1 S
T1201 3.6038 1 S
T1201 1.8838 1 P
T1218 6.0238 1 S
T1218 3.1438 1 P
NRCA 8.6540 1 S
T1204 1.4638 1 P
ED21 13.1738 1 S
ED20 4.8238 1 S
ED20 2.7438 1 P
TERO 3.7638 1 P
TERO 7.0338 1 S
ED07 4.1438 1 S
ED07 2.4038 1 P
T1246 5.1938 1 S
ED14 7.8638 1 S
ED25 3.3138 1 S
ED05 6.4438 1 S
ED05 3.3038 1 P
# 2016 10 14 04 40 18.825 42.8723 13.0827 4.30 0 0 0 0 176
ED11 7.4147 1 S
T1212 4.9047 1 S
T1216 2.2647 1 S
T1216 1.1547 1 P
CESI 7.1149 1 S
FDMO 3.4247 1 P
FDMO 6.3047 1 S
ED19 1.5747 1 P
ED19 2.5347 1 S
ED17 3.7147 1 P
ED17 7.2747 1 S
MMO1 3.5748 1 P
MMO1 6.8648 1 S
T1245 3.3949 1 S
T1246 14.7147 1 S
NRCA 0.9849 1 P
NRCA 1.9249 1 S
# 2016 10 14 04 40 47.920 42.8558 13.1461 1.81 0 0 0 0 177
ED10 1.4502 1 P
T1218 7.5702 1 S
ED11 7.2102 1 S
T1212 5.0202 1 S
T1212 2.6402 1 P
NRCA 0.8004 1 P
T1217 8.1102 1 S
T1215 8.0102 1 S
SEF1 6.0504 1 P
FDMO 7.3202 1 S
ED21 3.8702 1 P
ED21 7.5202 1 S
MC2 1.6204 1 P
ED22 7.8402 1 S
ED17 6.0702 1 S
ED17 3.1402 1 P
MMO1 5.1603 1 S
T1245 0.6804 1 P
TERO 7.3802 1 P
T1214 4.2602 1 S
# 2016 10 14 04 43 16.391 42.6482 13.3300 8.77 0 0 0 0 178
SMA1 1.3995 1 P
SMA1 2.3595 1 S
ED04 3.9995 1 S
RM33 6.1295 1 S
T1299 1.5696 1 P
ED24 2.4895 1 P
ED24 4.6395 1 S
T1201 1.8795 1 P
T1201 3.6095 1 S
T1218 5.8595 1 S
T1212 8.1795 1 S
ED10 6.7995 1 S
T1204 2.5995 1 S
T1204 1.5395 1 P
ED18 12.2795 1 S
ED16 7.3195 1 S
ED20 2.5895 1 P
TERO 7.0395 1 S
TERO 3.8095 1 P
ED07 2.3395 1 P
T1246 5.2995 1 S
T1246 2.8195 1 P
CAMP 4.9395 1 S
ED25 1.6895 1 P
ED25 3.3595 1 S
ED05 6.6095 1 S
# 2016 10 14 04 44 10.320 42.8087 13.1625 2.48 0 0 0 0 179
ED10 0.5804 1 P
ED11 6.1504 1 S
T1212 2.2304 1 P
T1212 4.2004 1 S
ED12 5.3504 1 S
NRCA 0.7306 1 P
ED19 4.5004 1 S
CSP1 11.0804 1 S
MC2 4.7206 1 S
ED18 7.5104 1 S
T1245 1.0906 1 P
ED21 8.7304 1 S
ED22 9.0704 1 S
ED17 3.9204 1 P
ED17 7.1204 1 S
MMO1 6.2105 1 S
ED16 4.5604 1 S
ED07 5.2404 1 P
T1214 2.1604 1 S
ED24 3.0704 1 P
ED24 5.2204 1 S
# 2016 10 14 04 44 55.602 42.8842 13.1372 4.38 0 0 0 0 180
ED10 2.2578 1 P
ED10 3.6878 1 S
T1218 7.9978 1 S
NRCA 1.9680 1 S
NRCA 1.2980 1 P
T1212 5.8078 1 S
T1212 3.0778 1 P
ED02 11.1678 1 S
T1216 1.8178 1 P
T1216 3.2878 1 S
CESI 7.6580 1 S
FDMO 5.6678 1 S
ED19 0.9678 1 P
CSP1 7.7578 1 S
ED21 3.3078 1 P
ED21 6.3878 1 S
ED18 2.5278 1 P
MC2 1.2280 1 P
ED17 2.8378 1 P
ED17 5.5278 1 S
MMO1 2.7479 1 P
MMO1 5.3679 1 S
T1245 1.9180 1 S
T1245 1.2780 1 P
