# 2016 10 14 04 45 18.545 42.7393 13.1896 6.01 0 0 0 0 181
ED03 2.7448 1 P
ED03 5.3048 1 S
T1218 1.8148 1 P
ED02 4.3948 1 P
ED11 2.4448 1 P
ED11 4.8148 1 S
T1212 2.1348 1 P
T1212 4.1848 1 S
T1215 4.5848 1 P
T1215 8.6948 1 S
ED12 3.2948 1 P
ED12 6.4548 1 S
ED10 1.2048 1 P
NRCA 4.0450 1 S
NRCA 2.1050 1 P
CSP1 12.5448 1 S
ED18 9.4248 1 S
ED21 10.6848 1 S
ED17 4.6148 1 P
ED17 8.8348 1 S
MMO1 7.0349 1 S
MMO1 3.6249 1 P
T1214 0.8648 1 P
ED09 6.7248 1 S
ED09 3.4748 1 P
ED20 6.6348 1 S
ED20 3.3648 1 P
TERO 5.8848 1 P
TERO 11.1348 1 S
T1246 5.1048 1 P
T1246 9.5948 1 S
T1202 2.3848 1 S
T1201 2.2348 1 P
ED05 10.4248 1 S
RM33 8.5748 1 S
# 2016 10 14 04 45 42.167 42.7568 13.1676 9.69 0 0 0 0 182
T1218 2.4228 1 P
T1218 4.4928 1 S
ED02 4.6228 1 P
ED02 8.4528 1 S
ED11 2.7828 1 P
ED11 5.1028 1 S
T1217 6.9128 1 S
T1212 4.1628 1 S
T1212 2.3828 1 P
T1215 8.1528 1 S
ED12 3.4628 1 P
ED12 5.9928 1 S
ED10 1.5828 1 P
NRCA 2.2830 1 P
FDMO 5.1428 1 P
ED19 3.3328 1 P
MC2 6.2830 1 S
MC2 3.4930 1 P
ED21 5.5228 1 P
ED21 9.7028 1 S
ED17 8.7728 1 S
ED17 4.5928 1 P
MMO1 7.2429 1 S
MMO1 3.8429 1 P
ED16 5.7228 1 S
T1214 3.1528 1 S
T1214 1.6928 1 P
ED20 7.1628 1 S
TERO 11.9728 1 S
T1246 10.4828 1 S
T1202 4.0228 1 S
T1201 5.4828 1 S
T1201 2.9528 1 P
ED24 2.5228 1 P
ED24 4.7228 1 S
ED03 6.6028 1 S
# 2016 10 14 04 50 02.004 42.7230 13.1547 4.74 0 0 0 0 183
ED01 3.8756 1 P
ED01 7.8756 1 S
ED08 5.2656 1 P
T1218 2.8656 1 S
T1218 1.0656 1 P
ED02 7.6256 1 S
ED02 4.0156 1 P
ED11 2.0156 1 P
T1217 3.5256 1 P
T1212 1.6756 1 P
T1215 4.5056 1 P
ED12 3.2056 1 P
SEF1 8.3758 1 P
NRCA 2.2758 1 P
FDMO 5.9956 1 P
ED10 0.8856 1 P
CSP1 7.1756 1 P
T1245 2.7458 1 P
ED21 6.0956 1 P
ED17 10.1956 1 S
ED17 5.1156 1 P
MMO1 8.2757 1 S
MMO1 4.3657 1 P
ED16 6.3156 1 S
ED09 8.0256 1 S
ED20 7.6356 1 S
ED20 3.9656 1 P
TERO 12.4856 1 S
TERO 6.3456 1 P
T1202 1.2856 1 P
T1204 2.8156 1 P
ED07 4.7556 1 P
T1246 5.4156 1 P
T1246 10.4756 1 S
ED15 6.5556 1 P
SMA1 3.5556 1 P
ED25 3.8156 1 P
T1201 2.1456 1 P
T1299 2.6857 1 P
CAMP 5.0556 1 P
ED14 6.5856 1 P
ED05 5.5156 1 P
ED03 2.4056 1 P
RM33 4.2656 1 P
# 2016 10 14 04 50 52.111 42.5674 13.2909 6.44 0 0 0 0 184
ED01 3.1590 1 P
ED01 5.6690 1 S
ED02 9.4290 1 S
ED03 1.7590 1 P
T1212 4.7690 1 P
ED12 6.3090 1 P
ED24 2.3990 1 P
ED24 4.6090 1 S
ED10 8.8790 1 S
NRCA 10.7092 1 S
NRCA 5.3692 1 P
T1201 4.2190 1 S
T1201 2.1690 1 P
T1299 1.6091 1 P
ED18 14.9690 1 S
ED17 13.8090 1 S
ED16 9.8390 1 S
T1204 4.5490 1 S
ED04 0.7890 1 P
SMA1 3.2990 1 S
SMA1 1.7990 1 P
ED25 1.4690 1 P
ED07 2.8990 1 P
ED07 5.4890 1 S
TERO 8.4590 1 S
TERO 4.4890 1 P
T1246 3.0490 1 P
T1246 5.7390 1 S
ED15 4.0890 1 P
ED15 7.1890 1 S
CAMP 2.3190 1 P
CAMP 3.9490 1 S
GIGS 8.2590 1 S
ED14 3.4190 1 P
ED05 2.3090 1 P
# 2016 10 14 04 51 25.618 42.6471 13.3329 8.79 0 0 0 0 185
ED03 2.6319 1 P
T1299 3.3219 1 S
ED24 2.6219 1 P
ED24 4.9319 1 S
T1201 3.8619 1 S
NRCA 8.9221 1 S
T1204 1.7119 1 P
ED22 13.0519 1 S
ED07 4.6219 1 S
ED07 2.5119 1 P
TERO 3.9619 1 P
SMA1 1.5819 1 P
SMA1 2.9019 1 S
T1246 5.4219 1 S
ED25 1.8419 1 P
ED25 3.5519 1 S
# 2016 10 14 04 51 46.421 42.7765 13.1504 5.09 0 0 0 0 186
ED01 9.1291 1 S
T1218 4.1791 1 S
T1218 2.1291 1 P
T1211 11.9591 1 S
ED02 8.4091 1 S
ED11 2.5691 1 P
T1217 6.5191 1 S
T1212 1.6091 1 P
T1215 4.0591 1 P
T1215 7.7091 1 S
ED12 2.6091 1 P
T1216 3.3391 1 P
CESI 10.3093 1 S
NRCA 1.0993 1 P
ED19 2.7091 1 P
ED19 5.3191 1 S
CSP1 11.4791 1 S
MC2 5.6193 1 S
MC2 2.8493 1 P
T1245 1.6093 1 P
T1245 3.2493 1 S
ED18 4.2791 1 P
ED22 10.0991 1 S
ED17 4.0391 1 P
ED17 8.2091 1 S
MMO1 6.9792 1 S
MMO1 3.3192 1 P
ED16 2.6591 1 P
ED16 5.3391 1 S
ED09 3.8191 1 P
ED09 7.4291 1 S
ED20 7.5591 1 S
ED20 3.8691 1 P
T1214 0.7691 1 P
TERO 6.6291 1 P
TERO 12.6491 1 S
ED07 5.1791 1 P
ED07 9.8891 1 S
T1246 5.8591 1 P
T1246 11.2891 1 S
T1204 3.2891 1 P
SMA1 4.0191 1 P
CAMP 10.7791 1 S
T1202 3.6091 1 S
T1299 3.5792 1 P
ED14 7.4691 1 P
ED14 14.0091 1 S
ED05 12.1791 1 S
ED24 2.2891 1 P
ED24 4.9391 1 S
RM33 5.5191 1 P
RM33 9.6491 1 S
ED03 3.5691 1 P
# 2016 10 14 04 54 03.916 42.6459 13.3266 9.69 0 0 0 0 187
ED04 4.1844 1 S
RM33 6.3744 1 S
T1299 3.2844 1 S
T1299 1.7745 1 P
ED24 2.6944 1 P
ED24 4.8644 1 S
T1218 6.1744 1 S
ED11 8.0344 1 S
T1201 3.8444 1 S
T1201 2.1144 1 P
ED18 12.4944 1 S
T1204 1.7844 1 P
T1204 3.0944 1 S
ED21 13.4544 1 S
ED16 7.5244 1 S
MMO1 9.3045 1 S
ED20 2.8244 1 P
TERO 4.0344 1 P
ED07 4.7144 1 S
ED07 2.5644 1 P
T1246 5.4244 1 S
CAMP 5.1544 1 S
ED25 1.8744 1 P
ED25 3.5744 1 S
ED14 8.0744 1 S
ED05 3.5644 1 P
ED05 6.3044 1 S
# 2016 10 14 04 54 44.185 42.6499 13.3442 8.38 0 0 0 0 188
SMA1 1.3246 1 P
ED03 2.4146 1 P
T1299 2.9846 1 S
T1299 1.5547 1 P
ED24 2.3746 1 P
ED24 4.6746 1 S
T1201 3.6846 1 S
T1201 1.8746 1 P
T1204 1.4246 1 P
MMO1 9.0247 1 S
ED20 4.8046 1 S
TERO 3.7446 1 P
TERO 7.0146 1 S
ED07 4.0846 1 S
ED07 2.3446 1 P
T1246 5.1846 1 S
CAMP 4.8546 1 S
ED25 1.6246 1 P
ED25 3.3146 1 S
# 2016 10 14 04 55 22.223 42.8733 13.0751 6.44 0 0 0 0 189
T1212 2.5970 1 P
T1212 4.8070 1 S
ED11 6.9070 1 S
ED02 10.3270 1 S
T1217 7.3770 1 S
ED12 2.0970 1 P
ED12 3.9870 1 S
T1215 6.2470 1 S
T1215 3.3170 1 P
T1216 1.0170 1 P
FDMO 3.2170 1 P
FDMO 6.0570 1 S
CSP1 4.5770 1 P
CSP1 8.7570 1 S
ED21 4.1170 1 P
ED21 7.6370 1 S
ED18 3.3470 1 P
ED18 6.2470 1 S
ED19 1.4670 1 P
ED17 7.0670 1 S
ED17 3.7270 1 P
MMO1 6.9571 1 S
MMO1 3.6671 1 P
T1245 3.5972 1 S
ED16 6.9570 1 S
ED20 10.3170 1 S
T1246 14.8070 1 S
NRCA 1.1672 1 P
ED10 2.4470 1 P
ED10 4.3170 1 S
T1218 7.7170 1 S
# 2016 10 14 04 56 05.480 42.6483 13.3347 8.53 0 0 0 0 190
SMA1 1.4004 1 P
SMA1 2.5204 1 S
ED04 3.9404 1 S
RM33 6.1804 1 S
RM33 3.2704 1 P
ED03 4.6404 1 S
T1299 1.5505 1 P
T1299 3.0804 1 S
ED24 2.4904 1 P
ED24 4.6504 1 S
T1201 1.8904 1 P
T1201 3.6204 1 S
T1218 3.1904 1 P
T1218 5.9204 1 S
T1204 1.5404 1 P
T1204 2.5404 1 S
ED18 12.2204 1 S
ED21 13.2404 1 S
MMO1 9.1005 1 S
ED09 3.2304 1 P
ED20 2.5904 1 P
TERO 3.8104 1 P
TERO 7.1004 1 S
ED07 2.1104 1 P
T1246 5.2904 1 S
T1246 2.8404 1 P
CAMP 4.9304 1 S
ED14 7.8904 1 S
ED25 1.6904 1 P
ED25 3.3804 1 S
ED05 6.3004 1 S
# 2016 10 14 04 59 57.862 42.6509 13.3346 9.48 0 0 0 0 191
SMA1 1.3980 1 P
RM33 6.1480 1 S
RM33 3.2580 1 P
ED03 2.4780 1 P
T1299 3.0580 1 S
T1299 1.5981 1 P
ED24 2.4480 1 P
ED24 4.7580 1 S
T1201 3.6680 1 S
T1201 1.8980 1 P
T1218 5.9880 1 S
T1218 3.1880 1 P
ED11 7.8880 1 S
T1212 8.1880 1 S
ED12 11.1580 1 S
ED10 7.0080 1 S
NRCA 8.6782 1 S
T1204 2.9080 1 S
T1204 1.5180 1 P
ED19 10.7980 1 S
ED20 4.8780 1 S
TERO 3.8180 1 P
TERO 7.0780 1 S
ED07 4.1580 1 S
ED07 2.3880 1 P
T1246 5.1880 1 S
CAMP 4.9380 1 S
ED25 1.6780 1 P
ED25 3.4080 1 S
# 2016 10 14 05 00 35.993 42.7970 13.2367 9.93 0 0 0 0 192
ED24 6.4369 1 S
T1214 3.6369 1 S
T1218 6.4269 1 S
T1218 3.4769 1 P
T1212 3.4369 1 P
T1212 6.3569 1 S
ED10 4.1769 1 S
ED10 2.3869 1 P
ED12 7.6269 1 S
ED12 4.1869 1 P
NRCA 2.7171 1 P
NRCA 4.8971 1 S
T1216 7.7569 1 S
T1245 2.4771 1 P
ED19 6.3269 1 S
SEF1 7.4771 1 P
ED21 8.9569 1 S
ED17 7.0969 1 S
MMO1 5.5770 1 S
ED16 4.3869 1 S
ED07 8.7569 1 S
# 2016 10 14 05 05 11.497 42.6460 13.3304 9.93 0 0 0 0 193
ED04 2.3734 1 P
ED04 4.2534 1 S
RM33 3.5934 1 P
RM33 6.4834 1 S
SMA1 1.7134 1 P
SMA1 2.8734 1 S
ED01 4.4034 1 P
ED03 2.8234 1 P
ED03 4.4134 1 S
ED02 10.4934 1 S
T1299 1.8235 1 P
T1299 3.4034 1 S
ED24 4.9734 1 S
T1218 6.2334 1 S
T1218 3.5034 1 P
ED11 8.1034 1 S
ED11 4.4934 1 P
T1201 3.9434 1 S
T1201 2.2134 1 P
T1212 8.4734 1 S
T1212 4.7334 1 P
ED10 7.3034 1 S
NRCA 8.8636 1 S
T1214 6.7534 1 S
ED19 11.0334 1 S
T1204 1.8534 1 P
CSP1 15.8834 1 S
ED18 12.5934 1 S
ED21 13.3934 1 S
ED16 4.2034 1 P
ED16 7.6134 1 S
ED17 11.2134 1 S
MMO1 9.3535 1 S
ED22 12.9834 1 S
ED09 6.3734 1 S
ED09 3.5434 1 P
ED20 2.8734 1 P
TERO 4.1334 1 P
TERO 7.3434 1 S
ED07 2.6634 1 P
ED07 4.8134 1 S
T1246 5.5334 1 S
ED15 7.5834 1 S
GIGS 9.2034 1 S
CAMP 2.9534 1 P
CAMP 5.2334 1 S
ED25 1.9234 1 P
ED25 3.7034 1 S
ED05 6.3334 1 S
# 2016 10 14 05 08 48.196 42.6454 13.3291 10.13 0 0 0 0 194
ED04 2.3640 1 P
ED04 4.2340 1 S
RM33 3.5840 1 P
RM33 6.5140 1 S
SMA1 1.7040 1 P
SMA1 2.8540 1 S
ED03 4.9540 1 S
ED02 10.5040 1 S
T1299 1.8641 1 P
T1299 3.3940 1 S
ED24 2.7940 1 P
ED24 4.9740 1 S
T1218 3.5140 1 P
T1218 6.2440 1 S
ED11 8.1040 1 S
T1217 10.7140 1 S
T1201 2.2040 1 P
T1201 3.9140 1 S
T1212 4.7640 1 P
T1212 8.4840 1 S
ED10 7.3240 1 S
NRCA 8.8942 1 S
T1214 6.7640 1 S
ED19 10.9840 1 S
T1204 1.8540 1 P
CSP1 15.9540 1 S
ED18 12.6040 1 S
ED21 13.4340 1 S
ED16 7.6240 1 S
ED16 4.2040 1 P
ED17 11.2240 1 S
MMO1 9.3741 1 S
ED22 13.0340 1 S
ED09 6.4140 1 S
ED09 3.5440 1 P
ED20 2.9040 1 P
TERO 4.1140 1 P
TERO 7.3340 1 S
ED07 2.6440 1 P
ED07 4.7840 1 S
T1246 3.2240 1 P
T1246 5.5440 1 S
GIGS 9.1740 1 S
CAMP 5.1940 1 S
ED25 1.9440 1 P
ED25 3.6740 1 S
ED05 6.3140 1 S
# 2016 10 14 05 10 39.513 42.6431 13.3350 8.25 0 0 0 0 195
SMA1 1.3573 1 P
SMA1 2.6773 1 S
ED03 4.5973 1 S
ED24 2.4473 1 P
ED24 4.5873 1 S
T1218 5.8773 1 S
T1218 3.1173 1 P
T1201 3.6473 1 S
T1201 1.8473 1 P
T1214 5.6473 1 S
ED19 6.3473 1 P
T1204 3.0173 1 S
T1204 1.4873 1 P
ED16 7.4473 1 S
ED20 2.5973 1 P
ED20 4.9373 1 S
TERO 7.0373 1 S
TERO 3.7473 1 P
ED07 2.3073 1 P
T1246 2.7673 1 P
T1246 5.2273 1 S
ED25 1.6273 1 P
ED25 2.9073 1 S
# 2016 10 14 05 12 50.631 42.6473 13.3289 10.21 0 0 0 0 196
SMA1 1.6693 1 P
ED04 4.2593 1 S
RM33 6.4393 1 S
ED24 2.7893 1 P
ED24 4.9393 1 S
T1201 3.8993 1 S
T1201 2.1693 1 P
T1218 6.2393 1 S
ED11 8.0993 1 S
T1212 8.4793 1 S
ED10 7.3293 1 S
NRCA 8.8895 1 S
T1204 3.1693 1 S
ED20 2.8793 1 P
TERO 4.0893 1 P
TERO 7.3093 1 S
ED07 2.6193 1 P
T1246 5.5693 1 S
CAMP 5.2193 1 S
ED25 1.9493 1 P
ED25 3.6393 1 S
ED05 6.8993 1 S
# 2016 10 14 05 15 04.354 42.6415 13.3425 8.55 0 0 0 0 197
SMA1 1.2864 1 P
SMA1 2.6464 1 S
ED04 3.7764 1 S
RM33 6.0764 1 S
T1299 2.9464 1 S
T1299 1.5365 1 P
ED24 2.3564 1 P
ED24 4.6364 1 S
T1201 3.5664 1 S
T1201 1.7964 1 P
T1245 8.9566 1 S
T1204 1.3864 1 P
T1204 2.8364 1 S
ED16 7.2564 1 S
ED20 4.8164 1 S
TERO 6.9864 1 S
TERO 3.6664 1 P
ED07 2.2564 1 P
ED07 4.0764 1 S
T1246 5.1464 1 S
T1246 2.6964 1 P
GIGS 8.7764 1 S
CAMP 4.7564 1 S
ED25 1.5564 1 P
ED25 3.1864 1 S
# 2016 10 14 05 15 54.726 42.8708 13.1142 4.70 0 0 0 0 198
NRCA 1.8941 1 S
ED11 7.4239 1 S
T1212 5.3439 1 S
T1212 3.0139 1 P
T1217 7.8439 1 S
ED12 2.5739 1 P
T1215 6.8239 1 S
T1215 3.8639 1 P
T1216 2.7139 1 S
T1216 1.6339 1 P
CESI 7.4241 1 S
FDMO 6.8739 1 S
ED19 2.2639 1 S
ED20 9.8639 1 S
TERO 7.8339 1 P
ED07 6.3739 1 P
T1204 8.7839 1 S
SMA1 5.4239 1 P
ED25 5.7139 1 P
T1299 8.8539 1 S
ED24 8.6839 1 S
ED06 14.4639 1 S
ED10 4.1139 1 S
# 2016 10 14 05 16 01.709 42.6501 13.3302 9.85 0 0 0 0 199
SMA1 1.6612 1 P
ED04 2.3312 1 P
ED04 4.0412 1 S
RM33 3.3912 1 P
RM33 6.4312 1 S
T1299 3.3512 1 S
T1299 1.8213 1 P
ED02 10.5512 1 S
ED02 5.6512 1 P
ED24 2.6712 1 P
ED24 4.8712 1 S
T1201 3.8512 1 S
T1201 2.1212 1 P
T1218 6.1712 1 S
T1218 3.3912 1 P
ED11 4.3812 1 P
ED11 8.0512 1 S
T1212 8.4112 1 S
T1202 2.6712 1 P
ED10 7.1412 1 S
NRCA 8.8314 1 S
T1214 6.0812 1 S
T1204 1.7312 1 P
ED18 12.4412 1 S
ED21 13.4612 1 S
ED17 11.1412 1 S
MMO1 9.3213 1 S
ED09 3.4812 1 P
ED09 6.4012 1 S
ED20 5.1612 1 S
ED20 2.8512 1 P
TERO 7.3312 1 S
TERO 4.0012 1 P
ED07 2.6212 1 P
ED07 4.4612 1 S
T1246 5.5012 1 S
T1246 3.0212 1 P
CAMP 5.1512 1 S
ED14 8.1012 1 S
ED14 4.4212 1 P
ED25 1.9212 1 P
ED25 3.6412 1 S
ED05 6.6412 1 S
# 2016 10 14 05 16 15.540 42.8657 12.9882 5.88 0 0 0 0 200
ED12 1.4596 1 P
ED02 9.4196 1 S
T1217 6.1396 1 S
T1211 12.2896 1 S
T1215 2.2196 1 P
CESI 2.9796 1 P
FDMO 6.7696 1 S
ED21 9.6396 1 S
T1216 0.8996 1 P
ED22 10.5096 1 S
ED19 2.5396 1 P
ED17 9.2896 1 S
MMO1 9.0897 1 S
T1245 5.9298 1 S
ED16 8.8396 1 S
ED20 12.0996 1 S
NRCA 4.0098 1 S
NRCA 2.0198 1 P
ED10 2.8796 1 P
T1212 5.0996 1 S
ED11 6.8796 1 S
# 2016 10 14 05 17 41.514 42.8356 13.1603 6.85 0 0 0 0 201
T1218 3.2964 1 P
T1218 6.0864 1 S
ED10 1.3564 1 P
ED11 3.3164 1 P
ED02 5.2864 1 P
ED02 9.8464 1 S
T1212 2.4264 1 P
T1212 4.4964 1 S
ED12 2.6964 1 P
T1215 4.0864 1 P
NRCA 0.9266 1 P
T1216 4.3964 1 S
T1216 2.2864 1 P
CESI 8.9966 1 S
FDMO 7.5464 1 S
ED19 1.8164 1 P
CSP1 9.3564 1 S
CSP1 4.9264 1 P
MC2 1.7666 1 P
MC2 3.3466 1 S
ED18 6.2864 1 S
ED18 3.1964 1 P
ED21 3.9564 1 P
ED21 7.4764 1 S
ED17 6.1964 1 S
ED17 3.1864 1 P
T1245 0.9766 1 P
MMO1 5.2465 1 S
MMO1 2.6365 1 P
ED16 4.4064 1 S
ED16 2.1964 1 P
ED20 3.9964 1 P
ED20 7.6664 1 S
ED07 10.8364 1 S
T1246 12.1264 1 S
T1214 3.3964 1 S
T1202 5.7364 1 S
ED24 3.5564 1 P
RM33 11.7764 1 S
# 2016 10 14 05 21 02.797 42.7542 13.2094 8.69 0 0 0 0 202
ED24 2.3728 1 P
ED24 4.6328 1 S
T1218 2.5728 1 P
T1218 5.1328 1 S
T1211 12.3828 1 S
ED11 3.1828 1 P
ED11 5.9028 1 S
T1217 7.8428 1 S
T1212 5.1628 1 S
T1215 9.3228 1 S
ED12 6.9428 1 S
ED10 3.5328 1 S
ED10 1.8428 1 P
NRCA 4.6730 1 S
NRCA 2.5030 1 P
T1245 5.1630 1 S
T1214 1.5628 1 P
T1214 2.6228 1 S
MC2 6.9730 1 S
ED21 10.3528 1 S
ED17 8.1128 1 S
MMO1 6.5129 1 S
ED16 4.9228 1 S
T1204 4.7428 1 S
T1204 2.4728 1 P
ED25 7.3628 1 S
T1201 4.9328 1 S
T1202 3.6328 1 S
RM33 9.0928 1 S
# 2016 10 14 05 21 19.671 42.6487 13.3297 9.32 0 0 0 0 203
SMA1 1.4186 1 P
SMA1 2.5686 1 S
ED04 2.0986 1 P
ED04 3.9686 1 S
ED06 7.2686 1 S
RM33 6.2086 1 S
RM33 3.3186 1 P
ED01 7.7186 1 S
T1299 1.6487 1 P
T1299 3.1486 1 S
ED02 5.5186 1 P
ED24 2.5386 1 P
ED24 4.7386 1 S
T1201 1.9586 1 P
T1218 5.9886 1 S
T1218 3.2586 1 P
ED11 4.2586 1 P
ED11 7.8686 1 S
T1217 10.4386 1 S
T1212 4.4886 1 P
T1212 8.2586 1 S
T1202 4.7186 1 S
ED10 6.9886 1 S
NRCA 8.7188 1 S
T1204 1.5686 1 P
ED19 10.7686 1 S
FDMO 14.8686 1 S
CSP1 15.7086 1 S
ED18 12.2286 1 S
ED21 13.1786 1 S
ED16 7.3886 1 S
ED16 3.9586 1 P
ED17 10.9886 1 S
MMO1 9.1587 1 S
ED09 6.1286 1 S
ED09 3.2986 1 P
ED20 2.6386 1 P
TERO 7.0786 1 S
TERO 3.8186 1 P
ED07 2.3486 1 P
T1246 2.8386 1 P
T1246 5.3186 1 S
CAMP 2.6686 1 P
CAMP 4.9386 1 S
ED14 7.8586 1 S
ED14 4.2586 1 P
ED25 1.6186 1 P
ED25 3.4086 1 S
ED05 3.3786 1 P
ED05 6.1086 1 S
# 2016 10 14 05 22 32.093 42.6442 13.3327 9.39 0 0 0 0 204
SMA1 1.3773 1 P
SMA1 2.6673 1 S
RM33 6.1773 1 S
ED03 4.6773 1 S
ED24 4.6673 1 S
T1218 5.9773 1 S
ED11 7.8873 1 S
ED10 4.0973 1 P
T1204 2.9473 1 S
T1204 1.5173 1 P
ED16 7.3273 1 S
MNTP 16.8173 1 S
ED20 2.5973 1 P
TERO 7.0173 1 S
ED07 2.3073 1 P
T1246 5.2373 1 S
ED25 1.6573 1 P
ED25 3.3173 1 S
# 2016 10 14 05 22 53.729 42.8707 13.0819 5.33 0 0 0 0 205
ED11 7.1309 1 S
T1212 2.6209 1 P
ED02 10.3609 1 S
ED02 5.5409 1 P
T1211 13.4509 1 S
T1217 7.3909 1 S
T1217 3.9209 1 P
ED12 1.8609 1 P
T1215 3.3609 1 P
T1215 6.5209 1 S
T1216 1.2709 1 P
CESI 7.0011 1 S
CESI 3.9009 1 P
FEMA 3.9209 1 S
FDMO 3.2209 1 P
FDMO 6.3509 1 S
CSP1 4.6009 1 P
CSP1 9.0909 1 S
ED21 4.0009 1 P
ED21 8.0709 1 S
ED19 1.2209 1 P
ED18 3.3009 1 P
ED17 3.6409 1 P
ED17 7.2109 1 S
MC2 2.0811 1 P
MMO1 6.8810 1 S
MMO1 3.6510 1 P
T1241 9.7309 1 S
T1245 1.7011 1 P
ED16 3.4809 1 P
ED16 6.5209 1 S
ED09 9.4009 1 S
ED20 10.1509 1 S
TERO 15.8209 1 S
T1246 14.6109 1 S
T1204 9.6809 1 S
T1214 5.4909 1 S
CAMP 14.3409 1 S
T1202 7.7409 1 S
NRCA 0.9211 1 P
ED24 4.6209 1 P
ED24 8.4209 1 S
ED03 10.2309 1 S
RM33 13.1209 1 S
T1218 7.3309 1 S
T1218 4.0809 1 P
ED01 12.2309 1 S
# 2016 10 14 05 27 25.115 42.7686 13.1322 4.92 0 0 0 0 206
T1218 1.8953 1 P
ED01 4.6453 1 P
ED08 5.9653 1 P
ED11 2.1553 1 P
ED02 4.3453 1 P
T1217 3.2653 1 P
T1212 1.2353 1 P
T1215 3.9353 1 P
ED12 2.2553 1 P
CESI 5.6653 1 P
T1216 3.0453 1 P
NRCA 1.4355 1 P
FDMO 5.2253 1 P
ED19 3.0753 1 P
ED19 5.6953 1 S
CSP1 6.3353 1 P
CSP1 12.2453 1 S
MC2 6.2355 1 S
MC2 2.9455 1 P
ED18 4.7253 1 P
ED21 5.3653 1 P
ED21 10.1453 1 S
T1245 1.9355 1 P
ED17 8.7853 1 S
ED17 4.4553 1 P
MMO1 7.3354 1 S
MMO1 3.6854 1 P
ED16 2.9553 1 P
ED09 4.1153 1 P
ED20 4.1353 1 P
TERO 13.2953 1 S
ED07 10.4653 1 S
ED07 5.3053 1 P
T1204 3.3753 1 P
T1246 5.9953 1 P
T1246 11.5853 1 S
T1202 3.8553 1 S
T1202 1.9453 1 P
SMA1 4.3153 1 P
ED25 4.6753 1 P
CAMP 6.1553 1 P
CAMP 11.0753 1 S
T1299 3.6054 1 P
T1201 3.0153 1 P
ED14 7.3753 1 P
ED05 12.2853 1 S
ED05 6.4153 1 P
ED24 5.0053 1 S
ED24 2.1753 1 P
ED03 3.3753 1 P
RM33 5.0253 1 P
ED06 5.9053 1 P
# 2016 10 14 05 29 24.634 42.8677 13.0820 4.76 0 0 0 0 207
ED11 3.6858 1 P
ED11 7.0558 1 S
T1212 2.5458 1 P
T1212 4.8758 1 S
ED02 10.2858 1 S
T1211 13.5758 1 S
T1217 7.3358 1 S
T1217 3.9058 1 P
ED12 2.1158 1 P
T1215 3.3958 1 P
T1215 6.3958 1 S
T1216 1.1858 1 P
CESI 7.0260 1 S
FDMO 3.3158 1 P
FDMO 6.3158 1 S
CSP1 4.6558 1 P
ED21 4.1258 1 P
ED21 7.9858 1 S
ED19 1.4058 1 P
ED18 3.4858 1 P
ED17 3.7358 1 P
MMO1 6.8759 1 S
MMO1 3.6359 1 P
T1245 1.8560 1 P
ED07 6.8658 1 P
ED07 13.0458 1 S
T1214 5.5458 1 S
SMA1 11.2358 1 S
NRCA 1.0560 1 P
NRCA 1.9060 1 S
ED10 4.1358 1 S
RM33 13.6158 1 S
T1218 3.9958 1 P
# 2016 10 14 05 30 56.544 42.7555 13.1785 5.95 0 0 0 0 208
T1218 1.9263 1 P
T1218 3.8063 1 S
ED02 8.6863 1 S
ED11 2.4563 1 P
T1212 1.9963 1 P
T1212 3.8863 1 S
T1215 8.3563 1 S
NRCA 3.4865 1 S
NRCA 1.9965 1 P
ED19 6.3663 1 S
ED17 8.4563 1 S
MMO1 6.6664 1 S
ED16 5.1763 1 S
T1214 0.7263 1 P
ED20 6.6263 1 S
T1246 10.1863 1 S
T1202 2.7463 1 S
T1202 1.2963 1 P
T1201 4.8163 1 S
T1201 2.3863 1 P
ED24 1.8863 1 P
ED24 3.6863 1 S
# 2016 10 14 05 36 12.848 42.8690 13.0856 6.38 0 0 0 0 209
ED11 7.1823 1 S
T1212 4.7323 1 S
T1212 2.4223 1 P
ED02 10.1723 1 S
T1217 7.2323 1 S
ED12 2.0023 1 P
ED12 4.2923 1 S
T1215 6.4423 1 S
T1215 3.2823 1 P
T1216 1.1123 1 P
FDMO 3.3023 1 P
FDMO 6.1623 1 S
ED21 7.8523 1 S
ED19 1.4023 1 P
ED18 3.3323 1 P
ED17 3.5923 1 P
MMO1 3.4924 1 P
MMO1 6.6624 1 S
T1245 3.3225 1 S
ED16 6.3223 1 S
ED09 9.2823 1 S
ED20 9.9123 1 S
NRCA 1.4525 1 P
ED05 8.5223 1 P
ED10 4.0223 1 S
ED24 8.3223 1 S
# 2016 10 14 05 37 44.371 42.7014 13.1192 12.75 0 0 0 0 210
T1218 2.0494 1 P
T1218 4.0394 1 S
T1211 9.2894 1 S
ED02 3.6194 1 P
ED02 6.7794 1 S
ED11 2.2894 1 P
T1217 6.0994 1 S
T1217 3.1794 1 P
T1215 7.9794 1 S
T1215 4.1994 1 P
T1212 4.3494 1 S
T1212 2.4394 1 P
ED12 3.3894 1 P
ED12 6.3994 1 S
NRCA 3.0896 1 P
ED19 8.3294 1 S
ED10 2.4194 1 P
ED21 12.2294 1 S
ED17 10.6394 1 S
MMO1 9.3595 1 S
MMO1 4.9495 1 P
ED16 8.0094 1 S
T1214 2.6694 1 P
T1214 5.1794 1 S
ED09 9.0694 1 S
ED20 8.5494 1 S
T1202 2.6094 1 P
TERO 6.6294 1 P
TERO 12.4894 1 S
ED07 5.1094 1 P
ED07 9.6894 1 S
T1201 3.0794 1 P
SMA1 4.0094 1 P
T1246 5.7594 1 P
T1246 10.5894 1 S
ED25 4.2594 1 P
ED24 4.5494 1 S
ED24 2.3794 1 P
ED14 6.4994 1 P
ED14 12.1494 1 S
ED03 5.3594 1 S
ED03 2.8294 1 P
RM33 7.8494 1 S
# 2016 10 14 05 38 53.044 42.8760 13.0666 6.29 0 0 0 0 211
T1212 2.5364 1 P
T1212 4.9064 1 S
ED11 7.0664 1 S
ED02 10.2064 1 S
T1217 7.2264 1 S
ED12 1.9864 1 P
ED12 3.8964 1 S
T1215 6.0664 1 S
T1215 3.1964 1 P
T1216 0.8564 1 P
CESI 6.3966 1 S
FDMO 6.0664 1 S
CSP1 8.9564 1 S
ED19 1.4364 1 P
ED17 7.1364 1 S
ED17 3.7264 1 P
MC2 4.0266 1 S
MMO1 7.0265 1 S
MMO1 3.6665 1 P
T1245 3.9766 1 S
ED16 6.7964 1 S
ED20 10.4364 1 S
NRCA 1.1566 1 P
T1214 5.7964 1 S
ED10 2.4464 1 P
ED10 4.2164 1 S
# 2016 10 14 05 41 39.029 42.8663 13.0934 5.62 0 0 0 0 212
ED11 7.0812 1 S
T1212 4.7812 1 S
T1212 2.5912 1 P
ED02 10.3312 1 S
T1217 3.9112 1 P
T1217 7.3712 1 S
ED12 2.1912 1 P
T1215 6.6212 1 S
T1215 3.4612 1 P
T1216 1.2612 1 P
CESI 7.1814 1 S
FDMO 3.4812 1 P
FDMO 6.3312 1 S
ED19 1.5212 1 P
ED17 6.2212 1 S
ED17 3.7612 1 P
MMO1 6.8613 1 S
MMO1 3.6313 1 P
ED16 6.1812 1 S
T1245 1.8814 1 P
ED09 9.3612 1 S
ED10 3.6112 1 S
NRCA 2.0914 1 S
NRCA 1.1114 1 P
T1218 7.4812 1 S
# 2016 10 14 05 43 08.522 42.8575 13.0982 9.52 0 0 0 0 213
ED11 6.8983 1 S
T1212 4.9783 1 S
T1212 2.6983 1 P
T1217 7.2783 1 S
ED12 2.4883 1 P
ED12 4.6783 1 S
T1215 3.5783 1 P
T1216 1.9383 1 P
T1216 3.6383 1 S
CESI 7.5285 1 S
FEMA 5.2483 1 S
FDMO 6.6983 1 S
ED19 2.0483 1 P
ED21 4.2183 1 P
ED18 6.7983 1 S
MC2 2.3385 1 P
MC2 4.5485 1 S
ED17 6.9583 1 S
ED17 3.7583 1 P
MMO1 3.5884 1 P
MMO1 6.6284 1 S
T1245 2.0585 1 P
ED16 6.3983 1 S
ED16 3.4483 1 P
ED09 8.9983 1 S
ED20 9.7783 1 S
TERO 15.2483 1 S
T1246 13.9083 1 S
T1214 5.5483 1 S
NRCA 1.5585 1 P
NRCA 3.0585 1 S
ED10 4.1983 1 S
ED10 2.2383 1 P
T1218 7.1883 1 S
# 2016 10 14 05 43 41.917 42.7151 13.1591 4.32 0 0 0 0 214
T1218 0.9726 1 P
ED02 7.6026 1 S
ED11 1.8626 1 P
T1215 4.5926 1 P
T1212 1.6726 1 P
NRCA 5.1028 1 S
ED10 1.3726 1 P
T1214 2.4026 1 S
T1214 1.1826 1 P
ED20 7.7126 1 S
TERO 12.0226 1 S
T1202 0.9026 1 P
T1246 10.1926 1 S
SMA1 3.4226 1 P
ED25 3.9026 1 P
T1201 2.0126 1 P
T1299 2.5727 1 P
ED24 1.0726 1 P
ED03 4.4626 1 S
RM33 7.6626 1 S
