# 2016  10  14   01    37    22.630    42.8732    13.0615    8.0000     2     0.0     0.0    0.0   70
CESI 6.4200 1 S
CSP1 8.6398 1 S
FDMO 3.2198 1 P
FDMO 6.0298 1 S
MC2 4.5400 1 S
MMO1 3.8599 1 P
MMO1 7.3299 1 S
NRCA 1.6400 1 P
NRCA 3.2300 1 S
T1212 2.7898 1 P
T1212 5.1898 1 S
T1214 5.8198 1 S
T1215 3.2598 1 P
T1216 1.3398 1 P
T1217 7.1398 1 S
T1218 7.8098 1 S
T1245 2.3000 1 P
T1245 3.8800 1 S
ED09 5.1698 1 P
ED09 9.7898 1 S
ED10 2.5098 1 P
ED10 4.6398 1 S
ED11 7.1398 1 S
ED12 2.2898 1 P
ED12 4.0998 1 S
ED16 7.0798 1 S
ED17 3.8998 1 P
ED18 3.4998 1 P
ED19 1.9198 1 P
ED20 5.6598 1 P
ED20 10.4898 1 S
ED21 4.1898 1 P
# 2016  10  14   01    40    03.905    42.8396    13.2696    4.0000     2     0.0     0.0    0.0   71
FDMO 8.3553 1 S
MMO1 1.5454 1 P
MMO1 2.8554 1 S
NRCA 2.1755 1 P
T1212 7.0453 1 S
T1245 1.2855 1 P
ED09 2.7353 1 P
ED10 2.2853 1 P
ED16 1.0053 1 P
ED17 2.6953 1 P
ED17 4.6653 1 S
ED18 3.0053 1 P
ED18 5.7753 1 S
ED19 2.3553 1 P
ED19 4.4553 1 S
ED20 3.0853 1 P
ED21 6.7253 1 S
ED22 6.6553 1 S
# 2016  10  14   01    45    57.572    42.8489    12.9797    6.0000     2     0.0     0.0    0.0   72
CESI 3.4281 1 P
FDMO 3.8681 1 P
FDMO 7.3281 1 S
MMO1 4.7282 1 P
NRCA 2.0683 1 P
NRCA 4.0683 1 S
T1211 11.5181 1 S
T1212 2.2781 1 P
T1212 4.4081 1 S
T1214 6.7881 1 S
T1215 2.1681 1 P
T1216 1.5281 1 P
T1217 2.9781 1 P
T1217 5.5881 1 S
T1245 2.9683 1 P
T1245 5.8183 1 S
T1246 15.7881 1 S
ED01 11.6281 1 S
ED02 4.8781 1 P
ED02 8.6881 1 S
ED03 10.3681 1 S
ED09 5.9281 1 P
ED09 11.2581 1 S
ED10 2.7981 1 P
ED11 3.2081 1 P
ED11 6.1981 1 S
ED12 1.3781 1 P
ED16 8.5081 1 S
ED17 4.8581 1 P
ED18 4.4381 1 P
ED19 2.7581 1 P
ED21 5.1181 1 P
ED21 9.7281 1 S
ED22 10.7281 1 S
ED24 8.7481 1 S
# 2016  10  14   01    46    32.941    42.8952    13.2330    4.0000     2     0.0     0.0    0.0   73
CAMP 13.0694 1 S
CESI 5.1594 1 P
CESI 9.7796 1 S
FDMO 3.4494 1 P
FDMO 6.5894 1 S
GIGS 17.2494 1 S
GUMA 7.1797 1 S
MC2 0.9496 1 P
MMO1 1.1795 1 P
NRCA 2.1596 1 P
SMA1 9.6594 1 S
T1211 15.9594 1 S
T1212 3.9094 1 P
T1212 7.3494 1 S
T1214 2.7494 1 P
T1215 5.4394 1 P
T1216 3.1794 1 P
T1217 9.9194 1 S
T1218 8.9594 1 S
T1245 1.0296 1 P
T1246 12.5494 1 S
TERO 6.9094 1 P
TERO 13.2394 1 S
ED01 13.6594 1 S
ED02 12.7794 1 S
ED03 5.6194 1 P
ED03 10.6794 1 S
ED05 14.9994 1 S
ED07 11.0694 1 S
ED09 3.0794 1 P
ED10 2.6194 1 P
ED10 5.0694 1 S
ED11 5.2194 1 P
ED12 4.0894 1 P
ED15 15.0194 1 S
ED16 1.5794 1 P
ED17 1.7494 1 P
ED18 1.9894 1 P
ED18 4.0994 1 S
ED19 1.4594 1 P
ED20 3.7594 1 P
ED21 2.7394 1 P
ED21 5.1094 1 S
ED24 4.8994 1 P
# 2016  10  14   01    50    44.123    42.7420    13.1912    4.0000     2     0.0     0.0    0.0   74
NRCA 2.1677 1 P
NRCA 4.1477 1 S
T1201 2.2075 1 P
T1202 1.1775 1 P
T1202 2.4775 1 S
T1212 2.1875 1 P
T1212 4.1475 1 S
T1214 0.9275 1 P
T1215 8.7175 1 S
T1217 7.3475 1 S
T1218 1.8375 1 P
T1218 3.5875 1 S
T1246 9.5575 1 S
TERO 11.2475 1 S
ED02 8.3175 1 S
ED10 1.1975 1 P
ED11 2.4675 1 P
ED12 3.3975 1 P
ED17 8.8175 1 S
ED24 1.8875 1 P
ED24 3.4075 1 S
# 2016  10  14   01    51    08.847    42.8990    13.2505    2.0000     2     0.0     0.0    0.0   75
CSP1 7.7527 1 S
FDMO 6.8427 1 S
MC2 1.8729 1 S
MMO1 1.3928 1 P
MMO1 2.5428 1 S
T1214 5.4527 1 S
T1216 6.1227 1 S
T1245 1.2529 1 P
TERO 13.9027 1 S
ED12 8.0127 1 S
ED16 3.2327 1 S
ED17 1.7727 1 P
ED17 3.1927 1 S
ED18 2.1427 1 P
ED18 4.0027 1 S
ED19 1.6927 1 P
ED19 3.2127 1 S
ED20 7.2827 1 S
ED21 2.8327 1 P
ED21 5.1127 1 S
ED22 4.9927 1 S
# 2016  10  14   01    52    14.936    42.7796    13.1437    10.0000     2     0.0     0.0    0.0   76
MMO1 7.1844 1 S
NRCA 2.0045 1 P
NRCA 3.8545 1 S
T1202 2.3243 1 P
T1202 4.6243 1 S
T1211 11.6743 1 S
T1212 2.0443 1 P
T1212 3.8343 1 S
T1214 1.8843 1 P
T1214 3.6943 1 S
T1216 5.9643 1 S
T1217 6.2743 1 S
T1218 4.4943 1 S
T1245 2.4645 1 P
T1245 4.7345 1 S
T1246 11.0543 1 S
T1299 7.2243 1 S
ED02 8.1543 1 S
ED03 6.7043 1 S
ED05 11.6443 1 S
ED07 9.8443 1 S
ED10 1.5243 1 P
ED11 2.4943 1 P
ED11 4.7543 1 S
ED12 2.9943 1 P
ED12 5.1443 1 S
ED16 6.0443 1 S
ED17 4.4743 1 P
ED17 8.4043 1 S
ED19 6.1543 1 S
ED20 4.0443 1 P
ED20 7.7543 1 S
ED21 10.0143 1 S
ED22 10.0243 1 S
ED24 2.5743 1 P
ED24 4.9943 1 S
# 2016  10  14   01    52    34.599    42.8952    13.2530    12.0000     2     0.0     0.0    0.0   77
FDMO 7.6614 1 S
MC2 1.9616 1 P
MMO1 2.2215 1 P
T1201 8.7714 1 S
T1212 8.2814 1 S
T1214 6.5114 1 S
T1215 11.2314 1 S
T1216 6.9414 1 S
T1218 4.7014 1 P
T1245 2.0416 1 P
ED10 5.9114 1 S
ED12 8.8514 1 S
ED16 4.0714 1 S
ED17 2.6314 1 P
ED17 4.0914 1 S
ED18 5.0114 1 S
ED19 2.5114 1 P
ED19 4.0314 1 S
ED20 8.1614 1 S
ED21 6.1414 1 S
ED22 6.0414 1 S
# 2016  10  14   01    55    06.846    42.8190    13.2105    4.0000     2     0.0     0.0    0.0   78
MMO1 2.2738 1 P
MMO1 4.4838 1 S
NRCA 3.1039 1 S
T1214 1.3037 1 P
T1245 1.1139 1 P
T1245 2.0739 1 S
T1246 10.6937 1 S
ED02 10.6437 1 S
ED03 8.1237 1 S
ED10 1.3937 1 P
ED10 2.6937 1 S
ED16 3.1137 1 S
ED17 3.1037 1 P
ED17 5.9537 1 S
ED18 6.7637 1 S
ED19 4.5737 1 S
ED21 7.9237 1 S
# 2016  10  14   01    55    57.616    42.8990    13.2505    2.0000     2     0.0     0.0    0.0   79
CESI 10.0039 1 S
CSP1 7.5537 1 S
FDMO 6.6637 1 S
MC2 2.2039 1 S
MMO1 1.2938 1 P
MMO1 2.6138 1 S
T1212 7.6037 1 S
T1214 5.5437 1 S
T1245 1.2139 1 P
ED10 2.6637 1 P
ED12 7.9837 1 S
ED16 3.3037 1 S
ED17 1.6937 1 P
ED17 3.3237 1 S
ED18 3.8337 1 S
ED19 1.6137 1 P
ED20 7.3237 1 S
ED21 5.0337 1 S
ED22 5.0437 1 S
ED24 9.4437 1 S
# 2016  10  14   01    56    13.873    42.8590    13.2505    16.0000     2     0.0     0.0    0.0   80
CAMP 12.4075 1 S
CESI 11.2877 1 S
CSP1 5.3775 1 P
FDMO 8.9575 1 S
MC2 5.6877 1 S
MMO1 3.0276 1 P
MMO1 5.3276 1 S
NRCA 5.6377 1 S
RM33 12.6375 1 S
SMA1 9.0575 1 S
T1202 7.4575 1 S
T1204 7.8975 1 S
T1212 7.8675 1 S
T1214 6.0075 1 S
T1215 11.0675 1 S
T1245 2.8377 1 P
T1245 5.1077 1 S
T1246 6.6675 1 P
T1246 11.7875 1 S
T1299 5.0176 1 P
T1299 9.0675 1 S
TERO 12.7875 1 S
ED01 12.7375 1 S
ED02 12.4775 1 S
ED05 14.1375 1 S
ED07 10.2275 1 S
ED09 3.6175 1 P
ED10 5.8275 1 S
ED11 5.0875 1 P
ED11 9.1075 1 S
ED14 15.1875 1 S
ED16 2.8675 1 P
ED16 5.1475 1 S
ED17 3.5175 1 P
ED17 6.1475 1 S
ED18 3.8875 1 P
ED19 3.4075 1 P
ED19 5.9675 1 S
ED20 4.1175 1 P
ED20 7.3375 1 S
ED21 4.3175 1 P
ED21 7.9775 1 S
ED22 7.6375 1 S
ED24 8.5175 1 S
ED25 10.2875 1 S
# 2016  10  14   02    01    17.091    42.6198    13.2533    10.0000     2     0.0     0.0    0.0   81
NRCA 4.9397 1 P
SMA1 2.0095 1 P
T1201 1.8495 1 P
T1202 2.4995 1 P
T1204 2.1195 1 P
T1204 3.9095 1 S
T1212 7.5095 1 S
T1215 6.0595 1 P
T1218 4.8695 1 S
T1246 3.5895 1 P
T1246 6.5695 1 S
T1299 1.6096 1 P
TERO 4.7295 1 P
ED01 3.3795 1 P
ED01 6.2595 1 S
ED02 4.7795 1 P
ED02 8.7895 1 S
ED03 1.9395 1 P
ED04 2.0095 1 P
ED04 3.6895 1 S
ED05 6.2895 1 S
ED07 3.1895 1 P
ED09 4.0595 1 P
ED10 7.2595 1 S
ED11 3.7195 1 P
ED11 6.7295 1 S
ED14 8.2095 1 S
ED16 8.3495 1 S
ED17 6.5295 1 P
ED20 3.5095 1 P
ED24 1.9995 1 P
ED25 2.1995 1 P
# 2016  10  14   02    01    51.051    43.0273    12.9672    10.0000     2     0.0     0.0    0.0   82
CESI 2.0190 1 P
CSP1 7.0790 1 S
FDMO 2.3290 1 P
FDMO 4.3790 1 S
MMO1 10.5291 1 S
NRCA 4.2692 1 P
NRCA 8.0492 1 S
T1215 4.6290 1 P
T1215 8.7990 1 S
T1216 3.0490 1 P
T1216 5.7490 1 S
ED12 4.4390 1 P
ED17 9.2590 1 S
ED18 7.8190 1 S
ED19 6.4890 1 S
ED21 8.2490 1 S
# 2016  10  14   02    02    15.887    42.8790    13.2505    4.0000     2     0.0     0.0    0.0   83
CESI 10.2930 1 S
FDMO 7.7728 1 S
MC2 1.5930 1 P
MC2 2.3530 1 S
MMO1 1.5529 1 P
NRCA 2.1030 1 P
NRCA 3.9930 1 S
T1202 6.8128 1 S
T1212 6.9528 1 S
T1214 4.6328 1 S
T1215 10.0828 1 S
T1217 10.1528 1 S
T1218 8.3128 1 S
T1245 1.1730 1 P
TERO 12.6828 1 S
ED02 12.3828 1 S
ED03 9.9628 1 S
ED07 10.8228 1 S
ED10 4.4928 1 S
ED11 8.8928 1 S
ED12 7.6328 1 S
ED16 2.4528 1 S
ED17 2.2128 1 P
ED17 4.1328 1 S
ED18 2.6328 1 P
ED19 1.9828 1 P
ED19 3.3928 1 S
ED20 6.6928 1 S
ED21 6.0328 1 S
ED24 8.2428 1 S
# 2016  10  14   02    03    10.898    42.6567    13.2847    6.0000     2     0.0     0.0    0.0   84
NRCA 7.7619 1 S
SMA1 1.1717 1 P
T1201 0.9117 1 P
T1202 1.6117 1 P
T1204 0.9517 1 P
T1246 6.1717 1 S
T1299 0.8118 1 P
TERO 8.0717 1 S
ED03 3.6917 1 S
ED07 2.6117 1 P
ED07 4.9717 1 S
ED10 5.9817 1 S
ED11 6.8717 1 S
ED16 6.9017 1 S
ED17 11.1217 1 S
ED20 2.5917 1 P
ED24 1.6317 1 P
ED25 1.8517 1 P
ED25 3.4917 1 S
# 2016  10  14   02    04    24.510    42.8952    13.2530    2.0000     2     0.0     0.0    0.0   85
CAMP 13.2304 1 S
CESI 5.2004 1 P
CSP1 3.9004 1 P
FDMO 3.5004 1 P
FEMA 6.0604 1 S
GIGS 9.4104 1 P
GIGS 17.1604 1 S
MC2 1.0606 1 P
MMO1 0.8805 1 P
NRCA 2.1406 1 P
RM33 7.5604 1 P
RM33 13.8004 1 S
SMA1 5.1904 1 P
T1202 3.9904 1 P
T1204 4.5504 1 P
T1204 8.6404 1 S
T1211 8.7804 1 P
T1211 16.2804 1 S
T1212 3.8704 1 P
T1214 2.7504 1 P
T1215 5.3804 1 P
T1215 10.5304 1 S
T1216 3.0604 1 P
T1217 5.5904 1 P
T1218 4.7304 1 P
T1245 0.9106 1 P
T1246 6.8004 1 P
T1246 13.0904 1 S
T1247 16.2604 1 S
T1299 5.2505 1 P
TERO 7.1104 1 P
TERO 13.5504 1 S
ED01 7.2904 1 P
ED01 13.4104 1 S
ED02 6.9004 1 P
ED03 5.7704 1 P
ED03 10.8104 1 S
ED05 7.9904 1 P
ED05 15.1204 1 S
ED06 15.1804 1 S
ED07 6.0304 1 P
ED07 10.8204 1 S
ED09 3.2704 1 P
ED09 6.2604 1 S
ED10 2.7404 1 P
ED11 4.9104 1 P
ED12 4.0504 1 P
ED12 8.0504 1 S
ED14 8.7904 1 P
ED14 16.4804 1 S
ED15 8.0704 1 P
ED15 14.9604 1 S
ED16 1.7304 1 P
ED17 1.4204 1 P
ED18 1.9604 1 P
ED20 3.9404 1 P
ED20 7.5204 1 S
ED21 2.6004 1 P
ED24 4.7404 1 P
ED24 9.3104 1 S
ED25 6.0604 1 P
# 2016  10  14   02    05    21.637    42.9332    13.0615    10.0000     2     0.0     0.0    0.0   86
CESI 3.3033 1 P
CSP1 7.3533 1 S
FDMO 2.8333 1 P
FDMO 4.9333 1 S
MMO1 3.9834 1 P
MMO1 7.3134 1 S
NRCA 2.5035 1 P
NRCA 4.6735 1 S
T1212 6.9033 1 S
T1215 4.0633 1 P
T1215 7.3233 1 S
T1216 2.0133 1 P
T1216 3.3233 1 S
T1217 8.8633 1 S
T1245 5.1235 1 S
TERO 17.4833 1 S
ED09 10.3033 1 S
ED12 5.8733 1 S
ED16 7.6733 1 S
ED17 3.7533 1 P
ED17 6.8933 1 S
ED18 5.8533 1 S
ED19 2.0333 1 P
ED19 3.6833 1 S
ED20 11.4133 1 S
ED21 3.8433 1 P
ED21 6.9833 1 S
ED22 7.9433 1 S
# 2016  10  14   02    07    57.427    42.8190    13.2305    2.0000     2     0.0     0.0    0.0   87
CAMP 10.9832 1 S
CSP1 9.7632 1 S
MC2 3.8634 1 S
MMO1 2.1433 1 P
MMO1 3.9733 1 S
NRCA 1.7534 1 P
SMA1 4.0632 1 P
SMA1 7.5632 1 S
T1202 2.6832 1 P
T1212 5.8832 1 S
T1214 1.5932 1 P
T1216 3.2632 1 P
T1217 9.3032 1 S
T1218 6.6832 1 S
T1245 1.1834 1 P
T1246 5.7032 1 P
T1246 10.6832 1 S
T1299 3.9133 1 P
TERO 6.2632 1 P
TERO 11.8132 1 S
ED01 11.4232 1 S
ED02 11.0332 1 S
ED03 8.3432 1 S
ED05 12.6532 1 S
ED07 4.8732 1 P
ED09 5.3632 1 S
ED12 3.6632 1 P
ED14 14.1932 1 S
ED16 2.4532 1 S
ED17 2.9432 1 P
ED19 2.3332 1 P
ED19 4.4232 1 S
ED20 3.1632 1 P
ED20 6.0332 1 S
ED22 7.5732 1 S
ED24 3.6132 1 P
ED24 6.5832 1 S
# 2016  10  14   02    10    14.362    42.8990    13.2305    0.0000     2     0.0     0.0    0.0   88
CSP1 7.6380 1 S
FDMO 7.1680 1 S
GIGS 17.7380 1 S
MC2 1.4582 1 S
MMO1 1.6181 1 P
MMO1 2.8581 1 S
T1202 8.0280 1 S
T1215 10.6380 1 S
T1216 3.3980 1 P
T1216 5.9180 1 S
T1217 10.6780 1 S
T1218 9.2180 1 S
T1245 1.0982 1 P
ED03 11.0480 1 S
ED07 11.7180 1 S
ED09 6.4780 1 S
ED11 5.3180 1 P
ED11 9.9280 1 S
ED12 8.2080 1 S
ED16 2.9880 1 S
ED17 2.0180 1 P
ED18 2.1980 1 P
ED19 1.7880 1 P
ED21 3.0580 1 P
ED21 5.3880 1 S
ED22 5.0480 1 S
# 2016  10  14   02    11    27.312    42.5515    13.2370    0.0000     2     0.0     0.0    0.0   89
RM33 0.9182 1 P
SMA1 4.2482 1 S
T1218 5.5982 1 S
T1299 2.0583 1 P
T1299 3.8982 1 S
ED01 2.2382 1 P
ED01 4.2682 1 S
ED03 1.3882 1 P
ED03 2.5882 1 S
ED04 2.4482 1 S
ED05 2.2182 1 P
ED05 4.3482 1 S
ED07 3.4482 1 P
ED07 6.7082 1 S
ED14 6.7182 1 S
ED24 2.2282 1 P
ED24 4.5782 1 S
ED25 2.1682 1 P
ED25 3.9782 1 S
# 2016  10  14   02    13    46.999    42.6530    13.3378    8.0000     2     0.0     0.0    0.0   90
CAMP 4.9011 1 S
MMO1 9.0812 1 S
RM33 6.1611 1 S
SMA1 1.3511 1 P
T1201 1.8911 1 P
T1201 3.6011 1 S
T1202 2.4911 1 P
T1204 1.4811 1 P
T1204 2.9211 1 S
T1214 5.9111 1 S
T1218 3.1411 1 P
T1218 5.9211 1 S
T1246 2.8211 1 P
T1246 5.2511 1 S
T1299 1.5212 1 P
TERO 3.7611 1 P
TERO 7.0611 1 S
ED03 2.4511 1 P
ED03 4.5911 1 S
ED04 3.9111 1 S
ED05 6.2411 1 S
ED07 2.3411 1 P
ED09 3.2311 1 P
ED09 6.1711 1 S
ED11 4.1311 1 P
ED11 7.8111 1 S
ED14 7.8311 1 S
ED16 7.2811 1 S
ED18 12.2511 1 S
ED20 2.6111 1 P
ED20 4.9311 1 S
ED21 13.2311 1 S
ED22 12.6211 1 S
ED24 2.4211 1 P
ED25 1.6811 1 P
ED25 3.3711 1 S
# 2016  10  14   02    19    36.096    42.7420    13.1912    2.0000     2     0.0     0.0    0.0   91
ARRO 6.7238 1 P
CAMP 9.3136 1 S
CESI 6.4136 1 P
CSP1 6.6736 1 P
CSP1 12.6636 1 S
FDMO 5.7936 1 P
MC2 3.5638 1 P
MC2 6.9238 1 S
MMO1 3.6137 1 P
NRCA 2.2038 1 P
RM33 4.4436 1 P
RM33 8.5636 1 S
SMA1 3.2736 1 P
T1202 1.0736 1 P
T1211 6.0136 1 P
T1212 2.0636 1 P
T1214 0.7036 1 P
T1215 4.5936 1 P
T1216 3.7836 1 P
T1217 3.7436 1 P
T1218 1.5936 1 P
T1245 2.4438 1 P
T1246 5.1936 1 P
T1299 2.8737 1 P
TERO 6.0236 1 P
TERO 11.3336 1 S
ED01 4.3236 1 P
ED02 4.3536 1 P
ED03 2.7936 1 P
ED05 5.5536 1 P
ED05 10.6236 1 S
ED07 4.4536 1 P
ED07 8.7436 1 S
ED09 3.4336 1 P
ED10 1.2336 1 P
ED11 2.3636 1 P
ED12 3.2336 1 P
ED14 6.5136 1 P
ED15 6.4336 1 P
ED16 2.7936 1 P
ED17 4.5936 1 P
ED18 4.8836 1 P
ED19 3.6136 1 P
ED20 3.1636 1 P
ED21 5.6036 1 P
ED21 10.7836 1 S
ED24 1.7936 1 P
ED25 3.9636 1 P
# 2016  10  14   02    21    17.937    42.7420    13.2112    4.0000     2     0.0     0.0    0.0   92
T1201 2.2126 1 P
T1202 1.0926 1 P
T1202 2.2326 1 S
T1214 0.7026 1 P
T1215 9.4326 1 S
T1218 2.0126 1 P
T1218 4.1326 1 S
T1246 9.2326 1 S
ED02 4.6526 1 P
ED02 8.8126 1 S
ED03 5.4226 1 S
ED09 6.1226 1 S
ED10 2.4626 1 S
ED11 2.7026 1 P
ED17 8.9326 1 S
ED20 5.9226 1 S
ED24 1.7226 1 P
ED24 3.5726 1 S
# 2016  10  14   02    28    49.395    42.6381    13.2348    12.0000     2     0.0     0.0    0.0   93
NRCA 8.0250 1 S
SMA1 2.6348 1 P
SMA1 4.3348 1 S
T1202 4.5248 1 S
T1204 4.1448 1 S
T1212 4.0048 1 P
T1214 5.3148 1 S
T1218 2.2648 1 P
T1218 4.7348 1 S
T1246 7.5948 1 S
T1299 3.4548 1 S
TERO 5.3648 1 P
TERO 9.6148 1 S
ED01 6.7748 1 S
ED03 2.3148 1 P
ED03 3.9148 1 S
ED05 7.6048 1 S
ED07 3.8548 1 P
ED07 6.8248 1 S
ED09 4.2848 1 P
ED10 3.0948 1 P
ED10 6.3448 1 S
ED11 3.6648 1 P
ED11 6.5548 1 S
ED14 9.4848 1 S
ED16 8.0848 1 S
ED24 2.0948 1 P
ED24 3.5648 1 S
ED25 2.9048 1 P
ED25 5.2048 1 S
# 2016  10  14   02    30    46.865    42.8020    13.2112    4.0000     2     0.0     0.0    0.0   94
CESI 10.9250 1 S
FDMO 8.9948 1 S
MMO1 5.0049 1 S
NRCA 1.5250 1 P
T1212 4.8848 1 S
T1214 1.2048 1 P
T1214 2.4048 1 S
T1217 8.1648 1 S
T1218 5.8748 1 S
T1245 2.1950 1 S
T1246 5.4748 1 P
T1246 10.3948 1 S
TERO 6.1248 1 P
ED01 10.2148 1 S
ED02 9.9248 1 S
ED03 7.3848 1 S
ED05 11.9248 1 S
ED07 4.6348 1 P
ED07 9.0448 1 S
ED09 2.9648 1 P
ED10 1.2548 1 P
ED11 6.4548 1 S
ED12 3.2448 1 P
ED12 6.2648 1 S
ED16 3.6848 1 S
ED17 6.4448 1 S
ED19 2.5348 1 P
ED19 4.9148 1 S
ED20 3.2148 1 P
ED21 8.5548 1 S
# 2016  10  14   02    31    46.667    42.7420    13.1712    4.0000     2     0.0     0.0    0.0   95
MMO1 7.3626 1 S
NRCA 1.9327 1 P
NRCA 3.7727 1 S
T1202 1.2625 1 P
T1202 2.8125 1 S
T1212 1.9725 1 P
T1212 3.8125 1 S
T1214 0.8925 1 P
T1215 8.4425 1 S
T1218 3.7725 1 S
T1246 9.7325 1 S
ED02 4.2825 1 P
ED09 3.4125 1 P
ED10 1.1125 1 P
ED10 1.9225 1 S
ED11 2.3425 1 P
ED17 8.7525 1 S
ED20 6.7725 1 S
ED24 1.8525 1 P
ED24 3.4625 1 S
# 2016  10  14   02    33    17.379    42.9018    13.2493    2.0000     2     0.0     0.0    0.0   96
CESI 9.8512 1 S
CSP1 7.4610 1 S
FDMO 6.7010 1 S
MC2 2.2412 1 S
MMO1 1.2011 1 P
NRCA 2.1312 1 P
T1245 1.2112 1 P
T1246 13.1410 1 S
ED16 3.1110 1 S
ED17 1.6110 1 P
ED17 3.2410 1 S
ED18 1.9010 1 P
ED18 3.8710 1 S
ED19 1.6210 1 P
ED19 3.1410 1 S
ED20 3.6810 1 P
ED20 7.3710 1 S
ED21 4.9910 1 S
ED22 5.1110 1 S
# 2016  10  14   02    36    06.087    42.5613    13.2944    6.0000     2     0.0     0.0    0.0   97
RM33 3.3625 1 S
SMA1 1.8425 1 P
SMA1 3.4225 1 S
T1201 2.2725 1 P
T1218 6.1525 1 S
T1246 2.7725 1 P
T1299 1.6826 1 P
T1299 3.2825 1 S
ED01 3.0325 1 P
ED01 5.8725 1 S
ED02 9.5925 1 S
ED04 2.1325 1 S
ED05 1.9625 1 P
ED05 3.7825 1 S
ED07 2.7125 1 P
ED14 2.9925 1 P
ED14 5.9825 1 S
ED24 2.6025 1 P
ED24 4.8225 1 S
ED25 1.4025 1 P
# 2016  10  14   02    43    38.113    42.7620    13.1312    10.0000     2     0.0     0.0    0.0   98
CSP1 11.7666 1 S
MMO1 3.9867 1 P
MMO1 7.3967 1 S
NRCA 2.0268 1 P
SMA1 4.0166 1 P
T1202 2.5466 1 P
T1212 2.0966 1 P
T1214 1.9766 1 P
T1214 3.5366 1 S
T1215 4.0066 1 P
T1216 3.4466 1 P
T1216 6.1066 1 S
T1217 3.3966 1 P
T1217 6.3266 1 S
T1218 4.5166 1 S
T1245 2.5568 1 P
T1245 4.5068 1 S
T1246 11.3466 1 S
TERO 6.9866 1 P
TERO 12.9166 1 S
ED02 4.4066 1 P
ED02 8.2566 1 S
ED05 11.8266 1 S
ED07 5.3866 1 P
ED09 4.1266 1 P
ED09 7.7966 1 S
ED10 1.6166 1 P
ED11 2.6166 1 P
ED12 2.8866 1 P
ED12 5.1766 1 S
ED16 3.2866 1 P
ED16 6.1666 1 S
ED17 4.5666 1 P
ED18 4.7266 1 P
ED18 8.8366 1 S
ED19 3.4966 1 P
ED19 6.1366 1 S
ED20 4.2366 1 P
ED21 5.4166 1 P
ED21 10.0266 1 S
ED22 10.0566 1 S
ED24 2.7966 1 P
ED24 5.3766 1 S
# 2016  10  14   02    44    24.080    42.8818    13.2493    0.0000     2     0.0     0.0    0.0   99
CESI 10.2599 1 S
CSP1 4.1497 1 P
GUMA 7.8500 1 S
MC2 1.3399 1 P
MMO1 1.2198 1 P
NRCA 2.3299 1 P
RM33 13.9897 1 S
SMA1 9.6197 1 S
T1202 7.5897 1 S
T1204 8.4897 1 S
T1212 4.0397 1 P
T1212 7.7197 1 S
T1214 2.8097 1 P
T1214 5.3797 1 S
T1215 5.6397 1 P
T1216 3.4297 1 P
T1216 6.4097 1 S
T1218 4.7397 1 P
T1218 9.0197 1 S
T1245 1.2999 1 P
T1246 6.6097 1 P
T1246 12.8197 1 S
TERO 6.9597 1 P
TERO 13.2897 1 S
ED01 13.4197 1 S
ED02 12.9897 1 S
ED03 10.7297 1 S
ED05 14.9797 1 S
ED07 11.3197 1 S
ED09 3.0997 1 P
ED10 2.7297 1 P
ED11 9.7297 1 S
ED12 4.2697 1 P
ED16 1.6097 1 P
ED17 1.9097 1 P
ED18 2.2097 1 P
ED19 1.8897 1 P
ED20 3.7797 1 P
ED20 7.1897 1 S
ED21 2.9197 1 P
ED22 5.5097 1 S
ED24 4.7397 1 P
# 2016  10  14   02    46    18.098    42.7820    13.2112    6.0000     2     0.0     0.0    0.0   100
MMO1 2.7117 1 P
MMO1 5.1417 1 S
NRCA 1.9218 1 P
NRCA 3.5518 1 S
T1212 5.2416 1 S
T1214 1.2816 1 P
T1215 9.2616 1 S
T1217 8.4116 1 S
T1245 3.2018 1 S
T1246 5.5216 1 P
T1246 10.2416 1 S
TERO 6.1016 1 P
TERO 11.5716 1 S
ED09 2.9816 1 P
ED09 5.6616 1 S
ED10 1.5416 1 P
ED12 6.7716 1 S
ED16 3.5516 1 S
ED17 3.7316 1 P
ED17 6.7016 1 S
ED18 7.6216 1 S
ED19 5.5116 1 S
ED20 3.2116 1 P
ED20 6.0416 1 S
ED22 9.1716 1 S
ED24 2.9816 1 P
# 2016  10  14   02    46    32.154    42.7420    13.1912    4.0000     2     0.0     0.0    0.0   101
MMO1 7.1764 1 S
NRCA 4.0265 1 S
RM33 8.6563 1 S
T1201 2.1863 1 P
T1202 1.1163 1 P
T1202 2.2963 1 S
T1212 2.1263 1 P
T1212 4.0863 1 S
T1214 0.8563 1 P
T1214 1.7463 1 S
T1215 8.8363 1 S
T1218 1.7563 1 P
T1218 3.5063 1 S
T1246 9.4663 1 S
TERO 5.8463 1 P
ED02 4.3463 1 P
ED02 8.3863 1 S
ED05 10.2863 1 S
ED09 6.6963 1 S
ED11 2.4063 1 P
ED11 4.7563 1 S
ED12 3.3163 1 P
ED12 6.4463 1 S
ED17 4.6563 1 P
ED17 8.9063 1 S
ED20 6.5363 1 S
ED24 1.6263 1 P
ED24 3.2163 1 S
# 2016  10  14   02    54    23.795    42.7420    13.1912    0.0000     2     0.0     0.0    0.0   102
ARRO 6.6753 1 P
CESI 6.5751 1 P
FDMO 6.0051 1 P
GIGS 7.8451 1 P
MC2 3.6953 1 P
MC2 7.0753 1 S
MMO1 3.7052 1 P
NRCA 2.3453 1 P
RM33 4.5651 1 P
SMA1 3.3051 1 P
T1202 1.4951 1 S
T1211 6.1451 1 P
T1212 2.0051 1 P
T1214 0.5751 1 P
T1215 4.7951 1 P
T1215 8.9951 1 S
T1216 3.9851 1 P
T1217 3.8451 1 P
T1218 1.9251 1 P
T1245 2.4453 1 P
T1246 5.3251 1 P
TERO 6.1551 1 P
ED01 4.4151 1 P
ED02 4.4851 1 P
ED03 2.9251 1 P
ED05 5.6451 1 P
ED05 10.5951 1 S
ED07 4.5751 1 P
ED07 8.8751 1 S
ED08 5.6451 1 P
ED09 3.5851 1 P
ED10 1.3951 1 P
ED11 2.5051 1 P
ED12 3.4051 1 P
ED14 6.5751 1 P
ED14 12.6151 1 S
ED15 6.5551 1 P
ED16 2.8051 1 P
ED17 4.5951 1 P
ED18 4.9651 1 P
ED19 3.7451 1 P
ED20 3.4951 1 P
ED21 5.7351 1 P
ED21 10.9451 1 S
ED22 11.0651 1 S
ED24 1.9251 1 P
# 2016  10  14   02    56    22.660    42.8818    13.2493    2.0000     2     0.0     0.0    0.0   103
FDMO 7.5898 1 S
MMO1 1.2299 1 P
MMO1 2.6299 1 S
NRCA 3.9800 1 S
T1212 7.1598 1 S
T1218 4.9298 1 P
T1245 0.8300 1 P
T1245 1.9700 1 S
ED10 4.5598 1 S
ED16 2.4298 1 S
ED17 1.9098 1 P
ED17 3.7798 1 S
ED18 4.7098 1 S
ED19 1.6398 1 P
ED19 3.3998 1 S
ED21 6.0798 1 S
ED22 5.8398 1 S
