# 2016  10  14   00    00    09.264    42.8020    13.2112    6.0000     2     0.0     0.0    0.0   1
CAMP 5.5663 1 P
CAMP 10.5163 1 S
CESI 10.4365 1 S
CSP1 10.4763 1 S
GIGS 14.9663 1 S
MC2 4.1265 1 S
MMO1 2.3264 1 P
MMO1 4.5364 1 S
NRCA 1.5365 1 P
RM33 10.6163 1 S
SMA1 3.7863 1 P
T1202 2.3463 1 P
T1204 3.0663 1 P
T1211 13.2663 1 S
T1212 2.7263 1 P
T1214 1.3263 1 P
T1215 4.6663 1 P
T1216 3.0363 1 P
T1217 8.3063 1 S
T1218 3.1463 1 P
T1218 5.3963 1 S
T1243 3.7265 1 P
T1246 5.5463 1 P
T1246 10.5563 1 S
T1299 3.6364 1 P
TERO 6.1663 1 P
ED01 5.6263 1 P
ED01 10.4763 1 S
ED02 5.4763 1 P
ED02 10.2863 1 S
ED05 6.3563 1 P
ED05 12.1663 1 S
ED07 4.6663 1 P
ED09 2.8463 1 P
ED10 1.3663 1 P
ED11 3.4063 1 P
ED12 3.2963 1 P
ED14 7.1363 1 P
ED14 13.6163 1 S
ED15 6.6763 1 P
ED16 1.6363 1 P
ED17 3.1163 1 P
ED18 3.4063 1 P
ED18 6.8963 1 S
ED19 2.3763 1 P
ED19 4.5363 1 S
ED20 3.0663 1 P
ED22 4.3263 1 P
ED22 8.1963 1 S
ED23 1.9463 1 P
ED24 3.0663 1 P
ED25 4.7463 1 P
# 2016  10  14   00    01    50.173    42.7420    13.1912    4.0000     2     0.0     0.0    0.0   2
MMO1 7.0174 1 S
NRCA 2.5175 1 P
RM33 8.7773 1 S
T1201 2.2473 1 P
T1202 1.0973 1 P
T1212 2.1873 1 P
T1214 0.8373 1 P
T1215 8.8273 1 S
T1217 7.4673 1 S
T1218 3.6273 1 S
T1241 7.8473 1 S
T1243 3.7075 1 P
T1243 6.9875 1 S
T1244 1.6675 1 P
T1246 9.5373 1 S
TERO 11.0773 1 S
ED02 4.4473 1 P
ED02 8.5373 1 S
ED03 5.2773 1 S
ED09 3.4673 1 P
ED09 6.6873 1 S
ED10 1.1873 1 P
ED10 2.3173 1 S
ED11 2.4773 1 P
ED12 3.3673 1 P
ED16 5.2873 1 S
ED17 4.7073 1 P
ED17 8.8673 1 S
ED20 3.3373 1 P
ED20 6.6173 1 S
ED23 1.7873 1 P
ED24 1.6673 1 P
# 2016  10  14   00    02    37.393    42.6530    13.2778    12.0000     2     0.0     0.0    0.0   3
CAMP 6.1767 1 S
GIGS 10.4567 1 S
MMO1 9.1368 1 S
RM33 6.5067 1 S
SMA1 2.0567 1 P
T1201 2.0166 1 P
T1201 3.6867 1 S
T1202 2.4267 1 P
T1202 4.7067 1 S
T1204 1.9167 1 P
T1211 11.9067 1 S
T1212 7.4967 1 S
T1214 5.6267 1 S
T1215 11.8767 1 S
T1217 9.5167 1 S
T1218 3.0667 1 P
T1218 5.4467 1 S
T1243 2.9868 1 P
T1246 3.7567 1 P
T1299 1.9668 1 P
TERO 4.7267 1 P
ED01 4.1767 1 P
ED01 7.7267 1 S
ED02 9.6067 1 S
ED03 2.5967 1 P
ED04 4.6867 1 S
ED05 7.5667 1 S
ED07 3.2267 1 P
ED07 5.7967 1 S
ED10 6.3667 1 S
ED11 4.0067 1 P
ED11 7.0367 1 S
ED14 9.0067 1 S
ED15 9.2167 1 S
ED16 7.3867 1 S
ED17 11.2967 1 S
ED23 2.6067 1 P
ED23 4.5767 1 S
ED24 2.3767 1 P
ED25 2.4667 1 P
ED25 4.4967 1 S
# 2016  10  14   00    03    42.834    42.8190    13.2105    6.0000     2     0.0     0.0    0.0   4
FDMO 8.8159 1 S
MMO1 4.6560 1 S
NRCA 1.5861 1 P
NRCA 3.0561 1 S
T1212 2.7959 1 P
T1212 5.2959 1 S
T1214 2.7059 1 S
T1217 8.6459 1 S
T1245 1.2761 1 P
T1245 2.4461 1 S
ED09 2.9459 1 P
ED10 1.4559 1 P
ED10 2.7059 1 S
ED16 3.4059 1 S
ED17 6.3959 1 S
ED19 4.6759 1 S
ED20 3.2559 1 P
ED23 4.2559 1 S
# 2016  10  14   00    04    25.806    42.5768    13.2797    12.0000     2     0.0     0.0    0.0   5
CAMP 5.0142 1 S
MMO1 11.4843 1 S
NRCA 10.1644 1 S
SMA1 2.5042 1 P
SMA1 4.5042 1 S
T1201 2.7142 1 P
T1202 3.4542 1 P
T1204 2.8442 1 P
T1204 5.0242 1 S
T1211 11.1342 1 S
T1212 8.8942 1 S
T1215 12.9542 1 S
T1217 10.4042 1 S
T1243 3.6644 1 P
T1243 6.7544 1 S
T1246 3.5042 1 P
T1246 6.3542 1 S
T1299 2.3243 1 P
TERO 4.6842 1 P
ED01 3.4742 1 P
ED01 6.3242 1 S
ED02 9.4342 1 S
ED03 2.4442 1 P
ED03 4.4342 1 S
ED04 2.1442 1 P
ED05 3.0642 1 P
ED05 5.4642 1 S
ED07 3.3542 1 P
ED08 8.0942 1 S
ED09 4.7742 1 P
ED10 8.2142 1 S
ED11 8.1342 1 S
ED12 11.3742 1 S
ED14 3.8242 1 P
ED14 6.5942 1 S
ED15 4.2242 1 P
ED15 7.7542 1 S
ED16 9.8542 1 S
ED20 4.1042 1 P
ED22 15.3042 1 S
ED23 3.8642 1 P
ED23 6.9342 1 S
ED24 2.8542 1 P
ED24 5.0842 1 S
ED25 2.3642 1 P
ED25 4.3842 1 S
# 2016  10  14   00    04    53.088    42.8952    13.2330    4.0000     2     0.0     0.0    0.0   6
CAMP 13.0425 1 S
CESI 9.5727 1 S
FDMO 6.5125 1 S
GIGS 17.2825 1 S
MC2 0.9827 1 P
MMO1 1.2026 1 P
T1202 7.4525 1 S
T1212 7.3325 1 S
T1214 5.3625 1 S
T1215 10.1425 1 S
T1216 3.0825 1 P
T1217 10.4625 1 S
T1218 8.8525 1 S
T1245 1.0927 1 P
T1246 12.4925 1 S
TERO 13.1525 1 S
ED02 12.7825 1 S
ED03 10.5925 1 S
ED05 14.9125 1 S
ED07 11.1925 1 S
ED09 2.9925 1 P
ED09 6.0225 1 S
ED10 5.0525 1 S
ED11 9.1125 1 S
ED12 7.6425 1 S
ED16 1.5125 1 P
ED17 1.6425 1 P
ED17 3.1325 1 S
ED18 1.9525 1 P
ED18 3.9425 1 S
ED19 1.4825 1 P
ED20 3.6725 1 P
ED20 7.1225 1 S
ED21 2.6125 1 P
ED21 4.8925 1 S
ED22 2.5925 1 P
ED22 5.0325 1 S
# 2016  10  14   00    05    17.246    42.7620    13.1912    6.0000     2     0.0     0.0    0.0   7
T1201 2.6242 1 P
T1202 1.6242 1 P
T1202 2.7542 1 S
T1212 2.3342 1 P
T1212 4.3142 1 S
T1214 1.1142 1 P
T1215 8.6842 1 S
T1217 7.3442 1 S
T1218 4.1242 1 S
T1246 10.0342 1 S
TERO 6.2242 1 P
ED01 8.5342 1 S
ED02 8.5942 1 S
ED09 3.3342 1 P
ED11 2.6942 1 P
ED12 6.3842 1 S
ED24 2.0242 1 P
ED24 3.9142 1 S
# 2016  10  14   00    08    00.046    42.6367    13.2247    10.0000     2     0.0     0.0    0.0   8
NRCA 7.5539 1 S
RM33 5.8837 1 S
SMA1 4.2537 1 S
T1201 1.7237 1 P
T1202 2.0537 1 P
T1202 4.1237 1 S
T1204 3.9637 1 S
T1212 3.7537 1 P
T1212 6.3237 1 S
T1218 2.3037 1 P
T1218 3.8337 1 S
T1246 4.3437 1 P
T1246 7.5637 1 S
T1299 1.8238 1 P
TERO 5.4037 1 P
TERO 9.7037 1 S
ED01 6.4537 1 S
ED02 4.7237 1 P
ED03 2.0737 1 P
ED03 3.4337 1 S
ED07 3.6337 1 P
ED10 5.9037 1 S
ED11 3.2437 1 P
ED11 5.9037 1 S
ED12 5.1837 1 P
ED23 2.9737 1 P
ED23 5.1237 1 S
ED24 1.6937 1 P
ED24 3.1837 1 S
ED25 5.0937 1 S
# 2016  10  14   00    08    30.607    42.7760    13.1768    6.0000     2     0.0     0.0    0.0   9
NRCA 1.8235 1 P
RM33 9.4133 1 S
T1201 2.8733 1 P
T1202 1.7833 1 P
T1214 1.4133 1 P
T1215 4.1033 1 P
T1218 2.5433 1 P
T1218 4.5133 1 S
T1241 7.1433 1 S
T1243 7.6535 1 S
T1246 10.2233 1 S
TERO 11.8233 1 S
ED02 9.1533 1 S
ED03 3.4233 1 P
ED05 11.1933 1 S
ED07 9.3033 1 S
ED10 1.9233 1 S
ED12 2.8533 1 P
ED12 5.1833 1 S
ED17 4.4433 1 P
ED18 4.1533 1 P
ED20 3.9933 1 P
ED20 7.1133 1 S
ED21 4.9033 1 P
ED24 2.3333 1 P
ED25 8.1433 1 S
# 2016  10  14   00    09    02.965    42.6785    13.3192    12.0000     2     0.0     0.0    0.0   10
SMA1 2.1852 1 P
SMA1 4.0252 1 S
T1201 2.2752 1 P
T1201 4.3352 1 S
T1202 2.3952 1 P
T1204 1.9452 1 P
T1218 6.0252 1 S
T1243 4.9554 1 S
T1246 6.6952 1 S
T1299 2.2453 1 P
T1299 4.1052 1 S
TERO 8.1452 1 S
ED01 8.6752 1 S
ED03 5.4452 1 S
ED07 3.0852 1 P
ED07 5.4052 1 S
ED16 6.5152 1 S
ED24 4.9552 1 S
ED25 2.6052 1 P
ED25 4.9452 1 S
# 2016  10  14   00    10    23.906    42.7396    13.1896    2.0000     2     0.0     0.0    0.0   11
CAMP 9.4941 1 S
CESI 11.5243 1 S
CSP1 6.7141 1 P
CSP1 12.5441 1 S
MC2 7.0843 1 S
MMO1 3.5842 1 P
MMO1 6.9942 1 S
NRCA 3.8843 1 S
RM33 9.0541 1 S
T1202 1.3241 1 P
T1204 2.5941 1 P
T1204 5.0041 1 S
T1212 2.2241 1 P
T1212 4.2841 1 S
T1214 0.4741 1 P
T1215 8.6441 1 S
T1216 7.1041 1 S
T1217 7.1341 1 S
T1218 1.9941 1 P
T1243 3.7343 1 P
T1243 7.1843 1 S
T1246 5.2641 1 P
T1246 9.8841 1 S
TERO 6.0041 1 P
TERO 11.4341 1 S
ED02 4.5541 1 P
ED02 8.6141 1 S
ED03 2.9541 1 P
ED05 10.7541 1 S
ED07 4.5841 1 P
ED07 8.5341 1 S
ED09 3.4741 1 P
ED11 2.5841 1 P
ED12 3.4841 1 P
ED12 6.0041 1 S
ED14 6.7141 1 P
ED14 12.4341 1 S
ED16 2.6841 1 P
ED16 5.2041 1 S
ED17 4.5041 1 P
ED17 8.7141 1 S
ED18 9.3541 1 S
ED19 6.8341 1 S
ED20 3.4541 1 P
ED21 10.5341 1 S
ED22 10.6041 1 S
ED24 1.8541 1 P
# 2016  10  14   00    12    04.643    43.0390    13.0898    0.0000     2     0.0     0.0    0.0   12
CAMP 10.5968 1 P
FDMO -0.1532 1 P
GIGS 12.8868 1 P
NRCA 7.8970 1 S
RM33 10.0268 1 P
SMA1 8.6568 1 P
T1201 7.8168 1 P
T1202 6.7768 1 P
T1204 7.9668 1 P
T1214 5.8168 1 P
T1218 7.3468 1 P
T1246 10.6668 1 P
T1299 8.3469 1 P
ED01 9.8468 1 P
ED03 8.3168 1 P
ED04 9.4768 1 P
ED05 11.0168 1 P
ED06 11.0968 1 P
ED08 11.2068 1 P
ED14 11.9368 1 P
ED15 11.8968 1 P
ED24 7.1768 1 P
ED25 9.2468 1 P
# 2016  10  14   00    12    10.032    42.7396    13.1837    0.0000     2     0.0     0.0    0.0   13
ARRO 6.7687 1 P
CAMP 5.2085 1 P
CESI 6.5985 1 P
CESI 12.1587 1 S
CSP1 6.8685 1 P
CSP1 13.1885 1 S
FDMO 6.0085 1 P
GIGS 7.4985 1 P
MC2 3.7587 1 P
MMO1 3.7686 1 P
MMO1 7.3086 1 S
NRCA 2.4187 1 P
RM33 4.6385 1 P
SMA1 3.2685 1 P
T1202 1.4785 1 S
T1204 2.5785 1 P
T1211 6.2285 1 P
T1211 11.9185 1 S
T1212 2.1285 1 P
T1214 0.4285 1 P
T1215 4.8085 1 P
T1216 4.0085 1 P
T1217 3.8785 1 P
T1218 1.9585 1 P
T1243 3.8587 1 P
T1246 5.2785 1 P
T1247 11.6185 1 S
T1299 2.9586 1 P
TERO 6.1085 1 P
ED01 4.4585 1 P
ED02 4.5685 1 P
ED03 2.9285 1 P
ED04 4.0885 1 P
ED04 7.4385 1 S
ED05 5.6285 1 P
ED06 5.7085 1 P
ED06 10.1585 1 S
ED07 4.5185 1 P
ED08 5.8185 1 P
ED09 3.4985 1 P
ED10 0.8685 1 P
ED11 2.3985 1 P
ED12 3.4785 1 P
ED14 6.5485 1 P
ED15 6.5085 1 P
ED16 2.8585 1 P
ED17 4.7085 1 P
ED18 5.0785 1 P
ED19 3.9385 1 P
ED20 3.4185 1 P
ED21 5.7185 1 P
ED21 10.9085 1 S
ED22 10.9685 1 S
ED24 1.7885 1 P
ED25 3.8585 1 P
# 2016  10  14   00    14    43.409    42.8226    13.3462    16.0000     2     0.0     0.0    0.0   14
CSP1 11.1314 1 S
MMO1 5.5415 1 S
NRCA 7.3916 1 S
SMA1 7.8814 1 S
T1215 12.8414 1 S
T1245 6.5616 1 S
T1246 5.3214 1 P
T1246 9.8114 1 S
T1299 8.2714 1 S
TERO 5.7714 1 P
ED07 4.6414 1 P
ED07 8.5514 1 S
ED09 2.7014 1 P
ED16 5.2714 1 S
ED17 6.8614 1 S
ED18 8.0514 1 S
ED19 7.7514 1 S
ED20 3.0714 1 P
ED21 8.7014 1 S
ED24 4.6614 1 P
ED24 8.3714 1 S
ED25 8.9214 1 S
# 2016  10  14   00    17    10.415    42.8590    13.1705    4.0000     2     0.0     0.0    0.0   15
CESI 8.8150 1 S
MC2 1.4650 1 P
MMO1 2.5549 1 P
MMO1 5.0949 1 S
T1202 3.1748 1 P
T1202 6.3048 1 S
T1212 2.5748 1 P
T1214 2.1148 1 P
T1215 4.1248 1 P
T1216 2.5048 1 P
T1216 4.0848 1 S
T1245 0.5550 1 P
T1246 6.6648 1 P
TERO 7.2648 1 P
TERO 13.3648 1 S
ED03 5.0648 1 P
ED05 14.1648 1 S
ED07 5.9748 1 P
ED09 3.8848 1 P
ED09 7.0048 1 S
ED10 1.4248 1 P
ED11 3.8048 1 P
ED12 2.9648 1 P
ED16 2.4148 1 P
ED17 2.9948 1 P
ED19 1.4148 1 P
ED20 4.2048 1 P
ED21 3.7148 1 P
ED21 7.3348 1 S
ED24 3.9648 1 P
# 2016  10  14   00    19    50.215    42.8226    13.3462    16.0000     2     0.0     0.0    0.0   16
CAMP 10.5349 1 S
CESI 13.3751 1 S
CSP1 10.9849 1 S
FDMO 5.7749 1 P
FDMO 10.6349 1 S
MMO1 3.0350 1 P
MMO1 5.5750 1 S
NRCA 7.4051 1 S
T1201 8.0649 1 S
T1202 4.0249 1 P
T1204 3.8549 1 P
T1204 6.9849 1 S
T1211 16.2649 1 S
T1212 4.9849 1 P
T1212 9.1749 1 S
T1214 3.5549 1 P
T1214 6.5349 1 S
T1215 12.7949 1 S
T1216 9.5649 1 S
T1217 11.8049 1 S
T1218 4.9149 1 P
T1218 9.1449 1 S
T1245 3.5351 1 P
T1245 6.5651 1 S
T1246 5.3849 1 P
T1246 9.8649 1 S
T1299 4.5650 1 P
T1299 8.2349 1 S
TERO 5.5149 1 P
TERO 10.4349 1 S
ED05 12.2749 1 S
ED07 4.7149 1 P
ED07 8.5149 1 S
ED09 2.7549 1 P
ED11 5.4449 1 P
ED11 10.1949 1 S
ED12 10.3849 1 S
ED15 12.4749 1 S
ED16 5.2849 1 S
ED17 3.7249 1 P
ED18 4.3949 1 P
ED18 8.1049 1 S
ED19 4.2749 1 P
ED19 7.7849 1 S
ED20 3.0349 1 P
ED21 4.7049 1 P
ED21 8.6949 1 S
ED24 4.6149 1 P
ED24 8.7249 1 S
ED25 8.8949 1 S
# 2016  10  14   00    20    41.543    42.8760    13.0768    2.0000     2     0.0     0.0    0.0   17
CESI 7.1067 1 S
CSP1 4.7265 1 P
FDMO 3.4065 1 P
MMO1 3.6366 1 P
MMO1 6.8466 1 S
NRCA 1.0367 1 P
T1201 9.6565 1 S
T1202 4.3165 1 P
T1212 2.5165 1 P
T1212 4.8265 1 S
T1214 5.6265 1 S
T1216 1.2565 1 P
T1217 7.3265 1 S
T1299 10.4065 1 S
TERO 15.7865 1 S
ED02 10.2165 1 S
ED09 9.3265 1 S
ED10 3.9565 1 S
ED11 3.6665 1 P
ED11 7.1365 1 S
ED12 2.1465 1 P
ED12 3.6165 1 S
ED16 6.6165 1 S
ED17 3.7665 1 P
ED18 3.4965 1 P
ED19 1.5865 1 P
ED20 10.1265 1 S
ED21 4.1765 1 P
ED21 7.9665 1 S
ED24 8.3465 1 S
ED25 12.6065 1 S
# 2016  10  14   00    21    36.712    42.8732    13.0815    0.0000     2     0.0     0.0    0.0   18
CESI 6.8978 1 S
FDMO 3.3576 1 P
FDMO 6.2576 1 S
MMO1 6.9377 1 S
NRCA 2.3178 1 S
T1202 8.0076 1 S
T1212 4.9276 1 S
T1215 6.3476 1 S
T1216 1.1376 1 P
T1217 7.4976 1 S
T1245 3.4978 1 S
T1246 14.6676 1 S
TERO 16.4476 1 S
ED05 15.5776 1 S
ED07 13.4376 1 S
ED11 7.2876 1 S
ED12 2.1476 1 P
ED12 4.0576 1 S
ED17 3.7476 1 P
ED17 7.0876 1 S
ED19 1.5376 1 P
ED20 11.0976 1 S
ED22 8.6376 1 S
ED25 12.8576 1 S
# 2016  10  14   00    21    47.149    42.8390    13.1705    2.0000     2     0.0     0.0    0.0   19
CSP1 9.0808 1 S
MC2 1.4610 1 P
MC2 3.1110 1 S
MMO1 5.0609 1 S
NRCA 1.0110 1 P
T1212 2.5908 1 P
T1245 0.6110 1 P
T1246 12.6008 1 S
TERO 13.7908 1 S
ED10 3.0008 1 S
ED16 4.5508 1 S
ED17 5.9108 1 S
ED19 1.4208 1 P
ED20 8.0808 1 S
ED21 7.2808 1 S
ED22 7.4908 1 S
# 2016  10  14   00    22    04.348    42.8952    13.2330    2.0000     2     0.0     0.0    0.0   20
CSP1 7.7820 1 S
FDMO 6.7920 1 S
MC2 0.9422 1 P
MMO1 1.2921 1 P
MMO1 2.6321 1 S
T1202 7.6420 1 S
T1212 7.3320 1 S
T1214 5.3520 1 S
T1216 5.8920 1 S
T1245 1.0622 1 P
T1245 2.1222 1 S
T1246 12.7820 1 S
TERO 13.5720 1 S
ED03 10.6220 1 S
ED10 5.0220 1 S
ED11 9.4520 1 S
ED16 3.0820 1 S
ED17 1.7020 1 P
ED17 3.3720 1 S
ED18 4.0020 1 S
ED19 1.5020 1 P
ED19 2.9720 1 S
ED21 5.1720 1 S
ED22 5.2220 1 S
# 2016  10  14   00    25    29.044    42.8360    13.1568    8.0000     2     0.0     0.0    0.0   21
CESI 8.9858 1 S
CSP1 4.9556 1 P
CSP1 9.4956 1 S
FDMO 4.0256 1 P
MMO1 5.4857 1 S
NRCA 1.4158 1 P
T1201 3.9656 1 P
T1202 2.9856 1 P
T1212 2.5356 1 P
T1212 4.8056 1 S
T1214 2.1156 1 P
T1214 4.0956 1 S
T1215 7.8356 1 S
T1245 1.5658 1 P
T1299 4.3457 1 P
TERO 13.3656 1 S
ED02 5.2456 1 P
ED03 4.4656 1 P
ED05 13.5256 1 S
ED07 10.6156 1 S
ED10 1.6756 1 P
ED10 3.1956 1 S
ED11 3.3356 1 P
ED11 6.7956 1 S
ED12 2.8256 1 P
ED12 5.2856 1 S
ED16 4.9156 1 S
ED17 3.3956 1 P
ED17 6.4056 1 S
ED18 3.4456 1 P
ED18 6.5256 1 S
ED19 2.2256 1 P
ED19 3.9056 1 S
ED20 7.8056 1 S
ED21 4.1256 1 P
ED21 7.7756 1 S
ED22 7.8356 1 S
ED24 3.4856 1 P
ED25 5.1356 1 P
# 2016  10  14   00    25    56.834    42.8732    13.0815    2.0000     2     0.0     0.0    0.0   22
CESI 7.1264 1 S
FDMO 3.4062 1 P
FDMO 6.6562 1 S
MMO1 3.6863 1 P
MMO1 6.8663 1 S
NRCA 1.0264 1 P
T1212 2.5162 1 P
T1212 4.7462 1 S
T1215 6.4062 1 S
T1216 1.3362 1 P
T1216 2.1362 1 S
T1217 7.3662 1 S
T1218 7.5362 1 S
T1245 3.5164 1 S
ED10 4.1362 1 S
ED11 6.8962 1 S
ED12 3.9362 1 S
ED17 3.8062 1 P
ED17 7.1762 1 S
ED18 6.3662 1 S
ED19 1.5962 1 P
ED19 2.3362 1 S
ED21 7.8262 1 S
ED22 8.6462 1 S
ED24 8.3462 1 S
# 2016  10  14   00    26    43.709    42.8590    13.2505    4.0000     2     0.0     0.0    0.0   23
MC2 3.2614 1 S
MMO1 1.6213 1 P
NRCA 2.0314 1 P
T1212 7.0212 1 S
T1214 4.4912 1 S
T1215 10.0712 1 S
T1245 1.0914 1 P
ED10 4.3112 1 S
ED12 7.9312 1 S
ED17 2.3412 1 P
ED17 4.3312 1 S
ED18 5.2612 1 S
ED19 1.9912 1 P
ED19 3.7112 1 S
ED20 6.7312 1 S
ED21 6.2312 1 S
# 2016  10  14   00    28    25.346    42.7420    13.1912    2.0000     2     0.0     0.0    0.0   24
CAMP 9.3837 1 S
CSP1 12.5237 1 S
FDMO 5.7337 1 P
MC2 6.9339 1 S
MMO1 3.5538 1 P
MMO1 6.8938 1 S
NRCA 2.0339 1 P
SMA1 3.3837 1 P
T1202 1.2937 1 P
T1204 2.5537 1 P
T1211 11.4937 1 S
T1212 2.0537 1 P
T1212 4.2637 1 S
T1214 0.5937 1 P
T1215 4.5837 1 P
T1215 8.5937 1 S
T1216 3.7337 1 P
T1218 1.9537 1 P
T1245 2.3139 1 P
T1246 5.1637 1 P
T1246 9.8437 1 S
T1299 2.8838 1 P
TERO 5.9637 1 P
TERO 11.3937 1 S
ED01 4.4037 1 P
ED01 8.7937 1 S
ED02 4.5137 1 P
ED02 8.5737 1 S
ED03 2.8937 1 P
ED05 5.6937 1 P
ED05 10.7137 1 S
ED07 4.4837 1 P
ED07 8.5337 1 S
ED09 3.4237 1 P
ED10 1.0937 1 P
ED11 2.5437 1 P
ED12 3.2937 1 P
ED14 6.6237 1 P
ED14 12.6637 1 S
ED16 2.6637 1 P
ED16 5.1837 1 S
ED17 4.4337 1 P
ED18 4.7337 1 P
ED18 9.3337 1 S
ED19 3.5637 1 P
ED19 6.8237 1 S
ED20 3.4237 1 P
ED21 10.4637 1 S
ED22 10.5737 1 S
ED24 1.7837 1 P
ED25 4.0237 1 P
# 2016  10  14   00    29    29.662    42.8952    13.2530    4.0000     2     0.0     0.0    0.0   25
CESI 9.8379 1 S
FDMO 6.6477 1 S
MC2 1.0479 1 P
MC2 1.9979 1 S
MMO1 1.3178 1 P
MMO1 2.6478 1 S
NRCA 4.6079 1 S
T1212 7.6577 1 S
T1214 5.5577 1 S
T1245 1.1979 1 P
ED10 5.1377 1 S
ED12 7.9377 1 S
ED17 1.7077 1 P
ED17 3.3477 1 S
ED18 4.0777 1 S
ED19 1.5977 1 P
ED20 7.3577 1 S
ED21 5.1377 1 S
ED22 5.0577 1 S
# 2016  10  14   00    32    46.233    42.7420    13.1912    4.0000     2     0.0     0.0    0.0   26
T1201 2.2471 1 P
T1202 1.1471 1 P
T1202 2.3571 1 S
T1212 2.1671 1 P
T1212 4.0771 1 S
T1214 0.8871 1 P
T1215 8.8871 1 S
T1218 3.5971 1 S
T1246 9.5371 1 S
TERO 11.1171 1 S
ED02 4.3971 1 P
ED02 8.5371 1 S
ED03 5.2471 1 S
ED05 10.3771 1 S
ED09 6.8971 1 S
ED10 1.1771 1 P
ED11 2.4471 1 P
ED11 4.7971 1 S
ED12 3.3671 1 P
ED12 6.4871 1 S
ED17 4.7071 1 P
ED20 6.5871 1 S
ED24 1.6571 1 P
ED24 3.1671 1 S
# 2016  10  14   00    33    27.048    42.7420    13.1912    2.0000     2     0.0     0.0    0.0   27
CESI 11.7825 1 S
CSP1 12.4923 1 S
FDMO 10.8523 1 S
MMO1 7.0724 1 S
NRCA 2.1125 1 P
NRCA 4.0225 1 S
T1201 2.2223 1 P
T1202 1.1723 1 P
T1202 2.0623 1 S
T1204 2.4523 1 P
T1214 0.7623 1 P
T1215 8.7923 1 S
T1216 7.2323 1 S
T1217 7.5923 1 S
T1218 1.9123 1 P
T1218 3.5323 1 S
T1245 4.7025 1 S
T1246 9.6523 1 S
T1299 2.7424 1 P
TERO 11.4923 1 S
ED01 4.4623 1 P
ED02 4.5123 1 P
ED02 8.5323 1 S
ED03 2.7123 1 P
ED05 10.6523 1 S
ED09 3.4623 1 P
ED09 6.7023 1 S
ED10 1.2923 1 P
ED11 2.5523 1 P
ED11 5.0123 1 S
ED12 3.4523 1 P
ED12 6.2623 1 S
ED17 4.5323 1 P
ED17 8.7723 1 S
ED18 9.5023 1 S
ED19 6.8623 1 S
ED20 3.3523 1 P
ED20 6.4223 1 S
ED21 10.7423 1 S
ED24 1.7223 1 P
ED25 3.8623 1 P
ED25 7.5023 1 S
# 2016  10  14   00    36    21.962    42.7620    13.2312    8.0000     2     0.0     0.0    0.0   28
MMO1 6.2576 1 S
NRCA 4.6277 1 S
T1212 2.8475 1 P
T1212 5.3775 1 S
T1214 1.5275 1 P
T1214 2.3075 1 S
T1215 9.4475 1 S
T1217 8.0175 1 S
T1218 2.6675 1 P
T1218 5.2575 1 S
T1299 5.5575 1 S
ED01 9.2875 1 S
ED02 9.9175 1 S
ED03 3.2275 1 P
ED03 6.0975 1 S
ED09 5.6875 1 S
ED10 1.8375 1 P
ED10 3.4775 1 S
ED11 3.1875 1 P
ED11 6.0575 1 S
ED17 7.8875 1 S
ED18 8.6475 1 S
ED20 5.6875 1 S
ED24 2.4375 1 P
ED24 4.6875 1 S
# 2016  10  14   00    37    20.826    42.7420    13.1912    4.0000     2     0.0     0.0    0.0   29
MMO1 7.0940 1 S
NRCA 4.0641 1 S
T1201 2.2239 1 P
T1202 1.1439 1 P
T1202 2.3239 1 S
T1212 2.2339 1 P
T1214 0.8239 1 P
T1218 3.7039 1 S
T1246 9.5639 1 S
TERO 11.1839 1 S
ED09 6.7439 1 S
ED10 0.9639 1 P
ED11 2.5239 1 P
ED12 3.4439 1 P
ED20 3.3439 1 P
ED20 6.4639 1 S
ED24 1.7039 1 P
ED24 3.3939 1 S
# 2016  10  14   00    38    33.548    42.8952    13.2330    4.0000     2     0.0     0.0    0.0   30
GIGS 17.3625 1 S
MC2 1.0127 1 P
MMO1 1.2926 1 P
MMO1 2.6026 1 S
NRCA 2.0927 1 P
T1212 7.3625 1 S
T1214 5.3525 1 S
T1216 3.1025 1 P
T1216 5.9825 1 S
T1218 8.9725 1 S
T1245 1.1127 1 P
ED03 10.6625 1 S
ED09 6.0525 1 S
ED10 5.0225 1 S
ED11 9.3925 1 S
ED12 7.8525 1 S
ED16 3.1925 1 S
ED17 1.6725 1 P
ED17 3.3025 1 S
ED18 2.0625 1 P
ED19 1.5425 1 P
ED19 3.2725 1 S
ED20 7.2125 1 S
ED21 5.0425 1 S
ED22 5.0725 1 S
# 2016  10  14   00    41    27.068    42.8821    13.2417    6.0000     2     0.0     0.0    0.0   31
CSP1 7.9321 1 S
FDMO 7.4721 1 S
MC2 2.7723 1 S
MMO1 1.7122 1 P
MMO1 2.9322 1 S
NRCA 2.0023 1 P
T1212 6.9221 1 S
T1214 4.5721 1 S
ED16 3.3621 1 S
ED17 2.0621 1 P
ED17 3.5121 1 S
ED18 2.4521 1 P
ED18 4.3221 1 S
ED19 1.9421 1 P
ED21 3.1121 1 P
ED21 5.3521 1 S
ED22 5.2921 1 S
# 2016  10  14   00    41    49.386    42.8760    13.0768    2.0000     2     0.0     0.0    0.0   32
CESI 6.9743 1 S
FDMO 6.1441 1 S
NRCA 0.9943 1 P
NRCA 1.6843 1 S
T1212 2.6141 1 P
T1212 4.6941 1 S
T1216 1.1041 1 P
T1216 2.2241 1 S
T1245 3.4943 1 S
ED10 4.0141 1 S
ED11 7.2741 1 S
ED12 2.1041 1 P
ED17 3.7041 1 P
ED17 7.0341 1 S
ED19 1.4541 1 P
ED21 8.0541 1 S
ED24 8.6741 1 S
# 2016  10  14   00    42    01.324    42.6585    13.2792    10.0000     2     0.0     0.0    0.0   33
NRCA 7.5965 1 S
RM33 6.7263 1 S
SMA1 1.9563 1 P
SMA1 3.4863 1 S
T1201 1.8263 1 P
T1201 3.2963 1 S
T1202 3.9663 1 S
T1204 1.7263 1 P
T1204 3.1763 1 S
T1211 11.8163 1 S
T1218 2.8163 1 P
T1218 5.1363 1 S
T1246 6.7263 1 S
T1299 1.8364 1 P
TERO 8.4963 1 S
ED02 9.4463 1 S
ED03 2.4663 1 P
ED07 3.1863 1 P
ED07 5.8063 1 S
ED11 6.8963 1 S
ED16 6.9663 1 S
ED17 10.4563 1 S
ED22 12.5863 1 S
ED24 2.1563 1 P
ED25 4.5163 1 S
