# 2016  10  14   04    50    01.958    42.7125    13.1577    0.0000     2     0.0     0.0    0.0   177
CAMP 5.1017 1 P
CSP1 7.2217 1 P
CSP1 13.9717 1 S
FDMO 6.0417 1 P
MMO1 4.4118 1 P
NRCA 2.3219 1 P
RM33 4.3117 1 P
T1201 2.1917 1 P
T1202 1.3317 1 P
T1204 2.8617 1 P
T1211 11.1617 1 S
T1212 1.7217 1 P
T1215 4.5517 1 P
T1217 3.5717 1 P
T1218 1.1117 1 P
T1245 2.7919 1 P
T1246 5.4617 1 P
T1246 10.5217 1 S
T1299 2.7318 1 P
TERO 6.3917 1 P
TERO 12.5317 1 S
ED01 3.9217 1 P
ED01 7.9217 1 S
ED02 4.0617 1 P
ED03 2.4517 1 P
ED05 5.5617 1 P
ED07 4.8017 1 P
ED08 5.3117 1 P
ED09 8.0717 1 S
ED11 2.0617 1 P
ED12 3.2517 1 P
ED14 6.6317 1 P
ED15 6.6017 1 P
ED16 6.3617 1 S
ED17 5.1617 1 P
ED17 10.2417 1 S
ED20 4.0117 1 P
ED21 6.1417 1 P
ED24 1.1117 1 P
ED25 3.8617 1 P
# 2016  10  14   04    50    52.331    42.5768    13.2997    4.0000     2     0.0     0.0    0.0   178
CAMP 2.0989 1 P
CAMP 3.7289 1 S
GIGS 8.0389 1 S
NRCA 5.1491 1 P
NRCA 10.4891 1 S
SMA1 1.5789 1 P
SMA1 3.0789 1 S
T1201 1.9489 1 P
T1201 3.9989 1 S
T1204 4.3289 1 S
T1212 4.5489 1 P
T1241 10.2289 1 S
T1246 2.8289 1 P
T1246 5.5189 1 S
T1299 1.3890 1 P
TERO 4.2689 1 P
TERO 8.2389 1 S
ED01 2.9389 1 P
ED03 1.5389 1 P
ED04 0.5689 1 P
ED05 2.0889 1 P
ED07 2.6789 1 P
ED10 8.6589 1 S
ED12 6.0889 1 P
ED14 3.1989 1 P
ED14 6.1289 1 S
ED15 3.8689 1 P
ED15 6.9689 1 S
ED16 9.6189 1 S
ED17 13.5889 1 S
ED18 14.7489 1 S
ED24 2.1789 1 P
ED25 1.2489 1 P
# 2016  10  14   04    51    46.429    42.7709    13.1560    2.0000     2     0.0     0.0    0.0   179
CAMP 10.7708 1 S
CESI 10.3010 1 S
CSP1 11.4708 1 S
MC2 2.8410 1 P
MC2 5.6110 1 S
MMO1 3.3109 1 P
MMO1 6.9709 1 S
NRCA 1.0910 1 P
RM33 5.5108 1 P
SMA1 4.0108 1 P
T1202 3.6008 1 S
T1204 3.2808 1 P
T1211 11.9508 1 S
T1212 1.6008 1 P
T1214 0.7608 1 P
T1215 7.7008 1 S
T1216 3.3308 1 P
T1217 6.5108 1 S
T1218 2.1208 1 P
T1218 4.1708 1 S
T1245 1.6010 1 P
T1246 5.8508 1 P
T1246 11.2808 1 S
T1299 3.5709 1 P
TERO 6.6208 1 P
TERO 12.6408 1 S
ED01 9.1208 1 S
ED02 8.4008 1 S
ED03 3.5608 1 P
ED05 12.1708 1 S
ED07 5.1708 1 P
ED07 9.8808 1 S
ED09 3.8108 1 P
ED09 7.4208 1 S
ED11 2.5608 1 P
ED12 2.6008 1 P
ED14 7.4608 1 P
ED14 14.0008 1 S
ED16 2.6508 1 P
ED16 5.3308 1 S
ED17 4.0308 1 P
ED17 8.2008 1 S
ED18 4.2708 1 P
ED19 2.7008 1 P
ED19 5.3108 1 S
ED20 3.8608 1 P
ED20 7.5508 1 S
ED22 10.0908 1 S
ED24 2.2808 1 P
# 2016  10  14   04    54    03.903    42.6367    13.3247    10.0000     2     0.0     0.0    0.0   180
CAMP 5.1672 1 S
MMO1 9.3173 1 S
RM33 6.3872 1 S
T1201 2.1272 1 P
T1201 3.8572 1 S
T1204 1.7972 1 P
T1204 3.1072 1 S
T1218 6.1872 1 S
T1246 5.4372 1 S
T1299 1.7873 1 P
T1299 3.2972 1 S
TERO 4.0472 1 P
ED04 4.1972 1 S
ED05 3.5772 1 P
ED05 6.3172 1 S
ED07 2.5772 1 P
ED11 8.0472 1 S
ED14 8.0872 1 S
ED16 7.5372 1 S
ED18 12.5072 1 S
ED20 2.8372 1 P
ED21 13.4672 1 S
ED24 2.7072 1 P
ED24 4.8772 1 S
ED25 1.8872 1 P
ED25 3.5872 1 S
# 2016  10  14   04    54    44.185    42.6530    13.3378    8.0000     2     0.0     0.0    0.0   181
CAMP 4.8549 1 S
MMO1 9.0250 1 S
SMA1 1.3249 1 P
T1201 1.8749 1 P
T1201 3.6849 1 S
T1204 1.4249 1 P
T1246 5.1849 1 S
T1299 1.5550 1 P
T1299 2.9849 1 S
TERO 3.7449 1 P
TERO 7.0149 1 S
ED03 2.4149 1 P
ED07 2.3449 1 P
ED07 4.0849 1 S
ED20 4.8049 1 S
ED24 2.3749 1 P
ED24 4.6749 1 S
ED25 1.6249 1 P
ED25 3.3149 1 S
# 2016  10  14   04    55    22.222    42.8732    13.0615    4.0000     2     0.0     0.0    0.0   182
CSP1 4.5783 1 P
CSP1 8.7583 1 S
FDMO 3.2183 1 P
FDMO 6.0583 1 S
MMO1 3.6684 1 P
MMO1 6.9584 1 S
NRCA 1.1685 1 P
T1212 2.5983 1 P
T1212 4.8083 1 S
T1215 3.3183 1 P
T1215 6.2483 1 S
T1216 1.0183 1 P
T1218 7.7183 1 S
T1245 3.5985 1 S
T1246 14.8083 1 S
ED02 10.3283 1 S
ED10 2.4483 1 P
ED10 4.3183 1 S
ED11 6.9083 1 S
ED12 2.0983 1 P
ED16 6.9583 1 S
ED17 3.7283 1 P
ED18 3.3483 1 P
ED18 6.2483 1 S
ED19 1.4683 1 P
ED20 10.3183 1 S
ED21 4.1183 1 P
ED21 7.6383 1 S
# 2016  10  14   04    56    05.474    42.6530    13.3378    8.0000     2     0.0     0.0    0.0   183
CAMP 4.9358 1 S
MMO1 9.1059 1 S
RM33 3.2758 1 P
RM33 6.1858 1 S
SMA1 1.4058 1 P
SMA1 2.5258 1 S
T1201 1.8958 1 P
T1201 3.6258 1 S
T1204 1.5458 1 P
T1204 2.5458 1 S
T1218 3.1958 1 P
T1218 5.9258 1 S
T1246 2.8458 1 P
T1246 5.2958 1 S
T1299 1.5559 1 P
TERO 3.8158 1 P
TERO 7.1058 1 S
ED03 4.6458 1 S
ED04 3.9458 1 S
ED05 6.3058 1 S
ED07 2.1158 1 P
ED09 3.2358 1 P
ED14 7.8958 1 S
ED18 12.2258 1 S
ED20 2.5958 1 P
ED21 13.2458 1 S
ED24 2.4958 1 P
ED24 4.6558 1 S
ED25 1.6958 1 P
ED25 3.3858 1 S
# 2016  10  14   04    59    57.861    42.6530    13.3378    8.0000     2     0.0     0.0    0.0   184
CAMP 4.9394 1 S
NRCA 8.6796 1 S
RM33 3.2594 1 P
RM33 6.1494 1 S
SMA1 1.3994 1 P
T1201 1.8994 1 P
T1201 3.6694 1 S
T1204 1.5194 1 P
T1204 2.9094 1 S
T1212 8.1894 1 S
T1218 3.1894 1 P
T1218 5.9894 1 S
T1246 5.1894 1 S
T1299 1.5995 1 P
T1299 3.0594 1 S
TERO 3.8194 1 P
TERO 7.0794 1 S
ED03 2.4794 1 P
ED07 2.3894 1 P
ED07 4.1594 1 S
ED10 7.0094 1 S
ED11 7.8894 1 S
ED12 11.1594 1 S
ED19 10.7994 1 S
ED20 4.8794 1 S
ED24 2.4494 1 P
ED25 1.6794 1 P
ED25 3.4094 1 S
# 2016  10  14   05    00    35.997    42.7996    13.2437    12.0000     2     0.0     0.0    0.0   185
MMO1 5.5734 1 S
NRCA 2.7135 1 P
NRCA 4.8935 1 S
SEF1 7.4735 1 P
T1212 3.4333 1 P
T1212 6.3533 1 S
T1214 3.6333 1 S
T1216 7.7533 1 S
T1218 3.4733 1 P
T1218 6.4233 1 S
T1245 2.4735 1 P
ED07 8.7533 1 S
ED10 2.3833 1 P
ED10 4.1733 1 S
ED12 4.1833 1 P
ED12 7.6233 1 S
ED16 4.3833 1 S
ED17 7.0933 1 S
ED19 6.3233 1 S
ED21 8.9533 1 S
ED24 6.4333 1 S
# 2016  10  14   05    05    11.492    42.6330    13.3378    10.0000     2     0.0     0.0    0.0   186
CAMP 5.2379 1 S
CSP1 15.8879 1 S
GIGS 9.2079 1 S
MMO1 9.3580 1 S
NRCA 8.8681 1 S
RM33 3.5979 1 P
RM33 6.4879 1 S
SMA1 1.7179 1 P
SMA1 2.8779 1 S
T1201 2.2179 1 P
T1201 3.9479 1 S
T1204 1.8579 1 P
T1212 4.7379 1 P
T1212 8.4779 1 S
T1214 6.7579 1 S
T1218 3.5079 1 P
T1218 6.2379 1 S
T1246 5.5379 1 S
T1299 1.8280 1 P
TERO 4.1379 1 P
TERO 7.3479 1 S
ED01 4.4079 1 P
ED02 10.4979 1 S
ED03 2.8279 1 P
ED03 4.4179 1 S
ED04 2.3779 1 P
ED04 4.2579 1 S
ED05 6.3379 1 S
ED09 3.5479 1 P
ED09 6.3779 1 S
ED10 7.3079 1 S
ED11 4.4979 1 P
ED11 8.1079 1 S
ED15 7.5879 1 S
ED16 7.6179 1 S
ED17 11.2179 1 S
ED18 12.5979 1 S
ED19 11.0379 1 S
ED20 2.8779 1 P
ED21 13.3979 1 S
ED22 12.9879 1 S
ED24 4.9779 1 S
ED25 1.9279 1 P
# 2016  10  14   05    08    48.196    42.6330    13.3378    10.0000     2     0.0     0.0    0.0   187
CAMP 5.1941 1 S
CSP1 15.9541 1 S
GIGS 9.1741 1 S
MMO1 9.3742 1 S
NRCA 8.8943 1 S
RM33 3.5841 1 P
RM33 6.5141 1 S
SMA1 1.7041 1 P
SMA1 2.8541 1 S
T1201 2.2041 1 P
T1201 3.9141 1 S
T1204 1.8541 1 P
T1212 4.7641 1 P
T1212 8.4841 1 S
T1214 6.7641 1 S
T1217 10.7141 1 S
T1218 3.5141 1 P
T1218 6.2441 1 S
T1246 3.2241 1 P
T1246 5.5441 1 S
T1299 1.8642 1 P
TERO 4.1141 1 P
TERO 7.3341 1 S
ED02 10.5041 1 S
ED03 4.9541 1 S
ED04 2.3641 1 P
ED04 4.2341 1 S
ED05 6.3141 1 S
ED07 2.6441 1 P
ED09 3.5441 1 P
ED09 6.4141 1 S
ED10 7.3241 1 S
ED11 8.1041 1 S
ED16 7.6241 1 S
ED18 12.6041 1 S
ED19 10.9841 1 S
ED20 2.9041 1 P
ED21 13.4341 1 S
ED22 13.0341 1 S
ED24 2.7941 1 P
ED24 4.9741 1 S
ED25 1.9441 1 P
# 2016  10  14   05    10    39.516    42.6330    13.3378    8.0000     2     0.0     0.0    0.0   188
SMA1 1.3538 1 P
SMA1 2.6738 1 S
T1201 1.8438 1 P
T1201 3.6438 1 S
T1204 1.4838 1 P
T1204 3.0138 1 S
T1214 5.6438 1 S
T1218 3.1138 1 P
T1246 2.7638 1 P
T1246 5.2238 1 S
TERO 3.7438 1 P
TERO 7.0338 1 S
ED03 4.5938 1 S
ED07 2.3038 1 P
ED16 7.4438 1 S
ED19 6.3438 1 P
ED20 2.5938 1 P
ED24 2.4438 1 P
ED24 4.5838 1 S
ED25 1.6238 1 P
ED25 2.9038 1 S
# 2016  10  14   05    12    50.631    42.6530    13.3378    10.0000     2     0.0     0.0    0.0   189
CAMP 5.2192 1 S
NRCA 8.8894 1 S
RM33 6.4392 1 S
SMA1 1.6692 1 P
T1201 2.1692 1 P
T1201 3.8992 1 S
T1204 3.1692 1 S
T1212 8.4792 1 S
T1218 6.2392 1 S
T1246 5.5692 1 S
TERO 4.0892 1 P
TERO 7.3092 1 S
ED04 4.2592 1 S
ED05 6.8992 1 S
ED07 2.6192 1 P
ED10 7.3292 1 S
ED11 8.0992 1 S
ED20 2.8792 1 P
ED24 2.7892 1 P
ED24 4.9392 1 S
ED25 1.9492 1 P
ED25 3.6392 1 S
# 2016  10  14   05    15    04.066    42.6330    13.3378    10.0000     2     0.0     0.0    0.0   190
CAMP 5.0443 1 S
GIGS 9.0643 1 S
SMA1 1.5743 1 P
SMA1 2.9343 1 S
T1201 2.0843 1 P
T1201 3.8543 1 S
T1204 1.6743 1 P
T1204 3.1243 1 S
T1245 9.2445 1 S
T1246 2.9843 1 P
T1246 5.4343 1 S
T1299 1.8244 1 P
T1299 3.2343 1 S
TERO 3.9543 1 P
TERO 7.2743 1 S
ED04 4.0643 1 S
ED07 2.5443 1 P
ED07 4.3643 1 S
ED16 7.5443 1 S
ED24 2.6443 1 P
ED24 4.9243 1 S
ED25 1.8443 1 P
ED25 3.4743 1 S
# 2016  10  14   05    15    55.252    42.8760    13.0768    4.0000     2     0.0     0.0    0.0   191
CESI 6.8981 1 S
CSP1 8.9679 1 S
FDMO 6.3479 1 S
MMO1 3.6280 1 P
MMO1 6.8880 1 S
NRCA 1.0681 1 P
T1212 2.4879 1 P
T1212 4.8179 1 S
T1215 3.3379 1 P
T1215 6.2979 1 S
T1216 1.1079 1 P
T1216 2.1879 1 S
T1217 7.3179 1 S
T1299 9.8079 1 S
ED11 6.8979 1 S
ED12 2.0479 1 P
ED17 3.7579 1 P
ED17 7.1879 1 S
ED19 1.5179 1 P
ED24 8.1579 1 S
# 2016  10  14   05    16    01.705    42.6530    13.3378    10.0000     2     0.0     0.0    0.0   192
CAMP 5.1552 1 S
MMO1 9.3253 1 S
NRCA 8.8354 1 S
RM33 3.3952 1 P
SMA1 1.6652 1 P
T1201 2.1252 1 P
T1201 3.8552 1 S
T1202 2.6752 1 P
T1204 1.7352 1 P
T1212 8.4152 1 S
T1214 6.0852 1 S
T1218 3.3952 1 P
T1218 6.1752 1 S
T1246 3.0252 1 P
T1246 5.5052 1 S
T1299 1.8253 1 P
T1299 3.3552 1 S
TERO 4.0052 1 P
ED02 5.6552 1 P
ED02 10.5552 1 S
ED04 2.3352 1 P
ED04 4.0452 1 S
ED06 7.4852 1 S
ED07 2.6252 1 P
ED09 3.4852 1 P
ED09 6.4052 1 S
ED10 7.1452 1 S
ED11 4.3852 1 P
ED11 8.0552 1 S
ED14 4.4252 1 P
ED14 8.1052 1 S
ED17 11.1452 1 S
ED18 12.4452 1 S
ED20 2.8552 1 P
ED20 5.1652 1 S
ED21 13.4652 1 S
ED24 2.6752 1 P
ED24 4.8752 1 S
ED25 1.9252 1 P
ED25 3.6452 1 S
# 2016  10  14   05    16    15.544    42.8732    12.9815    4.0000     2     0.0     0.0    0.0   193
CESI 2.9760 1 P
FDMO 6.7660 1 S
MMO1 9.0861 1 S
NRCA 2.0162 1 P
NRCA 4.0062 1 S
T1211 12.2860 1 S
T1212 5.0960 1 S
T1215 2.2160 1 P
T1216 0.8960 1 P
T1217 6.1360 1 S
T1245 5.9262 1 S
ED02 9.4160 1 S
ED10 2.8760 1 P
ED11 6.8760 1 S
ED16 8.8360 1 S
ED17 9.2860 1 S
ED19 2.5360 1 P
ED20 12.0960 1 S
ED21 9.6360 1 S
# 2016  10  14   05    17    41.500    42.8360    13.1568    4.0000     2     0.0     0.0    0.0   194
CESI 9.0103 1 S
CSP1 9.3701 1 S
FDMO 7.5601 1 S
MC2 1.7803 1 P
MC2 3.3603 1 S
MMO1 2.6502 1 P
MMO1 5.2602 1 S
NRCA 0.9403 1 P
RM33 11.7901 1 S
T1202 5.7501 1 S
T1212 2.4401 1 P
T1212 4.5101 1 S
T1214 3.4101 1 S
T1215 4.1001 1 P
T1216 2.3001 1 P
T1216 4.4101 1 S
T1218 3.3101 1 P
T1218 6.1001 1 S
T1245 0.9903 1 P
T1246 12.1401 1 S
ED02 5.3001 1 P
ED02 9.8601 1 S
ED07 10.8501 1 S
ED10 1.3701 1 P
ED11 3.3301 1 P
ED12 2.7101 1 P
ED16 2.2101 1 P
ED16 4.4201 1 S
ED17 3.2001 1 P
ED17 6.2101 1 S
ED18 3.2101 1 P
ED18 6.3001 1 S
ED19 1.8301 1 P
ED20 4.0101 1 P
ED20 7.6801 1 S
ED21 3.9701 1 P
ED21 7.4901 1 S
ED24 3.5701 1 P
# 2016  10  14   05    21    02.840    42.7420    13.2112    10.0000     2     0.0     0.0    0.0   195
MC2 6.9303 1 S
MMO1 6.4702 1 S
NRCA 2.4603 1 P
NRCA 4.6303 1 S
RM33 9.0501 1 S
T1201 4.8901 1 S
T1202 3.5901 1 S
T1204 2.4301 1 P
T1204 4.7001 1 S
T1211 12.3401 1 S
T1212 5.1201 1 S
T1214 1.5201 1 P
T1214 2.5801 1 S
T1215 9.2801 1 S
T1217 7.8001 1 S
T1218 2.5301 1 P
T1218 5.0901 1 S
T1245 5.1203 1 S
ED10 1.8001 1 P
ED11 3.1401 1 P
ED11 5.8601 1 S
ED12 6.9001 1 S
ED16 4.8801 1 S
ED17 8.0701 1 S
ED21 10.3101 1 S
ED24 2.3301 1 P
ED24 4.5901 1 S
ED25 7.3201 1 S
# 2016  10  14   05    21    19.643    42.6530    13.3378    8.0000     2     0.0     0.0    0.0   196
CAMP 2.6972 1 P
CAMP 4.9672 1 S
CSP1 15.7372 1 S
FDMO 14.8972 1 S
MMO1 9.1873 1 S
NRCA 8.7474 1 S
RM33 3.3472 1 P
RM33 6.2372 1 S
SMA1 1.4472 1 P
SMA1 2.5972 1 S
T1201 1.9872 1 P
T1204 1.5972 1 P
T1212 4.5172 1 P
T1212 8.2872 1 S
T1217 10.4672 1 S
T1218 3.2872 1 P
T1218 6.0172 1 S
T1246 2.8672 1 P
T1246 5.3472 1 S
T1299 1.6773 1 P
TERO 3.8472 1 P
TERO 7.1072 1 S
ED01 7.7472 1 S
ED02 5.5472 1 P
ED04 2.1272 1 P
ED04 3.9972 1 S
ED05 3.4072 1 P
ED05 6.1372 1 S
ED06 7.2972 1 S
ED07 2.3772 1 P
ED09 3.3272 1 P
ED09 6.1572 1 S
ED10 7.0172 1 S
ED11 4.2872 1 P
ED11 7.8972 1 S
ED14 4.2872 1 P
ED14 7.8872 1 S
ED16 3.9872 1 P
ED17 11.0172 1 S
ED18 12.2572 1 S
ED19 10.7972 1 S
ED20 2.6672 1 P
ED21 13.2072 1 S
ED24 2.5672 1 P
ED24 4.7672 1 S
ED25 1.6472 1 P
# 2016  10  14   05    22    32.094    42.6530    13.3378    8.0000     2     0.0     0.0    0.0   197
MNTP 16.8158 1 S
RM33 6.1758 1 S
SMA1 1.3758 1 P
SMA1 2.6658 1 S
T1204 1.5158 1 P
T1204 2.9458 1 S
T1218 5.9758 1 S
T1246 5.2358 1 S
TERO 7.0158 1 S
ED03 4.6758 1 S
ED07 2.3058 1 P
ED10 4.0958 1 P
ED11 7.8858 1 S
ED16 7.3258 1 S
ED20 2.5958 1 P
ED24 4.6658 1 S
ED25 1.6558 1 P
ED25 3.3158 1 S
# 2016  10  14   05    22    53.730    42.8732    13.0815    2.0000     2     0.0     0.0    0.0   198
CAMP 14.3404 1 S
CESI 3.9004 1 P
CESI 7.0006 1 S
CSP1 4.6004 1 P
FDMO 3.2204 1 P
FEMA 3.9204 1 S
MC2 2.0806 1 P
MMO1 3.6505 1 P
NRCA 0.9206 1 P
RM33 13.1204 1 S
T1202 7.7404 1 S
T1204 9.6804 1 S
T1211 13.4504 1 S
T1212 2.6204 1 P
T1214 5.4904 1 S
T1215 3.3604 1 P
T1216 1.2704 1 P
T1217 3.9204 1 P
T1218 4.0804 1 P
T1218 7.3304 1 S
T1241 9.7304 1 S
T1245 1.7006 1 P
T1246 14.6104 1 S
TERO 15.8204 1 S
ED01 12.2304 1 S
ED02 5.5404 1 P
ED02 10.3604 1 S
ED03 10.2304 1 S
ED09 9.4004 1 S
ED10 3.7304 1 S
ED11 7.1304 1 S
ED12 1.8604 1 P
ED16 6.5204 1 S
ED17 3.6404 1 P
ED18 3.3004 1 P
ED19 1.2204 1 P
ED20 10.1504 1 S
ED21 4.0004 1 P
ED24 4.6204 1 P
ED24 8.4204 1 S
# 2016  10  14   05    27    25.006    42.7796    13.1437    0.0000     2     0.0     0.0    0.0   199
CAMP 6.2638 1 P
CESI 5.7738 1 P
CSP1 6.4438 1 P
FDMO 5.3338 1 P
MC2 3.0540 1 P
MMO1 3.7939 1 P
NRCA 1.5440 1 P
RM33 5.1338 1 P
SMA1 4.4238 1 P
T1201 3.1238 1 P
T1202 2.0538 1 P
T1204 3.4838 1 P
T1211 6.4238 1 P
T1212 1.3438 1 P
T1214 0.7938 1 P
T1215 4.0438 1 P
T1216 3.1538 1 P
T1217 3.3738 1 P
T1218 2.0038 1 P
T1245 2.0440 1 P
T1246 6.1038 1 P
T1246 11.6938 1 S
T1299 3.7139 1 P
TERO 13.4038 1 S
ED01 4.7538 1 P
ED02 4.4538 1 P
ED03 3.4838 1 P
ED05 6.5238 1 P
ED05 12.3938 1 S
ED06 6.0138 1 P
ED07 5.4138 1 P
ED07 10.5738 1 S
ED08 6.0738 1 P
ED09 4.2238 1 P
ED09 7.9038 1 S
ED10 0.0238 1 P
ED11 2.2638 1 P
ED12 2.3638 1 P
ED14 7.4838 1 P
ED16 3.0638 1 P
ED17 4.5638 1 P
ED18 4.8338 1 P
ED19 3.1838 1 P
ED20 4.2438 1 P
ED21 5.4738 1 P
ED24 2.2838 1 P
ED25 4.7838 1 P
# 2016  10  14   05    29    24.636    42.8760    13.0768    2.0000     2     0.0     0.0    0.0   200
CESI 7.0243 1 S
CSP1 4.6541 1 P
FDMO 3.3141 1 P
FDMO 6.3141 1 S
MMO1 3.6342 1 P
MMO1 6.8742 1 S
NRCA 1.0543 1 P
NRCA 1.9043 1 S
RM33 13.6141 1 S
SMA1 11.2341 1 S
T1211 13.5741 1 S
T1212 2.5441 1 P
T1212 4.8741 1 S
T1214 5.5441 1 S
T1215 3.3941 1 P
T1215 6.3941 1 S
T1216 1.1841 1 P
T1217 3.9041 1 P
T1217 7.3341 1 S
T1218 3.9941 1 P
T1245 1.8543 1 P
ED02 10.2841 1 S
ED07 6.8641 1 P
ED07 13.0441 1 S
ED10 4.1341 1 S
ED11 3.6841 1 P
ED11 7.0541 1 S
ED12 2.1141 1 P
ED17 3.7341 1 P
ED18 3.4841 1 P
ED19 1.4041 1 P
ED21 4.1241 1 P
ED21 7.9841 1 S
# 2016  10  14   05    30    56.626    42.7540    13.1672    4.0000     2     0.0     0.0    0.0   201
CSP1 12.2237 1 S
MMO1 6.5838 1 S
NRCA 1.9139 1 P
T1201 2.3037 1 P
T1201 4.7337 1 S
T1202 1.2137 1 P
T1202 2.6637 1 S
T1212 1.9137 1 P
T1212 3.8037 1 S
T1214 0.6437 1 P
T1215 8.2737 1 S
T1218 1.8437 1 P
T1218 3.7237 1 S
T1246 10.1037 1 S
ED02 8.6037 1 S
ED11 2.3737 1 P
ED16 5.0937 1 S
ED17 8.3737 1 S
ED19 6.2837 1 S
ED24 1.8037 1 P
ED24 3.6037 1 S
# 2016  10  14   05    36    12.855    42.8732    13.0815    4.0000     2     0.0     0.0    0.0   202
FDMO 3.2946 1 P
FDMO 6.1546 1 S
MMO1 3.4847 1 P
MMO1 6.6547 1 S
NRCA 1.4448 1 P
T1212 2.4146 1 P
T1212 4.7246 1 S
T1215 3.2746 1 P
T1215 6.4346 1 S
T1216 1.1046 1 P
T1217 7.2246 1 S
T1245 3.3148 1 S
ED02 10.1646 1 S
ED05 8.5146 1 P
ED09 9.2746 1 S
ED10 4.0146 1 S
ED11 7.1746 1 S
ED12 1.9946 1 P
ED12 4.2846 1 S
ED16 6.3146 1 S
ED17 3.5846 1 P
ED18 3.3246 1 P
ED19 1.3946 1 P
ED20 9.9046 1 S
ED21 7.8446 1 S
ED24 8.3146 1 S
# 2016  10  14   05    37    44.383    42.6925    13.1177    12.0000     2     0.0     0.0    0.0   203
MMO1 4.9367 1 P
MMO1 9.3467 1 S
NRCA 3.0768 1 P
RM33 7.8366 1 S
SMA1 3.9966 1 P
T1201 3.0666 1 P
T1202 2.5966 1 P
T1211 9.2766 1 S
T1212 2.4266 1 P
T1212 4.3366 1 S
T1214 2.6566 1 P
T1214 5.1666 1 S
T1215 4.1866 1 P
T1215 7.9666 1 S
T1217 3.1666 1 P
T1217 6.0866 1 S
T1218 2.0366 1 P
T1218 4.0266 1 S
T1246 5.7466 1 P
T1246 10.5766 1 S
TERO 6.6166 1 P
TERO 12.4766 1 S
ED02 3.6066 1 P
ED02 6.7666 1 S
ED03 2.8166 1 P
ED03 5.3466 1 S
ED07 5.0966 1 P
ED07 9.6766 1 S
ED09 9.0566 1 S
ED10 2.4066 1 P
ED11 2.2766 1 P
ED12 3.3766 1 P
ED14 6.4866 1 P
ED14 12.1366 1 S
ED16 7.9966 1 S
ED17 10.6266 1 S
ED19 8.3166 1 S
ED20 8.5366 1 S
ED21 12.2166 1 S
ED24 2.3666 1 P
ED24 4.5366 1 S
ED25 4.2466 1 P
# 2016  10  14   05    38    53.032    42.8732    13.0615    4.0000     2     0.0     0.0    0.0   204
CESI 6.4086 1 S
CSP1 8.9685 1 S
FDMO 6.0785 1 S
MC2 4.0386 1 S
MMO1 3.6786 1 P
MMO1 7.0386 1 S
NRCA 1.1687 1 P
T1212 2.5485 1 P
T1212 4.9185 1 S
T1214 5.8085 1 S
T1215 6.0785 1 S
T1216 0.8685 1 P
T1245 3.9886 1 S
ED02 10.2185 1 S
ED10 4.2285 1 S
ED11 7.0785 1 S
ED12 1.9985 1 P
ED16 6.8085 1 S
ED17 3.7385 1 P
ED19 1.4485 1 P
ED20 10.4485 1 S
# 2016  10  14   05    41    39.144    42.8732    13.0815    4.0000     2     0.0     0.0    0.0   205
CESI 7.0666 1 S
FDMO 3.3664 1 P
FDMO 6.2164 1 S
MMO1 3.5165 1 P
MMO1 6.7465 1 S
NRCA 0.9966 1 P
NRCA 1.9766 1 S
T1212 2.4764 1 P
T1212 4.6664 1 S
T1215 3.3464 1 P
T1215 6.5064 1 S
T1216 1.1464 1 P
T1217 3.7964 1 P
T1217 7.2564 1 S
T1218 7.3664 1 S
T1245 1.7666 1 P
T1245 3.3766 1 S
ED02 10.2164 1 S
ED09 9.2464 1 S
ED11 6.9664 1 S
ED12 2.0764 1 P
ED16 6.0664 1 S
ED17 3.6464 1 P
ED19 1.4064 1 P
ED21 7.9264 1 S
# 2016  10  14   05    43    08.524    42.8560    13.0968    10.0000     2     0.0     0.0    0.0   206
CESI 7.5265 1 S
FDMO 6.6963 1 S
FEMA 5.2463 1 S
MC2 2.3365 1 P
MC2 4.5465 1 S
MMO1 3.5864 1 P
MMO1 6.6264 1 S
NRCA 1.5565 1 P
NRCA 3.0565 1 S
T1212 2.6963 1 P
T1212 4.9763 1 S
T1214 5.5463 1 S
T1215 3.5763 1 P
T1216 1.9363 1 P
T1216 3.6363 1 S
T1217 7.2763 1 S
T1218 7.1863 1 S
T1245 2.0565 1 P
T1246 13.9063 1 S
TERO 15.2463 1 S
ED09 8.9963 1 S
ED10 2.2363 1 P
ED10 4.1963 1 S
ED11 6.8963 1 S
ED12 2.4863 1 P
ED16 3.4463 1 P
ED16 6.3963 1 S
ED17 3.7563 1 P
ED17 6.9563 1 S
ED18 6.7963 1 S
ED19 2.0463 1 P
ED20 9.7763 1 S
ED21 4.2163 1 P
# 2016  10  14   05    43    41.919    42.7198    13.1533    2.0000     2     0.0     0.0    0.0   207
NRCA 5.1013 1 S
RM33 7.6611 1 S
SMA1 3.4211 1 P
T1201 2.0111 1 P
T1202 0.9011 1 P
T1212 1.6711 1 P
T1214 1.1811 1 P
T1214 2.4011 1 S
T1215 4.5911 1 P
T1218 0.9711 1 P
T1246 10.1911 1 S
T1299 2.5712 1 P
TERO 12.0211 1 S
ED02 7.6011 1 S
ED03 4.4611 1 S
ED10 1.3711 1 P
ED11 1.8611 1 P
ED20 7.7111 1 S
ED24 1.0711 1 P
ED25 3.9011 1 P
# 2016  10  14   05    46    04.660    42.6530    13.3378    8.0000     2     0.0     0.0    0.0   208
SMA1 1.3204 1 P
SMA1 2.6604 1 S
T1201 1.8404 1 P
T1201 3.6004 1 S
T1204 1.4604 1 P
T1218 3.0904 1 P
T1246 5.1604 1 S
T1299 1.5105 1 P
T1299 2.9604 1 S
TERO 3.7204 1 P
TERO 7.0304 1 S
ED05 6.4704 1 S
ED07 2.2804 1 P
ED07 4.0004 1 S
ED20 4.8704 1 S
ED24 2.3604 1 P
ED24 4.6804 1 S
ED25 3.3104 1 S
# 2016  10  14   05    50    17.364    42.7990    13.2705    12.0000     2     0.0     0.0    0.0   209
MMO1 5.6462 1 S
SMA1 3.5161 1 P
T1212 3.6361 1 P
T1214 4.1761 1 S
T1218 3.8161 1 P
T1218 6.9061 1 S
T1245 2.5363 1 P
T1245 4.6763 1 S
T1299 3.7062 1 P
TERO 5.9361 1 P
ED07 4.4461 1 P
ED16 4.5861 1 S
ED17 7.0361 1 S
ED19 6.1861 1 S
ED24 6.7961 1 S
# 2016  10  14   05    50    38.976    42.4460    13.3674    12.0000     2     0.0     0.0    0.0   210
CESI 22.0640 1 S
CSP1 22.0538 1 S
FDMO 20.6138 1 S
FEMA 19.1238 1 S
MMO1 16.2439 1 S
OFFI 18.0638 1 S
RM33 3.2238 1 P
RM33 5.8238 1 S
T1214 11.4638 1 S
T1217 14.0538 1 S
T1246 3.6838 1 P
T1246 6.4638 1 S
ED01 8.6738 1 S
ED05 2.1838 1 P
ED07 4.0838 1 P
ED11 12.8638 1 S
ED14 2.3438 1 P
ED14 4.0138 1 S
ED15 6.3638 1 S
ED18 18.7738 1 S
ED19 16.8238 1 S
ED25 3.4438 1 P
