# 2016  10  14   03    00    00.465    42.5813    13.3544    8.0000     2     0.0     0.0    0.0   104
CAMP 1.7250 1 P
CAMP 3.2750 1 S
GIGS 7.2250 1 S
NRCA 10.5852 1 S
SMA1 1.5950 1 P
T1201 4.8450 1 S
T1204 2.1850 1 P
T1204 4.0450 1 S
T1212 9.7350 1 S
T1214 7.7650 1 S
T1246 2.3050 1 P
T1299 1.9851 1 P
TERO 3.5650 1 P
ED01 3.9650 1 P
ED01 7.6150 1 S
ED03 2.6650 1 P
ED04 3.0650 1 S
ED05 2.3550 1 P
ED05 4.4850 1 S
ED07 2.1550 1 P
ED11 9.1450 1 S
ED12 12.4350 1 S
ED14 3.0550 1 P
ED14 5.7150 1 S
ED15 3.0950 1 P
ED16 9.2650 1 S
ED18 14.4250 1 S
ED24 3.0550 1 P
ED24 5.7350 1 S
ED25 1.2550 1 P
# 2016  10  14   03    00    53.573    42.8132    13.0415    6.0000     2     0.0     0.0    0.0   105
FDMO 8.2575 1 S
MC2 5.5877 1 S
MMO1 7.6876 1 S
T1212 1.2775 1 P
T1215 2.9475 1 P
T1215 5.5875 1 S
T1216 1.8775 1 P
T1246 13.4175 1 S
ED02 8.6575 1 S
ED11 2.5475 1 P
ED12 1.0975 1 P
ED17 8.5375 1 S
ED18 8.3575 1 S
ED20 9.9575 1 S
ED21 9.5175 1 S
ED22 9.9675 1 S
# 2016  10  14   03    01    55.387    42.7420    13.1712    2.0000     2     0.0     0.0    0.0   106
CSP1 12.4231 1 S
MC2 6.9033 1 S
MMO1 3.5132 1 P
MMO1 6.7832 1 S
NRCA 2.0333 1 P
NRCA 3.8033 1 S
T1201 2.3631 1 P
T1202 2.2731 1 S
T1212 2.1431 1 P
T1214 0.6831 1 P
T1215 8.5331 1 S
T1217 7.2631 1 S
T1218 1.9431 1 P
T1218 3.8331 1 S
T1246 9.8531 1 S
TERO 11.5931 1 S
ED02 4.5631 1 P
ED02 8.5231 1 S
ED05 10.8431 1 S
ED10 1.1531 1 P
ED11 2.5231 1 P
ED12 6.1431 1 S
ED16 2.6131 1 P
ED16 5.1131 1 S
ED17 4.5231 1 P
ED17 8.5431 1 S
ED18 9.0731 1 S
ED19 6.5031 1 S
ED21 10.4931 1 S
ED22 10.4631 1 S
ED24 1.8231 1 P
ED24 3.7531 1 S
ED25 7.7431 1 S
# 2016  10  14   03    02    27.191    42.8860    13.1473    4.0000     2     0.0     0.0    0.0   107
CESI 4.0288 1 P
CESI 7.7790 1 S
CSP1 7.8188 1 S
FDMO 2.9788 1 P
FDMO 6.2288 1 S
FEMA 4.0088 1 S
MC2 1.1890 1 P
MMO1 2.6589 1 P
NRCA 1.1990 1 P
NRCA 2.3990 1 S
T1202 3.9488 1 P
T1202 7.4788 1 S
T1204 9.2088 1 S
T1211 14.3888 1 S
T1212 3.0288 1 P
T1214 2.8888 1 P
T1215 4.1388 1 P
T1216 1.7988 1 P
T1217 8.4388 1 S
T1245 1.1590 1 P
T1245 2.4590 1 S
T1246 13.5788 1 S
TERO 7.7888 1 P
TERO 14.6788 1 S
ED01 12.4688 1 S
ED02 11.1788 1 S
ED03 5.5088 1 P
ED03 10.2088 1 S
ED05 15.0688 1 S
ED07 12.1088 1 S
ED08 15.2588 1 S
ED09 4.1488 1 P
ED11 7.3788 1 S
ED12 2.8488 1 P
ED16 2.6088 1 P
ED17 2.7688 1 P
ED18 2.4988 1 P
ED19 0.5888 1 P
ED20 4.6588 1 P
ED20 8.9588 1 S
ED21 3.2888 1 P
ED21 6.3288 1 S
ED24 4.4088 1 P
# 2016  10  14   03    03    55.084    42.8560    13.0968    2.0000     2     0.0     0.0    0.0   108
CESI 7.3266 1 S
CSP1 9.0264 1 S
FDMO 3.4364 1 P
FDMO 6.5164 1 S
FEMA 4.7664 1 S
MMO1 3.4065 1 P
NRCA 0.6966 1 P
T1211 13.4864 1 S
T1212 2.3664 1 P
T1212 4.4764 1 S
T1214 2.8264 1 P
T1215 3.4664 1 P
T1216 1.3064 1 P
T1216 2.5364 1 S
T1217 3.8364 1 P
T1217 7.2664 1 S
T1245 1.4666 1 P
T1246 13.9264 1 S
TERO 15.3564 1 S
ED02 10.1064 1 S
ED09 9.0864 1 S
ED10 1.9964 1 P
ED10 3.6364 1 S
ED11 3.7164 1 P
ED11 6.9864 1 S
ED12 2.0264 1 P
ED17 3.5964 1 P
ED18 3.3264 1 P
ED19 1.3964 1 P
ED20 9.6864 1 S
ED21 4.0764 1 P
ED21 7.7864 1 S
ED24 4.2264 1 P
# 2016  10  14   03    04    14.906    42.8560    13.1568    8.0000     2     0.0     0.0    0.0   109
CESI 8.8742 1 S
FDMO 7.2640 1 S
MC2 1.5542 1 P
MMO1 2.6941 1 P
MNTP 12.4040 1 S
NRCA 1.5442 1 P
T1201 4.3440 1 P
T1212 2.5740 1 P
T1212 5.0440 1 S
T1217 8.0140 1 S
T1246 6.6640 1 P
TERO 7.3140 1 P
ED03 5.0540 1 P
ED05 7.4440 1 P
ED05 14.0540 1 S
ED07 5.8440 1 P
ED09 7.7840 1 S
ED11 7.5240 1 S
ED12 5.1440 1 S
ED14 16.1840 1 S
ED16 4.5440 1 S
ED17 3.1340 1 P
ED17 6.0540 1 S
ED20 4.2540 1 P
ED21 3.8040 1 P
ED21 7.5040 1 S
ED22 7.6740 1 S
# 2016  10  14   03    06    42.867    42.8360    13.1568    8.0000     2     0.0     0.0    0.0   110
CESI 4.8233 1 P
CESI 9.0135 1 S
CSP1 4.9933 1 P
CSP1 9.4633 1 S
FDMO 4.0533 1 P
FEMA 5.9133 1 S
MC2 2.1535 1 P
MMO1 2.9434 1 P
MMO1 5.5434 1 S
NRCA 1.3735 1 P
RM33 11.2933 1 S
T1201 3.9933 1 P
T1202 5.9233 1 S
T1212 2.4533 1 P
T1212 4.8433 1 S
T1214 1.9733 1 P
T1215 7.8733 1 S
T1216 2.5033 1 P
T1216 4.7633 1 S
T1218 3.3133 1 P
T1245 1.4835 1 P
T1245 3.1035 1 S
T1246 6.4133 1 P
T1246 11.9433 1 S
T1299 4.5034 1 P
T1299 8.3933 1 S
TERO 7.0133 1 P
TERO 13.2033 1 S
ED02 5.2733 1 P
ED02 10.0533 1 S
ED03 4.3933 1 P
ED03 8.5833 1 S
ED05 13.1033 1 S
ED07 5.7133 1 P
ED07 10.6733 1 S
ED09 3.8633 1 P
ED09 7.2033 1 S
ED10 1.7033 1 P
ED11 3.3633 1 P
ED11 6.7933 1 S
ED12 2.8433 1 P
ED12 5.0733 1 S
ED16 4.9633 1 S
ED17 3.3833 1 P
ED17 6.3233 1 S
ED18 3.4533 1 P
ED18 6.5933 1 S
ED19 2.0233 1 P
ED19 4.0933 1 S
ED20 4.1133 1 P
ED20 7.8933 1 S
ED21 4.1433 1 P
ED21 7.8033 1 S
ED24 3.5133 1 P
ED25 9.9033 1 S
# 2016  10  14   03    11    03.233    42.6581    13.1548    10.0000     2     0.0     0.0    0.0   111
NRCA 6.5973 1 S
RM33 6.2671 1 S
SMA1 5.5371 1 S
T1201 3.8971 1 S
T1202 3.9671 1 S
T1212 2.9671 1 P
T1212 5.3171 1 S
T1214 4.5871 1 S
T1217 7.1971 1 S
T1218 1.8271 1 P
T1218 3.3271 1 S
T1245 7.9673 1 S
ED01 6.0371 1 S
ED02 3.8971 1 P
ED03 3.3771 1 S
ED07 4.3571 1 P
ED07 8.0071 1 S
ED12 7.7071 1 S
ED20 4.0871 1 P
ED24 1.6271 1 P
# 2016  10  14   03    12    47.732    42.8340    13.1457    6.0000     2     0.0     0.0    0.0   112
CESI 8.9683 1 S
MC2 4.1383 1 S
MMO1 5.7282 1 S
T1201 3.8381 1 P
T1214 3.9581 1 S
T1245 1.4283 1 P
T1245 1.9383 1 S
ED10 3.0581 1 S
ED17 3.2781 1 P
ED17 6.3781 1 S
ED18 3.3181 1 P
ED18 6.4681 1 S
ED19 3.9381 1 S
ED20 7.7481 1 S
ED21 3.9981 1 P
ED21 7.6481 1 S
ED24 3.4181 1 P
# 2016  10  14   03    13    47.512    42.7060    13.1873    10.0000     2     0.0     0.0    0.0   113
FDMO 6.3377 1 P
MMO1 8.1678 1 S
NRCA 2.8579 1 P
NRCA 5.4579 1 S
RM33 3.9777 1 P
SMA1 3.2777 1 P
T1201 2.2677 1 P
T1201 4.2077 1 S
T1202 1.7777 1 P
T1202 3.3177 1 S
T1211 10.2077 1 S
T1212 2.5077 1 P
T1214 1.9177 1 P
T1214 3.5177 1 S
T1215 8.8577 1 S
T1217 6.8477 1 S
T1218 1.8877 1 P
T1246 9.3377 1 S
T1299 4.8277 1 S
ED01 3.9977 1 P
ED01 7.2977 1 S
ED02 4.5877 1 P
ED02 7.6677 1 S
ED03 4.6977 1 S
ED05 5.1577 1 P
ED05 9.5577 1 S
ED07 4.4277 1 P
ED09 7.5077 1 S
ED11 2.5077 1 P
ED11 4.6077 1 S
ED12 3.7877 1 P
ED12 6.8577 1 S
ED14 11.4577 1 S
ED16 6.6477 1 S
ED17 9.7277 1 S
ED19 4.3677 1 P
ED20 3.7377 1 P
ED20 6.9777 1 S
ED24 1.8277 1 P
# 2016  10  14   03    15    47.937    42.8190    13.2105    6.0000     2     0.0     0.0    0.0   114
MMO1 4.8630 1 S
T1212 2.8229 1 P
T1212 5.1529 1 S
T1214 1.4829 1 P
T1214 2.8229 1 S
T1217 8.6229 1 S
T1218 6.1729 1 S
T1245 1.3531 1 P
T1246 10.7429 1 S
TERO 11.9429 1 S
ED02 10.4029 1 S
ED05 12.3629 1 S
ED09 3.1029 1 P
ED10 1.6629 1 P
ED10 2.7129 1 S
ED11 7.0329 1 S
ED16 3.1329 1 S
ED17 6.4329 1 S
ED19 4.6629 1 S
ED20 3.4029 1 P
ED20 6.4129 1 S
ED24 6.4029 1 S
# 2016  10  14   03    17    25.883    42.8732    13.0815    0.0000     2     0.0     0.0    0.0   115
CSP1 8.7971 1 S
FDMO 3.2971 1 P
FDMO 6.0871 1 S
MMO1 3.7172 1 P
MMO1 7.0672 1 S
NRCA 1.2073 1 P
NRCA 1.7573 1 S
T1212 2.5771 1 P
T1215 3.2671 1 P
T1216 1.0571 1 P
T1217 7.2371 1 S
T1218 8.1971 1 S
ED10 4.8071 1 S
ED11 7.1071 1 S
ED12 2.0571 1 P
ED12 4.0971 1 S
ED16 6.9271 1 S
ED17 3.7971 1 P
ED18 3.4171 1 P
ED19 1.5471 1 P
ED20 10.3471 1 S
ED21 4.2271 1 P
ED21 8.0571 1 S
# 2016  10  14   03    18    52.945    42.8760    13.2368    2.0000     2     0.0     0.0    0.0   116
CAMP 6.6952 1 P
CAMP 12.7652 1 S
CESI 5.4852 1 P
FDMO 4.0152 1 P
GIGS 17.1352 1 S
MC2 1.3054 1 P
NRCA 2.0054 1 P
RM33 6.8552 1 P
SMA1 4.8052 1 P
T1201 4.5552 1 P
T1202 3.4852 1 P
T1204 4.1252 1 P
T1211 8.3552 1 P
T1212 3.5052 1 P
T1214 2.1552 1 P
T1215 5.2852 1 P
T1215 10.3552 1 S
T1216 3.1352 1 P
T1217 5.3152 1 P
T1218 4.1752 1 P
T1246 6.4852 1 P
T1246 12.5152 1 S
T1299 4.8153 1 P
TERO 6.9652 1 P
TERO 13.2652 1 S
ED01 6.7152 1 P
ED02 6.5252 1 P
ED03 5.2552 1 P
ED07 5.6552 1 P
ED08 7.9652 1 P
ED09 3.2552 1 P
ED10 2.2652 1 P
ED11 4.5452 1 P
ED12 3.8252 1 P
ED14 8.5452 1 P
ED15 7.6352 1 P
ED16 1.3052 1 P
ED17 2.0852 1 P
ED18 2.5352 1 P
ED19 1.8452 1 P
ED20 3.8252 1 P
ED21 3.3052 1 P
ED24 4.2452 1 P
# 2016  10  14   03    20    17.145    42.8590    13.2305    2.0000     2     0.0     0.0    0.0   117
MC2 1.2650 1 P
MMO1 1.5349 1 P
MMO1 3.1349 1 S
NRCA 1.7950 1 P
T1214 4.2548 1 S
T1245 0.4950 1 P
ED10 4.0248 1 S
ED16 1.3648 1 P
ED16 2.7248 1 S
ED17 2.2548 1 P
ED18 5.2748 1 S
ED19 1.7148 1 P
ED19 3.4048 1 S
ED20 3.6548 1 P
ED20 7.1248 1 S
ED21 6.7048 1 S
ED22 6.4348 1 S
# 2016  10  14   03    21    02.820    42.8190    13.2105    6.0000     2     0.0     0.0    0.0   118
FDMO 8.8001 1 S
MC2 4.2803 1 S
NRCA 1.6403 1 P
T1212 2.8401 1 P
T1212 5.3601 1 S
T1214 2.7701 1 S
T1217 8.6801 1 S
T1218 6.3301 1 S
T1245 1.3303 1 P
T1245 2.0603 1 S
T1246 10.6701 1 S
TERO 6.3201 1 P
ED02 10.4501 1 S
ED09 3.0101 1 P
ED10 1.5201 1 P
ED10 2.8601 1 S
ED11 7.0301 1 S
ED16 3.4501 1 S
ED17 6.4301 1 S
ED19 4.8601 1 S
ED20 3.2901 1 P
ED20 6.2901 1 S
# 2016  10  14   03    25    34.299    42.8552    13.0730    4.0000     2     0.0     0.0    0.0   119
CESI 7.3816 1 S
CSP1 9.3914 1 S
FDMO 3.5714 1 P
FDMO 6.7314 1 S
MC2 2.1316 1 P
MMO1 6.7115 1 S
RM33 12.7214 1 S
T1201 4.6314 1 P
T1212 1.8014 1 P
T1214 4.8514 1 S
T1215 3.0814 1 P
T1215 6.0014 1 S
T1216 1.0114 1 P
T1217 6.6214 1 S
T1218 6.6814 1 S
T1245 1.5016 1 P
T1246 13.7814 1 S
T1299 9.8814 1 S
ED02 9.4514 1 S
ED09 9.6914 1 S
ED10 1.6914 1 P
ED12 1.4814 1 P
ED17 3.8614 1 P
ED17 7.5014 1 S
ED19 1.5614 1 P
ED20 9.7114 1 S
ED21 8.1614 1 S
ED22 8.9114 1 S
ED24 7.8814 1 S
# 2016  10  14   03    29    47.446    42.8020    13.2512    4.0000     2     0.0     0.0    0.0   120
MMO1 2.2639 1 P
MMO1 4.3939 1 S
NRCA 1.7940 1 P
T1212 6.0538 1 S
T1214 0.9138 1 P
T1217 8.9738 1 S
T1218 6.1538 1 S
T1246 10.0538 1 S
TERO 11.3438 1 S
ED10 3.8338 1 S
ED11 6.7438 1 S
ED16 1.2838 1 P
ED16 2.7438 1 S
ED17 3.3038 1 P
ED17 6.2338 1 S
ED18 7.1638 1 S
ED19 5.3138 1 S
ED20 5.4738 1 S
ED21 8.4138 1 S
ED24 6.0538 1 S
# 2016  10  14   03    31    33.417    42.6581    13.1748    12.0000     2     0.0     0.0    0.0   121
NRCA 6.6529 1 S
RM33 6.8427 1 S
SEF1 18.2829 1 S
SMA1 3.3127 1 P
SMA1 5.7827 1 S
T1201 2.4127 1 P
T1212 5.4327 1 S
T1214 2.6527 1 P
T1214 5.0027 1 S
T1217 7.2227 1 S
T1218 2.1327 1 P
T1218 3.8527 1 S
T1245 7.8829 1 S
T1246 9.1427 1 S
T1299 2.4928 1 P
TERO 11.0327 1 S
ED01 6.6527 1 S
ED03 2.3827 1 P
ED03 4.3827 1 S
ED05 8.9727 1 S
ED07 4.4827 1 P
ED07 8.2827 1 S
ED09 8.1927 1 S
ED11 2.7427 1 P
ED11 4.9527 1 S
ED12 7.8727 1 S
ED14 10.7827 1 S
ED20 7.5327 1 S
ED24 2.0027 1 P
ED25 6.7127 1 S
# 2016  10  14   03    35    25.858    42.8732    13.0815    4.0000     2     0.0     0.0    0.0   122
FDMO 6.1824 1 S
MMO1 6.9225 1 S
NRCA 1.0526 1 P
NRCA 2.1926 1 S
T1212 2.4524 1 P
T1212 4.7624 1 S
T1215 6.1924 1 S
T1216 0.9524 1 P
T1217 7.5724 1 S
T1218 7.9324 1 S
ED10 4.5624 1 S
ED11 6.9324 1 S
ED12 2.0524 1 P
ED17 3.6924 1 P
ED19 1.4024 1 P
ED19 2.3724 1 S
ED24 8.6724 1 S
# 2016  10  14   03    36    04.235    42.8396    13.3096    0.0000     2     0.0     0.0    0.0   123
CAMP 5.9951 1 P
CAMP 11.6251 1 S
CESI 6.5551 1 P
CSP1 5.2551 1 P
FDMO 4.8151 1 P
FDMO 10.1451 1 S
GIGS 8.4151 1 P
GIGS 15.6951 1 S
MC2 2.2653 1 P
MMO1 1.5852 1 P
SMA1 4.1451 1 P
T1202 3.2551 1 P
T1204 3.4051 1 P
T1211 16.3551 1 S
T1212 3.9651 1 P
T1215 6.0851 1 P
T1216 4.1051 1 P
T1218 4.3051 1 P
T1218 8.9251 1 S
T1246 5.7251 1 P
T1246 11.1651 1 S
T1299 4.2352 1 P
TERO 6.0851 1 P
ED01 6.6151 1 P
ED01 13.1551 1 S
ED02 6.8251 1 P
ED03 5.0251 1 P
ED05 6.9251 1 P
ED06 14.0051 1 S
ED07 4.8551 1 P
ED10 2.4551 1 P
ED11 4.7851 1 P
ED12 4.6651 1 P
ED14 7.6551 1 P
ED15 6.9651 1 P
ED16 0.0151 1 P
ED17 2.6751 1 P
ED18 3.2451 1 P
ED19 2.7651 1 P
ED20 2.6751 1 P
ED21 3.9651 1 P
ED24 4.0551 1 P
ED25 4.7851 1 P
# 2016  10  14   03    36    48.100    42.7581    13.2748    16.0000     2     0.0     0.0    0.0   124
NRCA 6.8704 1 S
SEF1 8.6304 1 P
SMA1 6.3602 1 S
T1201 5.8802 1 S
T1202 5.1602 1 S
T1204 3.4502 1 P
T1214 4.9702 1 S
T1218 3.9702 1 P
T1218 6.4702 1 S
T1299 6.1902 1 S
ED07 8.3902 1 S
ED09 6.7102 1 S
ED10 5.7102 1 S
ED11 4.6202 1 P
ED20 6.5202 1 S
ED24 3.6502 1 P
ED24 5.9602 1 S
# 2016  10  14   03    37    36.683    42.9352    13.1930    6.0000     2     0.0     0.0    0.0   125
CESI 8.1070 1 S
FDMO 2.6968 1 P
FDMO 5.0668 1 S
FEMA 4.5668 1 S
MC2 1.0570 1 P
MMO1 4.2969 1 S
NRCA 4.0370 1 S
T1212 7.4068 1 S
T1214 6.4068 1 S
T1215 9.5068 1 S
T1216 4.7368 1 S
T1217 10.1668 1 S
T1218 9.4368 1 S
T1246 8.0268 1 P
TERO 15.0068 1 S
ED02 12.7068 1 S
ED10 5.5168 1 S
ED11 9.3168 1 S
ED12 7.3968 1 S
ED16 5.0568 1 S
ED17 2.0268 1 P
ED18 3.5868 1 S
ED19 1.0868 1 P
ED20 8.9968 1 S
ED21 2.5168 1 P
ED21 4.7868 1 S
ED24 10.3368 1 S
# 2016  10  14   03    38    27.015    42.8020    13.1712    4.0000     2     0.0     0.0    0.0   126
CESI 5.2949 1 P
CESI 9.8851 1 S
CSP1 10.1249 1 S
FDMO 4.6049 1 P
FDMO 8.2849 1 S
MC2 4.8051 1 S
MMO1 2.9150 1 P
MMO1 5.4450 1 S
NRCA 1.5951 1 P
T1214 1.1949 1 P
T1215 4.4549 1 P
T1216 2.9149 1 P
T1216 5.3849 1 S
T1245 1.5351 1 P
T1246 11.4849 1 S
ED02 5.4349 1 P
ED02 9.8149 1 S
ED09 3.5649 1 P
ED09 6.9549 1 S
ED12 3.1249 1 P
ED16 4.5849 1 S
ED17 3.5249 1 P
ED19 2.4749 1 P
ED19 4.5149 1 S
ED20 3.8749 1 P
ED20 7.3949 1 S
ED21 4.4649 1 P
ED21 8.0949 1 S
# 2016  10  14   03    38    57.630    42.8952    13.2330    4.0000     2     0.0     0.0    0.0   127
CESI 9.6899 1 S
CSP1 7.4797 1 S
FDMO 6.4797 1 S
MC2 1.0099 1 P
MC2 1.9399 1 S
MMO1 1.2698 1 P
MMO1 2.6198 1 S
NRCA 2.1199 1 P
NRCA 3.8199 1 S
T1212 7.4697 1 S
T1214 5.5297 1 S
T1216 3.1197 1 P
T1216 6.0097 1 S
T1218 8.9997 1 S
T1245 1.1499 1 P
ED10 5.0997 1 S
ED12 7.8597 1 S
ED16 3.2597 1 S
ED17 1.6797 1 P
ED17 3.3097 1 S
ED18 2.1097 1 P
ED18 4.0097 1 S
ED19 1.5297 1 P
ED20 7.3297 1 S
ED21 5.1197 1 S
ED22 4.9897 1 S
# 2016  10  14   03    40    02.156    42.7740    13.1472    2.0000     2     0.0     0.0    0.0   128
CESI 10.3142 1 S
MMO1 3.4541 1 P
NRCA 1.0442 1 P
T1212 1.7040 1 P
T1212 3.3340 1 S
T1214 1.0040 1 P
T1216 5.7540 1 S
T1245 1.6142 1 P
T1246 11.7140 1 S
TERO 13.0640 1 S
ED01 9.5740 1 S
ED09 7.7740 1 S
ED12 2.6340 1 P
ED16 5.5740 1 S
ED17 4.1440 1 P
ED17 8.0040 1 S
ED19 2.8840 1 P
ED19 5.2540 1 S
ED20 7.9940 1 S
ED21 9.4640 1 S
ED24 2.5640 1 P
# 2016  10  14   03    41    28.243    42.7420    13.2112    4.0000     2     0.0     0.0    0.0   129
MMO1 6.2868 1 S
NRCA 2.3469 1 P
NRCA 4.3969 1 S
RM33 8.8667 1 S
T1202 1.9967 1 S
T1212 2.5767 1 P
T1214 0.5867 1 P
T1214 1.4367 1 S
T1215 9.2267 1 S
T1218 2.2667 1 P
T1246 4.8967 1 P
T1246 9.2367 1 S
T1299 2.6968 1 P
TERO 10.9967 1 S
ED02 4.8367 1 P
ED03 5.5667 1 S
ED05 5.4367 1 P
ED09 6.1267 1 S
ED10 2.9467 1 S
ED11 2.8767 1 P
ED14 6.3167 1 P
ED16 5.0067 1 S
ED17 8.1567 1 S
ED18 9.2067 1 S
ED19 6.9967 1 S
ED21 10.2867 1 S
ED22 10.0167 1 S
# 2016  10  14   03    42    37.738    42.7540    13.1472    10.0000     2     0.0     0.0    0.0   130
MMO1 4.0120 1 P
MMO1 7.4720 1 S
NRCA 2.3521 1 P
T1201 2.7619 1 P
T1201 5.1719 1 S
T1202 2.1719 1 P
T1211 11.2119 1 S
T1212 1.9619 1 P
T1214 3.4819 1 S
T1218 4.3419 1 S
T1299 5.8219 1 S
ED02 8.1819 1 S
ED03 5.7719 1 S
ED11 4.4819 1 S
ED17 4.8019 1 P
ED19 3.5819 1 P
ED19 6.5819 1 S
ED24 4.4219 1 S
# 2016  10  14   03    43    00.542    42.8732    13.0615    4.0000     2     0.0     0.0    0.0   131
CESI 6.6886 1 S
CSP1 4.5784 1 P
FDMO 3.1885 1 P
MC2 4.0386 1 S
MMO1 3.6386 1 P
NRCA 1.1587 1 P
RM33 13.5185 1 S
T1201 5.2484 1 P
T1212 2.5485 1 P
T1212 4.8685 1 S
T1214 5.6285 1 S
T1215 3.3185 1 P
T1215 6.2685 1 S
T1216 1.0385 1 P
T1216 2.0585 1 S
T1217 7.2785 1 S
T1245 1.8586 1 P
T1245 3.3686 1 S
T1246 14.8485 1 S
ED02 10.2485 1 S
ED05 15.6585 1 S
ED09 9.5785 1 S
ED10 4.1985 1 S
ED11 3.8885 1 P
ED11 7.0285 1 S
ED12 2.0685 1 P
ED12 3.9785 1 S
ED16 6.6585 1 S
ED17 3.7485 1 P
ED18 3.3785 1 P
ED19 1.3885 1 P
ED21 4.0785 1 P
ED21 7.8485 1 S
ED24 4.4785 1 P
ED24 8.4885 1 S
# 2016  10  14   03    44    48.899    42.9018    13.2693    4.0000     2     0.0     0.0    0.0   132
CSP1 7.4708 1 S
FDMO 6.9208 1 S
MC2 1.3110 1 P
MC2 2.6310 1 S
MMO1 1.0509 1 P
NRCA 2.5110 1 P
T1212 7.8808 1 S
T1214 5.7108 1 S
T1216 6.5808 1 S
T1218 9.4108 1 S
T1245 1.4710 1 P
ED09 5.8208 1 S
ED10 2.9308 1 P
ED10 5.4908 1 S
ED12 8.4508 1 S
ED16 3.1308 1 S
ED17 1.5608 1 P
ED18 4.0208 1 S
ED19 1.9708 1 P
ED20 7.2108 1 S
ED21 4.8908 1 S
ED22 4.8108 1 S
# 2016  10  14   03    48    22.060    42.7325    13.1777    10.0000     2     0.0     0.0    0.0   133
MMO1 3.8399 1 P
MMO1 7.2899 1 S
NRCA 4.7400 1 S
T1201 2.5998 1 P
T1212 4.4798 1 S
T1214 3.2898 1 S
T1218 2.1898 1 P
T1218 4.1798 1 S
T1299 5.6398 1 S
ED03 5.5798 1 S
ED05 10.3898 1 S
ED10 3.3198 1 S
ED11 5.1798 1 S
ED12 3.5198 1 P
ED12 6.3498 1 S
ED16 5.8398 1 S
ED17 4.6298 1 P
ED17 9.0898 1 S
ED19 7.0398 1 S
ED24 2.2298 1 P
ED24 4.2098 1 S
# 2016  10  14   03    50    32.404    42.8020    13.2312    2.0000     2     0.0     0.0    0.0   134
MMO1 4.8661 1 S
T1202 3.9260 1 S
T1212 2.9160 1 P
T1212 5.7360 1 S
T1214 0.7560 1 P
T1218 2.8860 1 P
T1218 5.8160 1 S
T1245 2.5662 1 S
ED03 7.7760 1 S
ED09 5.2660 1 S
ED10 1.2860 1 P
ED16 3.1760 1 S
ED17 6.7460 1 S
ED19 5.4960 1 S
ED20 3.1360 1 P
ED21 8.8160 1 S
ED24 2.6460 1 P
ED24 5.8460 1 S
# 2016  10  14   03    51    00.551    42.7420    13.1712    8.0000     2     0.0     0.0    0.0   135
MMO1 3.6993 1 P
NRCA 2.2394 1 P
NRCA 4.2594 1 S
T1201 2.5192 1 P
T1202 3.2792 1 S
T1211 10.8092 1 S
T1214 1.3392 1 P
T1217 6.9992 1 S
T1218 4.2192 1 S
T1246 9.8192 1 S
ED03 2.9192 1 P
ED10 2.7192 1 S
ED11 5.0992 1 S
ED16 5.5192 1 S
ED19 6.8392 1 S
ED24 2.1092 1 P
ED24 4.0092 1 S
# 2016  10  14   03    54    34.009    42.5813    13.3544    6.0000     2     0.0     0.0    0.0   136
CAMP 2.9612 1 S
SMA1 1.3612 1 P
T1204 1.9612 1 P
T1204 3.8012 1 S
T1246 2.0612 1 P
T1246 4.0212 1 S
T1299 1.7413 1 P
T1299 3.4612 1 S
TERO 3.3312 1 P
ED04 2.8312 1 S
ED07 1.9212 1 P
ED07 3.7912 1 S
ED14 2.8112 1 P
ED14 5.5312 1 S
ED24 5.5512 1 S
ED25 1.0612 1 P
# 2016  10  14   03    56    56.979    42.8190    13.2105    2.0000     2     0.0     0.0    0.0   137
CSP1 10.1707 1 S
MMO1 2.2508 1 P
MMO1 4.3308 1 S
NRCA 1.4809 1 P
T1212 5.3807 1 S
T1214 1.1907 1 P
T1218 6.7807 1 S
T1245 0.8909 1 P
T1246 10.9907 1 S
TERO 12.2307 1 S
ED02 10.6807 1 S
ED03 4.3907 1 P
ED03 8.4707 1 S
ED10 1.5507 1 P
ED12 6.4807 1 S
ED16 1.4907 1 P
ED17 3.1407 1 P
ED17 6.0307 1 S
ED18 6.9507 1 S
ED19 2.3707 1 P
ED19 4.5207 1 S
ED20 6.4807 1 S
ED21 7.9307 1 S
ED22 8.0207 1 S
# 2016  10  14   04    01    22.859    42.7396    13.1837    2.0000     2     0.0     0.0    0.0   138
CSP1 12.5813 1 S
FDMO 6.0713 1 P
MMO1 3.6114 1 P
MMO1 6.9114 1 S
RM33 8.6113 1 S
SMA1 3.1113 1 P
T1201 2.2313 1 P
T1202 1.1613 1 P
T1204 2.4313 1 P
T1204 4.8713 1 S
T1212 2.0713 1 P
T1214 0.7113 1 P
T1215 4.4713 1 P
T1218 1.7013 1 P
T1245 4.9615 1 S
T1246 5.0413 1 P
T1246 9.6513 1 S
T1299 2.7314 1 P
ED01 4.2513 1 P
ED01 8.4113 1 S
ED02 4.3613 1 P
ED03 2.7213 1 P
ED03 5.3313 1 S
ED07 4.4313 1 P
ED07 8.5813 1 S
ED09 3.4013 1 P
ED09 6.8213 1 S
ED10 1.0713 1 P
ED11 2.4013 1 P
ED12 3.2213 1 P
ED16 2.6413 1 P
ED16 5.2313 1 S
ED17 4.5613 1 P
ED17 8.6813 1 S
ED18 9.2713 1 S
ED19 6.8213 1 S
ED20 3.3513 1 P
ED21 10.5913 1 S
ED22 10.7113 1 S
ED24 1.6813 1 P
# 2016  10  14   04    03    30.473    42.9018    13.2493    0.0000     2     0.0     0.0    0.0   139
CAMP 13.6072 1 S
CESI 5.3772 1 P
CSP1 4.2072 1 P
FDMO 3.6372 1 P
GIGS 17.9772 1 S
MC2 1.2574 1 P
MMO1 1.1773 1 P
NRCA 2.1574 1 P
SMA1 5.4772 1 P
T1201 5.2072 1 P
T1202 4.2372 1 P
T1202 7.8972 1 S
T1204 4.9972 1 P
T1212 3.9872 1 P
T1214 2.8472 1 P
T1215 5.5472 1 P
T1216 3.2272 1 P
T1217 5.7072 1 P
T1218 4.8372 1 P
T1246 7.1872 1 P
T1299 5.5073 1 P
TERO 7.4972 1 P
TERO 13.9072 1 S
ED01 7.3172 1 P
ED02 7.0372 1 P
ED03 6.0172 1 P
ED03 11.3972 1 S
ED05 8.3072 1 P
ED05 15.4272 1 S
ED08 8.6072 1 P
ED09 3.6072 1 P
ED09 6.7172 1 S
ED10 2.7072 1 P
ED11 5.0672 1 P
ED12 4.1472 1 P
ED14 16.9772 1 S
ED16 1.9572 1 P
ED17 1.7572 1 P
ED18 2.2372 1 P
ED19 1.3472 1 P
ED20 4.2672 1 P
ED21 2.9372 1 P
ED24 4.8672 1 P
ED25 6.3172 1 P
ED25 11.6972 1 S
