# 2016  10  14   04    07    14.733    42.8732    13.0615    4.0000     2     0.0     0.0    0.0   140
CESI 6.7867 1 S
FDMO 3.3165 1 P
FDMO 6.0765 1 S
MMO1 3.6066 1 P
MMO1 6.8666 1 S
T1212 2.5065 1 P
T1212 4.7165 1 S
T1215 6.2065 1 S
T1216 0.9565 1 P
T1245 3.8467 1 S
ED10 4.3465 1 S
ED11 6.9765 1 S
ED12 2.0065 1 P
ED12 3.9365 1 S
ED16 6.8865 1 S
ED17 3.6565 1 P
ED17 7.0065 1 S
ED19 1.3965 1 P
ED22 8.5565 1 S
# 2016  10  14   04    08    05.493    42.8390    13.0905    6.0000     2     0.0     0.0    0.0   141
MMO1 3.5573 1 P
MMO1 6.7773 1 S
T1212 1.9872 1 P
T1212 3.7772 1 S
T1214 4.4072 1 S
T1215 3.2472 1 P
T1215 6.5272 1 S
T1218 5.8972 1 S
T1245 1.8774 1 P
T1245 3.0874 1 S
ED11 5.5572 1 S
ED12 2.0172 1 P
ED12 3.8372 1 S
ED16 6.1472 1 S
ED17 3.9672 1 P
ED17 7.4872 1 S
ED19 2.2172 1 P
ED19 3.6172 1 S
ED20 9.2172 1 S
ED21 8.6472 1 S
# 2016  10  14   04    09    20.391    42.6330    13.2978    2.0000     2     0.0     0.0    0.0   142
ARRO 7.5092 1 P
CAMP 2.3890 1 P
CESI 8.8690 1 P
CSP1 16.2890 1 S
FDMO 8.0290 1 P
FDMO 15.5090 1 S
GIGS 4.9890 1 P
GUMA 15.5193 1 S
MC2 5.9692 1 P
MDAR 19.9092 1 S
OFFI 7.8690 1 P
RM33 2.5090 1 P
SMA1 0.6490 1 P
T1201 1.7490 1 S
T1202 3.0490 1 S
T1204 0.7990 1 P
T1211 6.1190 1 P
T1212 3.9590 1 P
T1214 3.1390 1 P
T1215 6.4990 1 P
T1215 13.2590 1 S
T1216 6.1890 1 P
T1217 5.2590 1 P
T1218 2.7190 1 P
T1241 8.7690 1 S
T1245 4.8492 1 P
T1246 5.8990 1 S
T1247 3.9990 1 P
ED01 3.5190 1 P
ED02 4.9590 1 P
ED03 1.9690 1 P
ED04 2.2890 1 S
ED06 3.6490 1 P
ED07 1.9890 1 P
ED08 4.6790 1 P
ED10 3.6990 1 P
ED11 3.6990 1 P
ED12 5.4290 1 P
ED14 4.2090 1 P
ED16 3.9890 1 P
ED17 11.5390 1 S
ED18 6.4890 1 P
ED18 12.9690 1 S
ED19 6.0790 1 P
ED19 11.4790 1 S
ED21 13.7490 1 S
ED22 13.3190 1 S
ED24 1.6790 1 P
ED25 0.7290 1 P
# 2016  10  14   04    11    55.142    42.6330    13.3378    10.0000     2     0.0     0.0    0.0   143
SMA1 1.6680 1 P
SMA1 3.0080 1 S
T1201 3.9880 1 S
T1204 1.7780 1 P
T1218 3.3580 1 P
T1246 5.5780 1 S
T1299 1.8281 1 P
T1299 3.3180 1 S
TERO 4.0680 1 P
TERO 7.3580 1 S
ED03 4.8880 1 S
ED10 7.4780 1 S
ED16 7.6480 1 S
ED22 13.0580 1 S
ED24 2.7280 1 P
ED24 4.9480 1 S
# 2016  10  14   04    12    34.038    42.6330    13.3378    10.0000     2     0.0     0.0    0.0   144
CAMP 5.0522 1 S
MMO1 9.3823 1 S
RM33 6.4222 1 S
SMA1 1.6222 1 P
T1201 2.1822 1 P
T1201 3.8722 1 S
T1204 1.7522 1 P
T1204 3.1822 1 S
T1218 3.4122 1 P
T1218 6.4322 1 S
T1246 5.3822 1 S
T1299 1.8223 1 P
T1299 3.3522 1 S
TERO 4.0222 1 P
TERO 7.2822 1 S
ED03 2.6922 1 P
ED03 4.9022 1 S
ED04 4.0922 1 S
ED16 7.7122 1 S
ED20 2.8722 1 P
ED22 13.0922 1 S
ED24 2.6822 1 P
ED24 4.9922 1 S
ED25 1.8822 1 P
ED25 3.2222 1 S
# 2016  10  14   04    14    05.334    42.6530    13.3378    8.0000     2     0.0     0.0    0.0   145
CAMP 4.8560 1 S
MMO1 9.0161 1 S
NRCA 8.6462 1 S
RM33 6.1160 1 S
SMA1 1.4060 1 P
T1201 1.8960 1 P
T1201 3.6160 1 S
T1204 1.5060 1 P
T1204 2.9260 1 S
T1212 4.3860 1 P
T1218 3.1560 1 P
T1246 2.8060 1 P
T1246 4.9960 1 S
T1299 1.5661 1 P
T1299 3.0760 1 S
TERO 3.7760 1 P
TERO 7.1060 1 S
ED03 2.4460 1 P
ED03 4.5560 1 S
ED04 3.8860 1 S
ED05 6.3160 1 S
ED07 2.3460 1 P
ED10 6.9660 1 S
ED11 7.8260 1 S
ED12 11.1960 1 S
ED14 7.7860 1 S
ED15 7.2560 1 S
ED16 7.3260 1 S
ED17 10.9260 1 S
ED18 12.2360 1 S
ED19 10.7360 1 S
ED20 2.6260 1 P
ED20 4.9660 1 S
ED21 13.2460 1 S
ED22 12.6560 1 S
ED24 2.4260 1 P
ED24 4.6660 1 S
ED25 1.6160 1 P
# 2016  10  14   04    14    30.025    42.6330    13.3178    10.0000     2     0.0     0.0    0.0   146
CAMP 5.1051 1 S
CSP1 16.5351 1 S
RM33 6.3451 1 S
SMA1 1.5651 1 P
SMA1 2.6951 1 S
T1201 2.0551 1 P
T1201 3.7851 1 S
T1204 3.0251 1 S
T1212 8.3251 1 S
T1218 6.0851 1 S
T1241 4.6251 1 P
T1246 5.4751 1 S
T1299 1.7452 1 P
T1299 3.2251 1 S
ED03 4.7751 1 S
ED04 4.2151 1 S
ED07 2.5051 1 P
ED07 4.6651 1 S
ED11 7.9951 1 S
ED14 8.0751 1 S
ED16 7.4451 1 S
ED18 12.4251 1 S
ED20 2.7551 1 P
ED24 4.8051 1 S
ED25 1.8451 1 P
ED25 3.5251 1 S
# 2016  10  14   04    15    01.298    42.6567    13.3447    6.0000     2     0.0     0.0    0.0   147
CAMP 2.3820 1 P
MMO1 8.8821 1 S
NRCA 4.4222 1 P
RM33 6.0320 1 S
SMA1 2.5020 1 S
T1201 3.4620 1 S
T1212 8.0920 1 S
T1214 2.9920 1 P
T1218 3.6220 1 P
T1218 5.8920 1 S
T1246 2.5820 1 P
T1246 5.0520 1 S
T1299 1.4221 1 P
T1299 2.8620 1 S
TERO 6.7820 1 S
ED03 2.2820 1 P
ED04 3.7220 1 S
ED05 6.1920 1 S
ED09 5.9120 1 S
ED10 3.5320 1 P
ED14 3.9320 1 P
ED16 7.1320 1 S
ED17 10.6920 1 S
ED18 12.1120 1 S
ED19 5.5220 1 P
ED19 10.9620 1 S
ED20 2.4020 1 P
ED21 13.0520 1 S
ED22 12.4920 1 S
ED24 2.2920 1 P
ED24 4.5120 1 S
ED25 1.4720 1 P
ED25 3.1320 1 S
# 2016  10  14   04    15    18.716    42.6530    13.3378    8.0000     2     0.0     0.0    0.0   148
ARRO 8.1545 1 P
CAMP 4.8543 1 S
MMO1 8.9744 1 S
RM33 6.2143 1 S
SMA1 1.3243 1 P
SMA1 2.6843 1 S
T1201 1.7943 1 P
T1201 3.6343 1 S
T1204 1.4243 1 P
T1204 2.8643 1 S
T1246 5.2343 1 S
T1299 1.4844 1 P
T1299 2.9943 1 S
TERO 3.7243 1 P
TERO 7.0043 1 S
ED03 4.5143 1 S
ED07 2.2843 1 P
ED20 2.5243 1 P
ED20 4.8443 1 S
ED22 12.5643 1 S
ED24 4.5243 1 S
ED25 1.6043 1 P
ED25 3.4043 1 S
# 2016  10  14   04    16    46.271    42.8220    13.1512    8.0000     2     0.0     0.0    0.0   149
CESI 9.1989 1 S
FDMO 4.0987 1 P
MC2 4.6989 1 S
MMO1 5.8288 1 S
NRCA 3.0289 1 S
RM33 10.9287 1 S
T1201 3.6587 1 P
T1202 5.4987 1 S
T1211 12.4287 1 S
T1212 2.3787 1 P
T1212 4.5987 1 S
T1214 1.9287 1 P
T1214 3.9087 1 S
T1215 7.6687 1 S
T1216 2.5387 1 P
T1217 7.3687 1 S
T1218 3.0687 1 P
T1218 5.9887 1 S
T1245 1.6789 1 P
T1245 3.3389 1 S
ED01 5.3387 1 P
ED02 4.9487 1 P
ED02 9.3587 1 S
ED03 8.0987 1 S
ED07 10.0487 1 S
ED10 1.5787 1 P
ED10 3.1787 1 S
ED11 3.1087 1 P
ED11 6.0487 1 S
ED12 2.8887 1 P
ED12 5.4287 1 S
ED16 5.1587 1 S
ED17 3.4987 1 P
ED17 6.6687 1 S
ED18 3.5087 1 P
ED18 7.2287 1 S
ED19 2.2787 1 P
ED19 4.4587 1 S
ED20 3.9387 1 P
ED21 4.1587 1 P
ED21 8.0587 1 S
ED22 8.5587 1 S
ED24 3.2287 1 P
ED24 6.3487 1 S
# 2016  10  14   04    17    28.611    42.8818    13.2493    4.0000     2     0.0     0.0    0.0   150
CAMP 12.2994 1 S
CESI 5.5194 1 P
CESI 10.3596 1 S
FDMO 4.0094 1 P
GIGS 9.0494 1 P
MC2 1.5796 1 P
MMO1 1.4695 1 P
NRCA 2.1496 1 P
RM33 13.2894 1 S
T1201 4.5594 1 P
T1202 6.8894 1 S
T1204 4.1094 1 P
T1204 7.8194 1 S
T1212 3.8094 1 P
T1212 7.0294 1 S
T1214 2.5294 1 P
T1214 4.6794 1 S
T1215 5.4894 1 P
T1216 3.3894 1 P
T1217 9.9394 1 S
T1218 4.3594 1 P
T1218 8.2894 1 S
T1245 0.8596 1 P
T1246 6.4194 1 P
T1246 11.9594 1 S
TERO 6.7594 1 P
TERO 12.7394 1 S
ED01 6.9594 1 P
ED01 12.9294 1 S
ED02 6.6594 1 P
ED02 12.4394 1 S
ED03 5.3894 1 P
ED03 10.0394 1 S
ED05 14.1894 1 S
ED06 14.3894 1 S
ED07 5.7394 1 P
ED09 2.9994 1 P
ED10 2.4794 1 P
ED11 8.7594 1 S
ED12 4.0894 1 P
ED12 7.6694 1 S
ED14 15.5794 1 S
ED15 14.2494 1 S
ED16 1.4894 1 P
ED17 2.2494 1 P
ED18 2.6094 1 P
ED19 1.8994 1 P
ED20 3.6094 1 P
ED20 6.7794 1 S
ED21 3.2894 1 P
ED24 4.6594 1 P
ED24 8.3094 1 S
ED25 5.8794 1 P
ED25 10.2094 1 S
# 2016  10  14   04    18    27.697    42.6530    13.3378    8.0000     2     0.0     0.0    0.0   151
CAMP 4.9331 1 S
MNTP 17.1331 1 S
NRCA 8.6033 1 S
RM33 6.1631 1 S
SMA1 1.3931 1 P
SMA1 2.5531 1 S
T1201 1.9031 1 P
T1201 3.6331 1 S
T1204 1.5431 1 P
T1204 2.8831 1 S
T1212 8.1831 1 S
T1245 4.6233 1 P
T1246 5.2031 1 S
T1299 1.5632 1 P
TERO 3.8031 1 P
TERO 7.0231 1 S
ED03 4.6431 1 S
ED04 3.9331 1 S
ED05 6.6431 1 S
ED07 2.3531 1 P
ED09 3.2331 1 P
ED10 7.0131 1 S
ED11 7.8831 1 S
ED14 7.8631 1 S
ED16 7.3231 1 S
ED18 12.2331 1 S
ED19 5.4431 1 P
ED20 2.6031 1 P
ED21 13.2431 1 S
ED22 12.7531 1 S
ED24 2.4931 1 P
ED24 4.6731 1 S
ED25 1.6431 1 P
ED25 3.3631 1 S
# 2016  10  14   04    18    44.099    42.6530    13.3378    10.0000     2     0.0     0.0    0.0   152
MMO1 9.3114 1 S
SMA1 1.6513 1 P
SMA1 2.8713 1 S
T1201 2.1113 1 P
T1201 3.8913 1 S
T1204 1.7513 1 P
T1212 8.3813 1 S
T1218 6.1313 1 S
T1246 5.5713 1 S
T1299 1.8114 1 P
T1299 3.2913 1 S
TERO 4.0413 1 P
TERO 7.3213 1 S
ED03 4.8713 1 S
ED07 2.5913 1 P
ED11 8.0213 1 S
ED20 5.1713 1 S
ED24 2.7113 1 P
ED24 4.8313 1 S
ED25 1.9313 1 P
ED25 3.6713 1 S
# 2016  10  14   04    19    21.544    42.6530    13.3378    8.0000     2     0.0     0.0    0.0   153
RM33 6.1360 1 S
SMA1 1.3460 1 P
SMA1 2.4460 1 S
T1201 1.8560 1 P
T1204 2.9360 1 S
T1218 5.9060 1 S
T1246 5.2760 1 S
T1299 1.5261 1 P
T1299 3.0160 1 S
TERO 6.9960 1 S
ED03 4.6460 1 S
ED07 2.2760 1 P
ED16 7.2760 1 S
ED24 2.4360 1 P
ED24 4.5960 1 S
ED25 1.6260 1 P
ED25 3.2960 1 S
# 2016  10  14   04    19    46.128    42.7581    13.1348    2.0000     2     0.0     0.0    0.0   154
CESI 11.1323 1 S
MC2 6.6723 1 S
NRCA 2.6223 1 S
T1201 2.9121 1 P
T1212 1.5521 1 P
T1212 3.0821 1 S
T1214 0.8921 1 P
T1218 3.4021 1 S
T1245 3.9523 1 S
ED02 8.0121 1 S
ED11 3.8921 1 S
ED12 2.6721 1 P
ED17 9.0721 1 S
ED19 5.8821 1 S
ED21 10.5421 1 S
ED24 2.1921 1 P
ED24 4.8321 1 S
# 2016  10  14   04    21    11.596    42.6530    13.3378    8.0000     2     0.0     0.0    0.0   155
MMO1 9.0139 1 S
RM33 6.2338 1 S
SMA1 1.3438 1 P
SMA1 2.6638 1 S
T1201 1.8338 1 P
T1201 3.6038 1 S
T1204 1.4438 1 P
T1204 2.9838 1 S
T1246 2.7738 1 P
T1246 5.2138 1 S
T1299 1.5039 1 P
T1299 3.0038 1 S
TERO 3.7438 1 P
TERO 7.0138 1 S
ED03 2.3938 1 P
ED03 4.5938 1 S
ED07 2.3038 1 P
ED14 7.8338 1 S
ED20 4.8838 1 S
ED24 2.3938 1 P
ED24 4.5538 1 S
ED25 1.6238 1 P
ED25 3.3438 1 S
# 2016  10  14   04    21    42.728    42.6930    13.3378    12.0000     2     0.0     0.0    0.0   156
CSP1 14.2724 1 S
FDMO 13.6524 1 S
MC2 8.9926 1 S
NRCA 8.5126 1 S
SMA1 2.2924 1 P
T1201 2.7724 1 P
T1201 4.6624 1 S
T1204 2.4024 1 P
T1204 3.9324 1 S
T1218 6.7924 1 S
T1245 8.1926 1 S
T1246 6.1924 1 S
T1299 2.4625 1 P
T1299 3.9624 1 S
TERO 4.6824 1 P
TERO 7.9624 1 S
ED07 5.3824 1 S
ED17 9.8024 1 S
ED18 10.9024 1 S
ED19 9.2524 1 S
ED21 11.7824 1 S
ED22 11.5824 1 S
ED24 5.5024 1 S
ED25 2.5724 1 P
# 2016  10  14   04    21    48.349    42.8596    13.2696    4.0000     2     0.0     0.0    0.0   157
CSP1 8.6513 1 S
FDMO 4.2113 1 P
FDMO 8.0313 1 S
MC2 3.3715 1 S
MMO1 1.3314 1 P
NRCA 2.2615 1 P
T1212 7.1713 1 S
T1214 2.4713 1 P
T1216 6.7013 1 S
T1217 10.2113 1 S
T1245 1.3515 1 P
T1245 2.5715 1 S
TERO 12.2313 1 S
ED02 12.3713 1 S
ED09 5.0513 1 S
ED10 2.4613 1 P
ED10 4.5813 1 S
ED16 1.1113 1 P
ED17 2.1713 1 P
ED17 4.1813 1 S
ED18 2.7513 1 P
ED18 5.2813 1 S
ED19 2.2513 1 P
ED20 6.1213 1 S
ED21 6.1613 1 S
ED22 5.9613 1 S
# 2016  10  14   04    24    24.061    42.6530    13.3378    8.0000     2     0.0     0.0    0.0   158
CAMP 4.9093 1 S
MMO1 9.0194 1 S
SMA1 1.3593 1 P
SMA1 2.7193 1 S
T1201 1.8793 1 P
T1201 3.5593 1 S
T1204 1.4693 1 P
T1218 6.0793 1 S
T1246 5.1893 1 S
T1299 1.5394 1 P
T1299 3.0093 1 S
TERO 3.7593 1 P
TERO 7.0593 1 S
ED03 2.3893 1 P
ED07 2.3293 1 P
ED07 4.1493 1 S
ED20 4.8593 1 S
ED22 12.6093 1 S
ED24 2.3693 1 P
ED24 4.6593 1 S
ED25 1.6493 1 P
ED25 3.3993 1 S
# 2016  10  14   04    25    05.051    42.6530    13.3378    10.0000     2     0.0     0.0    0.0   159
MMO1 9.3193 1 S
RM33 6.4192 1 S
SMA1 1.6792 1 P
T1201 2.1392 1 P
T1201 3.9492 1 S
T1204 1.8092 1 P
T1204 3.2092 1 S
T1212 8.4192 1 S
T1218 6.1992 1 S
T1246 5.5692 1 S
T1299 1.8093 1 P
TERO 7.3192 1 S
ED02 10.4192 1 S
ED03 4.8892 1 S
ED04 4.2592 1 S
ED05 6.9092 1 S
ED07 2.6192 1 P
ED11 8.0992 1 S
ED18 12.5292 1 S
ED20 2.8692 1 P
ED24 2.7392 1 P
ED24 4.9092 1 S
ED25 1.9792 1 P
ED25 3.6392 1 S
# 2016  10  14   04    25    40.647    42.9152    13.1930    6.0000     2     0.0     0.0    0.0   160
FDMO 5.2626 1 S
MC2 1.0328 1 P
MC2 2.1128 1 S
MMO1 4.2927 1 S
NRCA 4.0428 1 S
T1202 8.0926 1 S
T1212 7.4826 1 S
T1216 4.9326 1 S
ED10 5.4526 1 S
ED17 2.0526 1 P
ED17 3.9726 1 S
ED18 1.7926 1 P
ED19 1.1426 1 P
ED19 2.2026 1 S
ED21 2.5026 1 P
ED21 4.7926 1 S
ED22 5.3026 1 S
ED24 9.3626 1 S
# 2016  10  14   04    27    00.831    42.6585    13.3392    10.0000     2     0.0     0.0    0.0   161
CAMP 5.0988 1 S
MMO1 8.7889 1 S
NRCA 8.8890 1 S
RM33 6.3988 1 S
SMA1 2.9688 1 S
T1201 2.1688 1 P
T1201 4.0188 1 S
T1204 1.7988 1 P
T1214 2.7588 1 P
T1246 5.4388 1 S
T1299 1.8289 1 P
T1299 3.2988 1 S
TERO 4.0088 1 P
TERO 7.3188 1 S
ED07 2.5688 1 P
ED10 7.1788 1 S
ED12 10.9988 1 S
ED20 5.1988 1 S
ED24 2.6888 1 P
ED24 5.0088 1 S
ED25 3.6188 1 S
# 2016  10  14   04    28    27.886    42.6330    13.3378    10.0000     2     0.0     0.0    0.0   162
CAMP 5.2341 1 S
CSP1 8.7141 1 P
CSP1 15.9441 1 S
FDMO 15.1041 1 S
GIGS 9.1441 1 S
MMO1 5.1942 1 P
MMO1 9.2942 1 S
NRCA 8.9243 1 S
RM33 3.5641 1 P
SMA1 1.7341 1 P
T1201 2.2341 1 P
T1201 3.9841 1 S
T1204 1.8541 1 P
T1211 6.9441 1 P
T1212 4.7241 1 P
T1212 8.5341 1 S
T1214 6.2741 1 S
T1217 5.8241 1 P
T1217 10.6941 1 S
T1218 3.4841 1 P
T1245 9.1243 1 S
T1246 3.1441 1 P
T1246 5.3341 1 S
T1299 1.9442 1 P
T1299 3.5241 1 S
TERO 4.1241 1 P
TERO 7.4341 1 S
ED02 5.7441 1 P
ED02 10.5341 1 S
ED03 2.8041 1 P
ED04 2.4141 1 P
ED06 7.5541 1 S
ED09 3.6041 1 P
ED09 6.5641 1 S
ED10 7.2841 1 S
ED11 4.4841 1 P
ED11 8.1241 1 S
ED12 11.5241 1 S
ED14 7.7041 1 S
ED15 4.1741 1 P
ED15 7.6741 1 S
ED16 4.2641 1 P
ED16 7.6641 1 S
ED17 6.1741 1 P
ED18 6.8541 1 P
ED18 12.5741 1 S
ED19 11.0741 1 S
ED20 2.7841 1 P
ED21 7.3341 1 P
ED21 13.4541 1 S
ED22 12.9741 1 S
ED24 2.7641 1 P
ED25 1.9041 1 P
# 2016  10  14   04    29    13.920    42.6530    13.3378    8.0000     2     0.0     0.0    0.0   163
CAMP 4.9000 1 S
CSP1 15.7500 1 S
FDMO 14.8900 1 S
MMO1 9.1001 1 S
NRCA 8.5802 1 S
RM33 3.1900 1 P
RM33 6.1700 1 S
SMA1 1.4200 1 P
T1201 1.8800 1 P
T1201 3.5700 1 S
T1204 1.4900 1 P
T1212 4.3900 1 P
T1212 8.2100 1 S
T1214 5.9600 1 S
T1218 3.1500 1 P
T1241 7.3900 1 S
T1245 8.7902 1 S
T1246 2.7800 1 P
T1246 5.2100 1 S
T1299 1.5801 1 P
T1299 3.0400 1 S
TERO 3.7600 1 P
TERO 7.0400 1 S
ED03 2.4400 1 P
ED04 2.0000 1 P
ED04 3.8700 1 S
ED05 6.5900 1 S
ED07 2.3300 1 P
ED09 6.1700 1 S
ED11 7.8300 1 S
ED14 7.7900 1 S
ED16 7.3500 1 S
ED17 10.9500 1 S
ED18 12.2600 1 S
ED19 10.7700 1 S
ED20 2.6400 1 P
ED20 4.9300 1 S
ED21 13.2100 1 S
ED24 2.4100 1 P
ED24 4.6800 1 S
ED25 1.6600 1 P
# 2016  10  14   04    32    02.918    42.7398    13.2533    2.0000     2     0.0     0.0    0.0   164
GIGS 12.6716 1 S
RM33 9.1316 1 S
T1201 1.7416 1 P
T1202 1.9916 1 S
T1214 0.9516 1 P
T1214 2.0716 1 S
T1218 2.2616 1 P
T1218 4.4816 1 S
T1246 4.2916 1 P
T1246 8.2616 1 S
T1299 4.3316 1 S
TERO 10.8716 1 S
ED03 2.7616 1 P
ED17 4.4016 1 P
ED18 4.9716 1 P
ED20 4.9216 1 S
ED24 2.0016 1 P
# 2016  10  14   04    33    10.061    42.6530    13.3378    10.0000     2     0.0     0.0    0.0   165
RM33 6.4588 1 S
SMA1 1.6788 1 P
T1201 2.1688 1 P
T1204 3.2688 1 S
T1218 6.2288 1 S
T1246 5.5988 1 S
T1299 1.8589 1 P
T1299 3.3388 1 S
TERO 7.3288 1 S
ED03 4.9488 1 S
ED07 2.6088 1 P
ED11 8.1488 1 S
ED20 2.8688 1 P
ED24 4.9588 1 S
ED25 1.9488 1 P
ED25 3.6188 1 S
# 2016  10  14   04    34    13.279    42.6530    13.3378    10.0000     2     0.0     0.0    0.0   166
RM33 6.4107 1 S
SMA1 1.6307 1 P
T1201 3.8407 1 S
T1204 3.2907 1 S
T1212 8.4007 1 S
T1218 6.1607 1 S
T1246 3.0307 1 P
T1246 5.5807 1 S
T1299 1.7908 1 P
T1299 3.2907 1 S
TERO 4.0107 1 P
TERO 7.3607 1 S
ED03 4.8907 1 S
ED05 6.8607 1 S
ED07 2.5607 1 P
ED20 2.8307 1 P
ED20 5.1807 1 S
ED24 2.6907 1 P
ED24 4.8507 1 S
ED25 3.5807 1 S
# 2016  10  14   04    35    27.501    42.6981    13.1948    8.0000     2     0.0     0.0    0.0   167
MMO1 8.2996 1 S
RM33 6.7395 1 S
SMA1 5.1995 1 S
T1201 1.7795 1 P
T1211 10.5695 1 S
T1212 2.7095 1 P
T1212 5.0895 1 S
T1214 1.9895 1 P
T1215 4.9495 1 P
T1215 9.2895 1 S
T1217 7.3595 1 S
T1218 1.8495 1 P
T1218 3.1995 1 S
T1299 2.1096 1 P
ED01 6.6995 1 S
ED02 4.0795 1 P
ED02 7.7295 1 S
ED03 2.1195 1 P
ED03 4.0895 1 S
ED05 8.6995 1 S
ED07 3.8895 1 P
ED07 7.3995 1 S
ED09 3.6795 1 P
ED09 7.0695 1 S
ED10 4.2195 1 S
ED11 2.5895 1 P
ED11 4.8995 1 S
ED12 7.4095 1 S
ED17 10.0395 1 S
ED20 3.3995 1 P
ED20 6.4395 1 S
ED24 1.5595 1 P
ED25 6.0495 1 S
# 2016  10  14   04    36    25.542    42.6530    13.3378    8.0000     2     0.0     0.0    0.0   168
SMA1 1.3984 1 P
SMA1 2.7084 1 S
T1201 1.8884 1 P
T1201 3.6084 1 S
T1204 1.4684 1 P
T1218 3.1484 1 P
T1218 6.0284 1 S
T1246 5.1984 1 S
T1299 1.5785 1 P
T1299 3.0284 1 S
TERO 3.7684 1 P
TERO 7.0384 1 S
ED03 2.4484 1 P
ED05 3.3084 1 P
ED05 6.4484 1 S
ED07 2.4084 1 P
ED07 4.1484 1 S
ED14 7.8684 1 S
ED20 4.8284 1 S
ED21 13.1784 1 S
ED24 2.3984 1 P
ED24 4.6684 1 S
ED25 3.3184 1 S
# 2016  10  14   04    37    40.006    42.8790    13.2505    2.0000     2     0.0     0.0    0.0   169
FDMO 7.3035 1 S
MC2 2.5837 1 S
MMO1 1.4336 1 P
NRCA 4.1737 1 S
T1216 6.2535 1 S
T1218 8.7935 1 S
T1245 1.1737 1 P
ED10 4.9135 1 S
ED12 8.1935 1 S
ED17 2.0235 1 P
ED17 3.7035 1 S
ED18 4.5435 1 S
ED19 1.8335 1 P
ED19 3.4335 1 S
ED20 7.1035 1 S
ED21 5.7135 1 S
ED24 8.4635 1 S
# 2016  10  14   04    40    18.837    42.8760    13.0768    2.0000     2     0.0     0.0    0.0   170
CESI 7.1028 1 S
FDMO 3.4126 1 P
FDMO 6.2926 1 S
MMO1 3.5627 1 P
MMO1 6.8527 1 S
NRCA 0.9728 1 P
NRCA 1.9128 1 S
T1212 4.8926 1 S
T1216 1.1426 1 P
T1216 2.2526 1 S
T1245 3.3828 1 S
T1246 14.7026 1 S
ED11 7.4026 1 S
ED17 3.7026 1 P
ED17 7.2626 1 S
ED19 1.5626 1 P
ED19 2.5226 1 S
# 2016  10  14   04    40    47.930    42.8590    13.1505    2.0000     2     0.0     0.0    0.0   171
FDMO 7.3099 1 S
MC2 1.6101 1 P
MMO1 5.1500 1 S
NRCA 0.7901 1 P
T1212 2.6299 1 P
T1212 5.0099 1 S
T1214 4.2499 1 S
T1215 7.9999 1 S
T1217 8.0999 1 S
T1218 7.5599 1 S
T1245 0.6701 1 P
TERO 7.3699 1 P
ED10 1.4399 1 P
ED11 7.1999 1 S
ED17 3.1299 1 P
ED17 6.0599 1 S
ED21 3.8599 1 P
ED21 7.5099 1 S
ED22 7.8299 1 S
# 2016  10  14   04    43    16.432    42.6530    13.3178    8.0000     2     0.0     0.0    0.0   172
CAMP 4.8977 1 S
RM33 6.0877 1 S
SMA1 1.3577 1 P
SMA1 2.3177 1 S
T1201 1.8377 1 P
T1201 3.5677 1 S
T1204 1.4977 1 P
T1204 2.5577 1 S
T1212 8.1377 1 S
T1218 5.8177 1 S
T1246 2.7777 1 P
T1246 5.2577 1 S
T1299 1.5278 1 P
ED03 4.0377 1 S
ED04 3.9577 1 S
ED05 6.5677 1 S
ED07 2.2977 1 P
ED10 6.7577 1 S
ED11 7.7277 1 S
ED16 7.2777 1 S
ED18 12.2377 1 S
ED20 2.5477 1 P
ED24 2.4477 1 P
ED24 4.5977 1 S
ED25 1.6477 1 P
ED25 3.3177 1 S
# 2016  10  14   04    44    08.145    42.7396    13.1837    16.0000     2     0.0     0.0    0.0   173
CSP1 13.2548 1 S
FDMO 10.6648 1 S
MMO1 8.3849 1 S
NRCA 2.9050 1 P
SMA1 4.1748 1 P
T1201 6.4148 1 S
T1212 6.3748 1 S
T1214 4.3348 1 S
T1245 3.2650 1 P
T1299 5.8348 1 S
TERO 6.5848 1 P
ED07 5.1348 1 P
ED10 2.7548 1 P
ED12 7.5248 1 S
ED16 6.7348 1 S
ED17 9.2948 1 S
ED18 9.6848 1 S
ED20 7.6748 1 S
ED21 10.9048 1 S
ED22 11.2448 1 S
ED25 4.4648 1 P
# 2016  10  14   04    44    55.601    42.8821    13.1417    2.0000     2     0.0     0.0    0.0   174
CESI 7.6587 1 S
CSP1 7.7585 1 S
FDMO 5.6685 1 S
MC2 1.2287 1 P
MMO1 2.7486 1 P
MMO1 5.3686 1 S
NRCA 1.2987 1 P
NRCA 1.9687 1 S
T1212 3.0785 1 P
T1212 5.8085 1 S
T1216 1.8185 1 P
T1216 3.2885 1 S
T1218 7.9985 1 S
T1245 1.2787 1 P
T1245 1.9187 1 S
ED02 11.1685 1 S
ED10 3.6885 1 S
ED17 2.8385 1 P
ED17 5.5285 1 S
ED18 2.5285 1 P
ED19 0.9685 1 P
ED21 3.3085 1 P
ED21 6.3885 1 S
# 2016  10  14   04    45    18.519    42.7325    13.1777    6.0000     2     0.0     0.0    0.0   175
CSP1 12.5712 1 S
MMO1 3.6513 1 P
MMO1 7.0613 1 S
NRCA 2.1314 1 P
NRCA 4.0714 1 S
RM33 8.6012 1 S
T1201 2.2612 1 P
T1202 2.4112 1 S
T1212 2.1612 1 P
T1212 4.2112 1 S
T1214 0.8912 1 P
T1215 8.7212 1 S
T1218 1.8412 1 P
T1246 5.1312 1 P
T1246 9.6212 1 S
TERO 5.9112 1 P
TERO 11.1612 1 S
ED02 4.4212 1 P
ED03 2.7712 1 P
ED03 5.3312 1 S
ED05 10.4512 1 S
ED09 3.5012 1 P
ED09 6.7512 1 S
ED10 1.2312 1 P
ED11 2.4712 1 P
ED12 3.3212 1 P
ED17 4.6412 1 P
ED17 8.8612 1 S
ED18 9.4512 1 S
ED20 3.3912 1 P
ED20 6.6612 1 S
ED21 10.7112 1 S
# 2016  10  14   04    45    42.168    42.7596    13.1637    10.0000     2     0.0     0.0    0.0   176
FDMO 5.1424 1 P
MC2 3.4926 1 P
MC2 6.2826 1 S
MMO1 3.8425 1 P
MMO1 7.2425 1 S
NRCA 2.2826 1 P
T1201 2.9524 1 P
T1201 5.4824 1 S
T1202 4.0224 1 S
T1212 2.3824 1 P
T1212 4.1624 1 S
T1214 1.6924 1 P
T1214 3.1524 1 S
T1215 8.1524 1 S
T1217 6.9124 1 S
T1218 2.4224 1 P
T1218 4.4924 1 S
T1246 10.4824 1 S
TERO 11.9724 1 S
ED02 4.6224 1 P
ED02 8.4524 1 S
ED03 6.6024 1 S
ED10 1.5824 1 P
ED11 2.7824 1 P
ED12 3.4624 1 P
ED12 5.9924 1 S
ED16 5.7224 1 S
ED17 4.5924 1 P
ED19 3.3324 1 P
ED20 7.1624 1 S
ED21 5.5224 1 P
ED21 9.7024 1 S
ED24 2.5224 1 P
