# 2016  10  14   05    50    48.822    42.7420    13.2312    6.0000     2     0.0     0.0    0.0   211
ARRO 7.2380 1 P
CAMP 4.6178 1 P
CAMP 8.6078 1 S
CESI 6.5278 1 P
CESI 12.2180 1 S
CSP1 6.4778 1 P
CSP1 12.2078 1 S
FDMO 5.7278 1 P
FDMO 10.7678 1 S
FEMA 9.2778 1 S
GIGS 6.8978 1 P
GUMA 6.4379 1 P
MC2 3.3480 1 P
MMO1 3.3879 1 P
MMO1 6.3979 1 S
NRCA 2.4280 1 P
RM33 4.4178 1 P
SMA1 2.9278 1 P
T1202 1.9778 1 S
T1204 2.3678 1 P
T1211 6.3878 1 P
T1212 2.9678 1 P
T1212 5.4378 1 S
T1214 1.2378 1 P
T1215 5.1278 1 P
T1216 3.9278 1 P
T1217 4.1778 1 P
T1218 2.2078 1 P
T1245 2.2080 1 P
T1246 4.7578 1 P
T1246 8.8478 1 S
T1299 2.6379 1 P
TERO 5.5178 1 P
TERO 10.3578 1 S
ED01 4.4978 1 P
ED01 8.7578 1 S
ED02 4.8278 1 P
ED03 2.9178 1 P
ED04 3.6878 1 P
ED05 5.3278 1 P
ED05 10.0778 1 S
ED06 5.3378 1 P
ED06 10.0078 1 S
ED07 4.1278 1 P
ED08 5.6678 1 P
ED08 11.0578 1 S
ED09 2.9878 1 P
ED09 5.6578 1 S
ED10 1.7978 1 P
ED11 2.8178 1 P
ED12 3.8878 1 P
ED14 6.1878 1 P
ED14 11.5478 1 S
ED15 5.8278 1 P
ED15 10.9678 1 S
ED16 2.5278 1 P
ED16 4.6578 1 S
ED17 4.2778 1 P
ED18 8.9278 1 S
ED19 3.3478 1 P
ED19 6.9778 1 S
ED20 2.8678 1 P
ED21 5.3178 1 P
ED24 1.9878 1 P
ED25 3.4878 1 P
# 2016  10  14   05    51    52.107    42.8226    13.3662    16.0000     2     0.0     0.0    0.0   212
CSP1 11.1825 1 S
MMO1 5.6026 1 S
RM33 12.2725 1 S
SMA1 7.9325 1 S
T1202 7.5725 1 S
T1214 6.5525 1 S
T1218 4.8825 1 P
T1218 9.0525 1 S
T1246 5.3625 1 P
T1246 9.8825 1 S
ED07 4.6825 1 P
ED07 8.6025 1 S
ED09 2.7725 1 P
ED19 7.8125 1 S
ED20 3.1225 1 P
ED21 8.7525 1 S
ED24 4.7025 1 P
ED24 8.6925 1 S
# 2016  10  14   05    52    19.009    42.6255    13.2328    10.0000     2     0.0     0.0    0.0   213
GIGS 10.4109 1 S
RM33 2.6809 1 P
RM33 5.1809 1 S
SMA1 4.3709 1 S
T1201 1.8309 1 P
T1202 4.4309 1 S
T1204 2.3209 1 P
T1204 4.3709 1 S
T1214 5.8709 1 S
T1218 2.3509 1 P
T1218 4.2309 1 S
T1299 1.7910 1 P
T1299 3.3209 1 S
ED01 5.6709 1 S
ED02 7.9909 1 S
ED03 1.7309 1 P
ED03 3.1709 1 S
ED05 6.8309 1 S
ED06 3.4109 1 P
ED07 6.6409 1 S
ED10 6.2809 1 S
ED11 6.1309 1 S
ED12 9.5209 1 S
ED14 4.6909 1 P
ED16 8.4609 1 S
ED20 6.9809 1 S
ED24 1.7609 1 P
ED25 4.6509 1 S
# 2016  10  14   05    54    11.371    42.7460    13.1873    4.0000     2     0.0     0.0    0.0   214
MMO1 6.3793 1 S
RM33 8.5392 1 S
T1201 2.2692 1 P
T1201 4.3892 1 S
T1202 1.2992 1 P
T1202 1.8492 1 S
T1204 2.2892 1 P
T1212 2.3192 1 P
T1212 4.0492 1 S
T1214 1.3092 1 S
T1215 4.8292 1 P
T1215 8.9092 1 S
T1218 1.8792 1 P
T1218 3.4792 1 S
T1246 9.3792 1 S
TERO 11.1892 1 S
ED02 4.4592 1 P
ED02 8.3592 1 S
ED03 2.8492 1 P
ED03 5.2192 1 S
ED05 10.4092 1 S
ED07 8.5492 1 S
ED10 1.3792 1 P
ED11 2.5392 1 P
ED12 3.4992 1 P
ED12 6.4292 1 S
ED16 4.8392 1 S
ED19 6.1892 1 S
ED20 3.5292 1 P
ED20 6.7792 1 S
ED24 1.8292 1 P
ED24 3.3392 1 S
ED25 7.2392 1 S
# 2016  10  14   05    56    08.527    42.7420    13.1912    4.0000     2     0.0     0.0    0.0   215
CAMP 9.1733 1 S
CESI 12.0235 1 S
MMO1 7.1534 1 S
NRCA 2.1835 1 P
NRCA 3.7635 1 S
RM33 8.5233 1 S
T1201 2.0633 1 P
T1201 4.1233 1 S
T1202 1.0733 1 P
T1204 2.3133 1 P
T1204 4.6433 1 S
T1211 11.5133 1 S
T1212 2.1233 1 P
T1212 4.1933 1 S
T1214 0.6433 1 P
T1215 8.8233 1 S
T1218 1.7333 1 P
T1246 9.3533 1 S
TERO 5.7933 1 P
TERO 11.0033 1 S
ED01 8.2633 1 S
ED02 4.3333 1 P
ED02 8.2833 1 S
ED05 10.2733 1 S
ED07 4.3133 1 P
ED07 8.3233 1 S
ED09 6.9133 1 S
ED10 1.1933 1 P
ED11 2.3833 1 P
ED12 3.2933 1 P
ED14 11.9933 1 S
ED16 5.2233 1 S
ED17 4.6533 1 P
ED17 8.9233 1 S
ED20 3.2833 1 P
ED24 1.8433 1 P
ED24 3.2633 1 S
ED25 7.2533 1 S
# 2016  10  14   05    58    34.093    42.8732    13.0615    4.0000     2     0.0     0.0    0.0   216
FDMO 6.1874 1 S
MC2 4.3676 1 S
MMO1 6.9075 1 S
NRCA 0.9976 1 P
NRCA 2.2876 1 S
T1212 2.4474 1 P
T1212 4.7274 1 S
T1215 6.1174 1 S
T1216 0.8774 1 P
T1245 3.4776 1 S
ED11 3.8374 1 P
ED11 6.9274 1 S
ED12 1.9274 1 P
ED16 6.8674 1 S
ED17 3.6474 1 P
ED19 1.3674 1 P
ED21 4.0874 1 P
ED21 7.8674 1 S
# 2016  10  14   05    59    54.960    42.7620    13.1912    4.0000     2     0.0     0.0    0.0   217
NRCA 1.9802 1 P
NRCA 3.3402 1 S
T1201 4.7300 1 S
T1202 2.7400 1 S
T1204 2.7800 1 P
T1212 4.2900 1 S
T1214 0.7000 1 P
T1215 8.4000 1 S
T1218 3.8300 1 S
T1299 2.8501 1 P
ED03 5.9400 1 S
ED10 1.1300 1 P
ED10 1.8600 1 S
ED11 2.4500 1 P
ED12 6.1000 1 S
ED17 8.5100 1 S
ED20 3.6400 1 P
ED20 6.4600 1 S
# 2016  10  14   06    02    04.479    42.7420    13.1912    4.0000     2     0.0     0.0    0.0   218
CAMP 8.8910 1 S
CESI 11.9712 1 S
MMO1 7.1011 1 S
NRCA 2.2412 1 P
NRCA 4.1312 1 S
RM33 8.5410 1 S
T1201 2.0810 1 P
T1202 1.1110 1 P
T1204 2.3510 1 P
T1204 4.6810 1 S
T1211 11.5710 1 S
T1212 2.1910 1 P
T1212 4.1910 1 S
T1214 0.6710 1 P
T1215 4.5710 1 P
T1215 8.8910 1 S
T1218 1.7010 1 P
T1246 4.9610 1 P
T1246 9.4110 1 S
TERO 5.8110 1 P
TERO 11.0310 1 S
ED02 4.3810 1 P
ED03 2.6410 1 P
ED03 5.1710 1 S
ED05 10.2910 1 S
ED07 4.3210 1 P
ED07 8.3710 1 S
ED10 1.2010 1 P
ED11 2.4310 1 P
ED12 3.3510 1 P
ED16 5.2710 1 S
ED17 4.6610 1 P
ED17 8.9810 1 S
ED20 3.3310 1 P
ED24 1.6110 1 P
ED25 7.2910 1 S
# 2016  10  14   06    06    08.711    42.5968    13.2997    6.0000     2     0.0     0.0    0.0   219
RM33 2.0985 1 P
SMA1 1.4285 1 P
SMA1 2.7485 1 S
T1201 1.8985 1 P
T1204 1.9085 1 P
T1204 3.7385 1 S
T1246 2.7885 1 P
T1246 5.3285 1 S
T1299 1.2486 1 P
T1299 2.4785 1 S
TERO 4.1485 1 P
TERO 7.9185 1 S
ED01 3.1685 1 P
ED04 0.9885 1 P
ED04 2.1385 1 S
ED05 2.4485 1 P
ED05 4.7485 1 S
ED07 2.5185 1 P
ED25 1.2485 1 P
# 2016  10  14   06    08    09.723    42.6530    13.3378    6.0000     2     0.0     0.0    0.0   220
CSP1 15.5169 1 S
RM33 5.9069 1 S
SMA1 1.1069 1 P
SMA1 2.2369 1 S
T1201 1.6269 1 P
T1204 1.2469 1 P
T1204 2.5969 1 S
T1218 5.6869 1 S
T1246 4.9769 1 S
T1299 1.3070 1 P
TERO 3.5069 1 P
TERO 6.7569 1 S
ED03 4.4169 1 S
ED05 6.3069 1 S
ED07 2.0369 1 P
ED16 7.0669 1 S
ED20 2.3169 1 P
ED24 4.3669 1 S
ED25 1.3869 1 P
ED25 3.0569 1 S
# 2016  10  14   06    09    11.928    42.6330    13.3178    12.0000     2     0.0     0.0    0.0   221
CAMP 5.4722 1 S
SEF1 10.4024 1 P
SMA1 1.9522 1 P
SMA1 3.2622 1 S
T1201 2.4722 1 P
T1201 4.1822 1 S
T1204 2.0922 1 P
T1204 3.4322 1 S
T1218 6.5222 1 S
T1246 5.8322 1 S
T1299 2.1323 1 P
T1299 3.6322 1 S
TERO 7.6522 1 S
ED04 4.5222 1 S
ED07 2.9022 1 P
ED07 5.0122 1 S
ED16 7.8822 1 S
ED24 5.2222 1 S
ED25 2.2222 1 P
ED25 3.9122 1 S
# 2016  10  14   06    09    57.244    42.7620    13.2312    10.0000     2     0.0     0.0    0.0   222
FDMO 5.6057 1 P
MC2 3.3759 1 P
MMO1 3.2558 1 P
MMO1 6.1258 1 S
NRCA 2.5859 1 P
RM33 9.1357 1 S
SMA1 3.1257 1 P
SMA1 5.8457 1 S
T1201 2.7257 1 P
T1204 2.5857 1 P
T1204 4.7857 1 S
T1212 3.0957 1 P
T1212 5.7057 1 S
T1214 1.6457 1 P
T1215 9.6757 1 S
T1218 2.8957 1 P
T1218 5.5257 1 S
T1245 2.5159 1 P
T1246 4.9057 1 P
T1246 9.2457 1 S
T1299 3.0158 1 P
T1299 5.6857 1 S
ED05 10.7457 1 S
ED07 4.1557 1 P
ED07 7.8457 1 S
ED10 2.0357 1 P
ED10 3.7857 1 S
ED11 3.4357 1 P
ED11 6.4457 1 S
ED12 7.2657 1 S
ED16 2.4757 1 P
ED16 4.6657 1 S
ED17 4.1157 1 P
ED17 7.7957 1 S
ED18 8.6657 1 S
ED19 3.5857 1 P
ED22 9.4857 1 S
ED24 2.6757 1 P
ED24 5.0057 1 S
ED25 3.6957 1 P
ED25 7.0557 1 S
# 2016  10  14   06    14    23.656    42.6530    13.3378    8.0000     2     0.0     0.0    0.0   223
CAMP 4.9942 1 S
MMO1 9.0443 1 S
NRCA 8.5844 1 S
RM33 3.2842 1 P
RM33 6.1742 1 S
SMA1 1.4542 1 P
SMA1 2.5442 1 S
T1201 1.9042 1 P
T1204 1.5242 1 P
T1204 2.9642 1 S
T1212 8.1442 1 S
T1218 3.1742 1 P
T1218 5.8742 1 S
T1246 2.8742 1 P
T1246 5.3342 1 S
T1299 1.5943 1 P
T1299 3.1142 1 S
TERO 7.1942 1 S
ED03 2.5042 1 P
ED04 2.0842 1 P
ED05 3.3642 1 P
ED05 6.4042 1 S
ED07 2.3842 1 P
ED09 6.1142 1 S
ED10 6.8842 1 S
ED12 11.0742 1 S
ED14 4.2142 1 P
ED14 7.9442 1 S
ED16 7.3042 1 S
ED17 11.0242 1 S
ED20 4.9242 1 S
ED22 12.7842 1 S
ED24 2.4442 1 P
ED25 1.7642 1 P
# 2016  10  14   06    19    59.192    42.8160    13.1568    8.0000     2     0.0     0.0    0.0   224
CESI 5.2880 1 P
CSP1 5.5280 1 P
FDMO 4.5780 1 P
MC2 2.5082 1 P
MMO1 5.9181 1 S
NRCA 1.3882 1 P
RM33 5.6080 1 P
RM33 10.8180 1 S
T1201 3.5980 1 P
T1202 2.7680 1 P
T1202 4.8880 1 S
T1204 3.6280 1 P
T1204 6.7580 1 S
T1211 12.4080 1 S
T1212 2.1580 1 P
T1214 1.5280 1 P
T1215 4.1980 1 P
T1216 2.8280 1 P
T1216 5.1680 1 S
T1217 3.8680 1 P
T1217 7.3580 1 S
T1218 2.8280 1 P
T1245 1.6182 1 P
T1245 3.2582 1 S
T1246 6.1480 1 P
T1299 4.0481 1 P
TERO 6.8780 1 P
ED01 5.4280 1 P
ED01 10.1580 1 S
ED02 5.0580 1 P
ED02 9.4480 1 S
ED03 4.0080 1 P
ED04 9.7180 1 S
ED05 6.6380 1 P
ED05 12.5880 1 S
ED06 12.3980 1 S
ED07 10.1580 1 S
ED09 3.7680 1 P
ED09 7.0580 1 S
ED10 1.3080 1 P
ED11 3.0880 1 P
ED12 2.8680 1 P
ED14 7.7580 1 P
ED16 2.5980 1 P
ED16 4.6680 1 S
ED17 3.7180 1 P
ED18 3.8980 1 P
ED19 2.4180 1 P
ED19 4.7580 1 S
ED20 4.0180 1 P
ED20 7.4780 1 S
ED21 4.5880 1 P
ED24 3.0980 1 P
ED25 5.0680 1 P
# 2016  10  14   06    21    55.845    42.7420    13.1712    4.0000     2     0.0     0.0    0.0   225
CESI 11.6755 1 S
CSP1 12.4353 1 S
MC2 3.2955 1 P
MMO1 3.4954 1 P
NRCA 1.9655 1 P
NRCA 3.7355 1 S
SMA1 2.9953 1 P
T1201 2.3153 1 P
T1201 4.5353 1 S
T1202 2.5053 1 S
T1204 4.6053 1 S
T1212 2.0853 1 P
T1212 4.0653 1 S
T1214 0.7853 1 P
T1215 8.4253 1 S
T1218 1.8453 1 P
T1299 2.9354 1 P
T1299 4.7353 1 S
ED02 4.4053 1 P
ED02 8.3653 1 S
ED03 5.4853 1 S
ED09 6.9053 1 S
ED10 1.0553 1 P
ED12 3.2253 1 P
ED12 6.2753 1 S
ED16 2.5853 1 P
ED17 4.4753 1 P
ED17 8.5953 1 S
ED18 9.1853 1 S
ED19 6.7353 1 S
ED20 3.4653 1 P
ED21 10.5653 1 S
ED24 1.7553 1 P
ED24 3.3453 1 S
# 2016  10  14   06    23    52.126    42.7460    13.1673    10.0000     2     0.0     0.0    0.0   226
CESI 11.6242 1 S
MC2 6.8942 1 S
MMO1 3.9641 1 P
MMO1 7.4041 1 S
NRCA 2.4642 1 P
SMA1 3.4740 1 P
T1201 2.7340 1 P
T1202 2.1240 1 P
T1202 3.9940 1 S
T1204 5.3740 1 S
T1212 2.2540 1 P
T1214 1.4440 1 P
T1215 4.5740 1 P
T1217 3.7540 1 P
T1218 2.1840 1 P
T1218 4.0940 1 S
T1245 2.7742 1 P
T1245 5.2442 1 S
T1246 5.3840 1 P
T1299 5.5840 1 S
TERO 6.2940 1 P
ED01 4.4840 1 P
ED01 8.2340 1 S
ED02 4.4040 1 P
ED03 3.0740 1 P
ED03 5.7640 1 S
ED05 10.8040 1 S
ED07 4.6940 1 P
ED09 3.8540 1 P
ED10 1.7840 1 P
ED11 2.7240 1 P
ED12 3.2840 1 P
ED14 6.6840 1 P
ED14 12.3740 1 S
ED16 3.2140 1 P
ED16 5.8540 1 S
ED17 4.7440 1 P
ED17 8.7640 1 S
ED18 9.4540 1 S
ED19 3.7740 1 P
ED19 6.9440 1 S
ED20 3.7540 1 P
ED21 5.6740 1 P
ED21 10.4640 1 S
ED22 10.3840 1 S
ED24 2.3740 1 P
ED24 4.3940 1 S
ED25 3.9940 1 P
ED25 7.7540 1 S
# 2016  10  14   06    25    44.224    42.6413    13.3344    8.0000     2     0.0     0.0    0.0   227
CAMP 4.8364 1 S
GIGS 8.7564 1 S
NRCA 8.5866 1 S
SMA1 2.6164 1 S
T1201 3.6964 1 S
T1204 2.8064 1 S
T1212 8.2564 1 S
T1218 3.1564 1 P
T1246 5.1564 1 S
T1299 2.9864 1 S
TERO 3.7664 1 P
TERO 6.9764 1 S
ED05 3.2464 1 P
ED07 2.2764 1 P
ED11 7.8364 1 S
ED14 4.1064 1 P
ED16 7.2864 1 S
ED20 4.8164 1 S
ED24 2.4364 1 P
ED24 4.6964 1 S
ED25 1.6264 1 P
ED25 3.1664 1 S
# 2016  10  14   06    26    22.009    42.6585    13.3392    6.0000     2     0.0     0.0    0.0   228
CAMP 5.1609 1 S
SMA1 1.0709 1 P
SMA1 2.1909 1 S
T1201 1.5409 1 P
T1201 3.1309 1 S
T1204 1.0009 1 P
T1204 2.1709 1 S
T1214 5.5509 1 S
T1246 5.4109 1 S
T1299 2.5609 1 S
TERO 7.3309 1 S
ED07 2.1409 1 P
ED16 6.5709 1 S
ED20 2.1509 1 P
ED20 4.2109 1 S
ED24 2.2409 1 P
ED24 4.2909 1 S
ED25 3.0309 1 S
# 2016  10  14   06    27    38.903    42.7420    13.1912    4.0000     2     0.0     0.0    0.0   229
MMO1 7.0975 1 S
NRCA 4.1276 1 S
T1201 2.1374 1 P
T1202 2.2074 1 S
T1212 2.1774 1 P
T1212 4.2274 1 S
T1214 0.7874 1 P
T1218 1.8074 1 P
T1218 3.5774 1 S
T1246 9.4774 1 S
TERO 11.1174 1 S
ED02 4.4274 1 P
ED02 8.5474 1 S
ED05 10.3774 1 S
ED07 8.4174 1 S
ED10 2.2474 1 S
ED11 2.4774 1 P
ED12 3.4074 1 P
ED17 4.6674 1 P
ED17 8.9874 1 S
ED20 6.4974 1 S
ED24 1.6174 1 P
# 2016  10  14   06    28    04.035    42.7420    13.1912    4.0000     2     0.0     0.0    0.0   230
NRCA 4.1150 1 S
RM33 8.6948 1 S
T1201 2.1648 1 P
T1202 1.1548 1 P
T1202 2.1648 1 S
T1214 0.7448 1 P
T1218 1.7848 1 P
T1218 3.6848 1 S
T1246 9.5848 1 S
ED02 4.5348 1 P
ED02 8.4948 1 S
ED03 5.3548 1 S
ED10 1.2748 1 P
ED11 2.5448 1 P
ED12 6.5948 1 S
ED17 8.9748 1 S
ED19 7.1248 1 S
ED20 3.3048 1 P
ED20 6.4448 1 S
ED24 1.6648 1 P
ED24 3.3248 1 S
# 2016  10  14   06    30    44.451    42.7420    13.1712    10.0000     2     0.0     0.0    0.0   231
MMO1 7.3694 1 S
NRCA 2.4895 1 P
T1202 3.9593 1 S
T1212 2.4093 1 P
T1214 1.7593 1 P
T1214 3.1193 1 S
T1217 6.9693 1 S
T1218 2.2593 1 P
T1218 4.2193 1 S
T1245 5.1995 1 S
T1246 9.9293 1 S
ED10 1.7693 1 P
ED11 2.6893 1 P
ED12 3.5093 1 P
ED12 6.2293 1 S
ED16 5.9393 1 S
ED17 8.7593 1 S
ED19 6.9393 1 S
ED24 4.3393 1 S
# 2016  10  14   06    31    52.361    42.6781    13.1948    8.0000     2     0.0     0.0    0.0   232
NRCA 6.2890 1 S
RM33 6.2588 1 S
SMA1 5.0588 1 S
T1201 1.7588 1 P
T1212 5.2188 1 S
T1214 2.1588 1 P
T1214 4.1788 1 S
T1218 1.7288 1 P
T1245 6.3590 1 S
T1246 8.7588 1 S
ED01 3.4288 1 P
ED01 6.3588 1 S
ED02 3.9388 1 P
ED02 7.3888 1 S
ED03 1.9188 1 P
ED03 3.6588 1 S
ED07 7.5188 1 S
ED10 4.4488 1 S
ED11 2.5288 1 P
ED11 4.8488 1 S
ED20 6.8488 1 S
ED24 1.4288 1 P
ED25 5.8688 1 S
# 2016  10  14   06    32    53.023    42.6530    13.3378    8.0000     2     0.0     0.0    0.0   233
CAMP 2.7172 1 P
CAMP 4.9972 1 S
MMO1 9.1173 1 S
NRCA 8.6774 1 S
RM33 3.3572 1 P
RM33 6.2672 1 S
SMA1 1.4572 1 P
SMA1 2.6172 1 S
T1201 1.9872 1 P
T1204 1.6172 1 P
T1212 4.5172 1 P
T1212 8.2772 1 S
T1218 3.2872 1 P
T1218 6.0272 1 S
T1245 8.7174 1 S
T1246 2.9272 1 P
T1246 5.3072 1 S
TERO 3.8872 1 P
TERO 7.1372 1 S
ED02 5.5572 1 P
ED03 2.6072 1 P
ED04 2.1572 1 P
ED04 4.0172 1 S
ED05 3.4272 1 P
ED05 6.1072 1 S
ED06 7.4172 1 S
ED07 2.4172 1 P
ED09 3.3372 1 P
ED09 6.1672 1 S
ED10 6.9972 1 S
ED11 4.2872 1 P
ED11 7.8872 1 S
ED14 4.3372 1 P
ED14 7.9572 1 S
ED15 7.3572 1 S
ED16 3.9872 1 P
ED17 11.0272 1 S
ED18 12.2272 1 S
ED19 10.8172 1 S
ED20 2.6572 1 P
ED21 13.1972 1 S
ED24 2.5572 1 P
ED24 4.7572 1 S
ED25 1.6672 1 P
# 2016  10  14   06    33    41.340    42.8952    13.2530    4.0000     2     0.0     0.0    0.0   234
CESI 9.9797 1 S
CSP1 7.5495 1 S
FDMO 6.7095 1 S
GIGS 17.3495 1 S
MC2 1.0297 1 P
MMO1 1.2596 1 P
NRCA 2.0897 1 P
T1214 5.3595 1 S
T1216 6.0095 1 S
T1218 8.8795 1 S
T1245 1.0997 1 P
T1246 12.7795 1 S
ED11 9.5195 1 S
ED12 7.7695 1 S
ED16 2.9895 1 S
ED17 1.6695 1 P
ED17 3.2595 1 S
ED18 2.0795 1 P
ED18 4.0095 1 S
ED19 1.5595 1 P
ED20 7.1695 1 S
ED21 5.1695 1 S
ED22 5.0995 1 S
# 2016  10  14   06    37    24.575    42.8790    13.2105    0.0000     2     0.0     0.0    0.0   235
MC2 1.0451 1 P
MMO1 1.7750 1 P
NRCA 1.7451 1 P
T1214 2.7349 1 P
T1214 4.8949 1 S
T1216 3.1949 1 P
T1218 8.4149 1 S
T1245 0.4951 1 P
ED07 11.3449 1 S
ED10 2.2949 1 P
ED16 2.8449 1 S
ED17 2.3049 1 P
ED17 4.3849 1 S
ED18 5.2049 1 S
ED19 1.5549 1 P
ED19 2.9349 1 S
ED21 6.0849 1 S
ED22 6.2549 1 S
ED24 9.0649 1 S
# 2016  10  14   06    40    10.476    42.6707    13.3142    10.0000     2     0.0     0.0    0.0   236
FDMO 13.4636 1 S
MC2 9.3638 1 S
MMO1 8.8737 1 S
SMA1 1.8036 1 P
SMA1 3.1636 1 S
T1204 1.9336 1 P
T1204 3.4436 1 S
T1218 6.3036 1 S
T1241 8.0936 1 S
T1246 5.7036 1 S
TERO 7.5136 1 S
ED03 4.9836 1 S
ED07 2.7436 1 P
ED07 4.9236 1 S
ED19 9.7236 1 S
ED22 11.2736 1 S
ED24 5.0136 1 S
ED25 2.0736 1 P
# 2016  10  14   06    40    18.004    42.9284    13.2711    2.0000     2     0.0     0.0    0.0   237
CESI 9.8966 1 S
CSP1 6.1464 1 S
MC2 1.4766 1 P
MMO1 1.3465 1 P
NRCA 2.9366 1 P
NRCA 5.6766 1 S
T1212 8.9464 1 S
T1214 3.6464 1 P
T1216 6.8664 1 S
T1218 5.5664 1 P
T1245 2.0266 1 P
T1245 3.8666 1 S
ED07 12.1764 1 S
ED10 3.5164 1 P
ED11 11.1664 1 S
ED16 4.2564 1 S
ED17 0.8664 1 P
ED18 1.3564 1 P
ED19 1.9664 1 P
ED20 4.2564 1 P
ED20 8.1564 1 S
ED21 1.9164 1 P
ED21 3.6164 1 S
ED22 3.7464 1 S
# 2016  10  14   06    43    45.302    42.7420    13.1912    2.0000     2     0.0     0.0    0.0   238
CAMP 9.4382 1 S
CSP1 12.5082 1 S
MMO1 3.5083 1 P
MMO1 6.7883 1 S
NRCA 2.0084 1 P
NRCA 3.7984 1 S
RM33 9.0682 1 S
T1201 2.2982 1 P
T1202 1.3582 1 P
T1202 2.4282 1 S
T1212 2.1582 1 P
T1212 4.1282 1 S
T1214 0.6682 1 P
T1215 4.5682 1 P
T1218 1.9482 1 P
T1218 3.8482 1 S
T1245 2.6684 1 P
T1246 5.2482 1 P
T1246 9.8282 1 S
TERO 5.9982 1 P
ED02 4.5282 1 P
ED05 10.7282 1 S
ED07 4.5482 1 P
ED09 6.6482 1 S
ED10 1.0782 1 P
ED11 2.5482 1 P
ED12 3.2682 1 P
ED12 6.3582 1 S
ED16 2.6082 1 P
ED16 5.0982 1 S
ED17 4.4282 1 P
ED17 8.6382 1 S
ED18 9.3082 1 S
ED20 3.3882 1 P
ED20 6.5482 1 S
ED21 10.4682 1 S
ED22 10.5782 1 S
ED24 1.8282 1 P
ED25 3.8482 1 P
# 2016  10  14   06    48    50.179    42.7420    13.1912    4.0000     2     0.0     0.0    0.0   239
CAMP 8.9613 1 S
MMO1 7.1914 1 S
NRCA 2.2215 1 P
NRCA 4.1715 1 S
RM33 8.2413 1 S
T1201 2.0913 1 P
T1202 1.9013 1 S
T1204 2.3613 1 P
T1212 2.2213 1 P
T1214 0.7513 1 P
T1215 9.0213 1 S
T1218 1.8313 1 P
T1246 5.0213 1 P
T1246 9.4713 1 S
TERO 11.0713 1 S
ED02 4.4613 1 P
ED02 8.4613 1 S
ED05 10.3613 1 S
ED10 1.2313 1 P
ED11 2.5113 1 P
ED12 3.4113 1 P
ED16 5.3013 1 S
ED17 9.1013 1 S
ED20 6.8413 1 S
ED24 1.6213 1 P
ED24 3.1213 1 S
# 2016  10  14   06    55    21.317    42.9621    13.1617    4.0000     2     0.0     0.0    0.0   240
CESI 7.1129 1 S
CSP1 5.0827 1 S
FEMA 3.2827 1 S
MC2 2.4629 1 S
MMO1 5.4228 1 S
NRCA 5.5129 1 S
T1201 10.6227 1 S
T1204 10.3027 1 S
T1212 8.5427 1 S
T1217 11.2127 1 S
T1241 7.5727 1 S
T1245 2.1729 1 P
T1245 4.6629 1 S
T1299 11.8327 1 S
TERO 15.8027 1 S
ED03 12.8527 1 S
ED10 7.3227 1 S
ED12 7.7127 1 S
ED16 6.6927 1 S
ED17 2.1827 1 P
ED17 4.2327 1 S
ED18 1.4227 1 P
ED19 0.9427 1 P
ED20 10.8227 1 S
ED21 2.1327 1 P
ED21 4.1027 1 S
# 2016  10  14   06    55    29.807    42.6530    13.3378    10.0000     2     0.0     0.0    0.0   241
CAMP 2.9033 1 P
CAMP 5.1733 1 S
NRCA 8.8835 1 S
RM33 3.5233 1 P
RM33 6.4333 1 S
SMA1 1.6433 1 P
T1201 2.1533 1 P
T1204 1.7633 1 P
T1218 3.4533 1 P
T1218 6.2233 1 S
T1246 3.1033 1 P
T1246 5.5233 1 S
T1247 7.9533 1 S
T1299 1.8534 1 P
T1299 3.3433 1 S
TERO 4.0633 1 P
TERO 7.3133 1 S
ED03 2.7633 1 P
ED04 2.3233 1 P
ED04 4.1933 1 S
ED05 3.6133 1 P
ED06 7.4833 1 S
ED07 2.6133 1 P
ED09 3.4933 1 P
ED09 6.3533 1 S
ED10 7.4133 1 S
ED11 8.1233 1 S
ED14 4.4933 1 P
ED14 8.1433 1 S
ED15 7.5333 1 S
ED20 2.5233 1 P
ED21 13.4933 1 S
ED24 2.7333 1 P
ED24 4.9133 1 S
ED25 1.8433 1 P
# 2016  10  14   06    57    33.434    42.8732    13.0815    2.0000     2     0.0     0.0    0.0   242
FDMO 6.1657 1 S
MMO1 3.5758 1 P
MMO1 6.8458 1 S
NRCA 1.0459 1 P
NRCA 1.7459 1 S
T1212 2.4857 1 P
T1212 4.8957 1 S
T1214 5.7857 1 S
T1215 3.2757 1 P
T1216 1.0057 1 P
T1217 7.4657 1 S
T1218 3.9757 1 P
ED10 2.1757 1 P
ED11 7.2257 1 S
ED12 2.0257 1 P
ED16 6.6857 1 S
ED17 3.6557 1 P
ED17 7.1057 1 S
ED19 1.4057 1 P
ED20 10.3957 1 S
ED21 4.1157 1 P
ED21 7.8557 1 S
ED22 8.4657 1 S
ED24 8.6157 1 S
# 2016  10  14   07    02    14.538    42.6530    13.3378    8.0000     2     0.0     0.0    0.0   243
CAMP 4.9720 1 S
NRCA 4.7022 1 P
NRCA 8.7422 1 S
RM33 3.3320 1 P
SMA1 1.4520 1 P
T1201 1.9820 1 P
T1204 1.5420 1 P
T1212 4.4920 1 P
T1212 8.2820 1 S
T1218 3.2520 1 P
T1246 2.9120 1 P
T1299 1.6721 1 P
T1299 3.1520 1 S
TERO 3.8520 1 P
TERO 7.1420 1 S
ED01 4.1420 1 P
ED02 5.5220 1 P
ED03 2.5620 1 P
ED04 2.1320 1 P
ED04 3.7920 1 S
ED05 6.4420 1 S
ED06 3.9320 1 P
ED07 2.4820 1 P
ED09 6.1520 1 S
ED10 3.6420 1 P
ED11 4.2620 1 P
ED11 7.9720 1 S
ED14 4.2920 1 P
ED14 7.9620 1 S
ED16 7.3420 1 S
ED17 5.9320 1 P
ED20 2.6920 1 P
ED20 4.9620 1 S
ED21 7.1620 1 P
ED21 13.2920 1 S
ED24 2.5020 1 P
ED25 1.7020 1 P
# 2016  10  14   07    04    27.697    42.7420    13.1912    4.0000     2     0.0     0.0    0.0   244
CAMP 8.9429 1 S
MMO1 6.9930 1 S
NRCA 2.1431 1 P
NRCA 4.1231 1 S
T1201 2.0829 1 P
T1202 2.1829 1 S
T1204 2.3229 1 P
T1212 2.2429 1 P
T1214 0.8029 1 P
T1215 8.9729 1 S
T1218 1.7829 1 P
T1245 4.9331 1 S
T1246 9.4329 1 S
TERO 11.0329 1 S
ED02 4.4229 1 P
ED02 8.5229 1 S
ED05 10.2029 1 S
ED07 8.4029 1 S
ED10 1.1829 1 P
ED11 2.4729 1 P
ED12 3.3629 1 P
ED24 1.5929 1 P
