# 2016  10  14   00    42    19.366    42.7820    13.1912    6.0000     2     0.0     0.0    0.0   34
CESI 10.7643 1 S
CSP1 5.9441 1 P
FDMO 9.6541 1 S
MMO1 3.2242 1 P
MMO1 6.1742 1 S
NRCA 1.6843 1 P
RM33 9.7441 1 S
T1201 2.8541 1 P
T1201 5.5141 1 S
T1202 1.9241 1 P
T1202 3.3141 1 S
T1211 11.8541 1 S
T1212 2.1741 1 P
T1214 1.0141 1 P
T1214 2.3341 1 S
T1215 8.1241 1 S
T1216 6.1841 1 S
T1217 7.1741 1 S
T1218 2.3741 1 P
T1218 4.7741 1 S
T1246 5.4441 1 P
T1246 10.2241 1 S
T1299 3.3542 1 P
T1299 6.3841 1 S
TERO 11.7141 1 S
ED02 4.7041 1 P
ED02 8.8941 1 S
ED03 3.3241 1 P
ED03 6.4841 1 S
ED05 11.3441 1 S
ED09 3.3241 1 P
ED09 6.4441 1 S
ED10 1.0741 1 P
ED11 2.7141 1 P
ED11 5.6141 1 S
ED12 3.0041 1 P
ED12 5.6441 1 S
ED17 4.1941 1 P
ED17 7.5341 1 S
ED19 2.9641 1 P
ED19 5.7041 1 S
ED20 3.4441 1 P
ED20 6.7141 1 S
ED21 4.8841 1 P
ED21 9.2841 1 S
ED24 2.3741 1 P
# 2016  10  14   00    43    21.366    42.8732    13.0815    2.0000     2     0.0     0.0    0.0   35
FDMO 6.2041 1 S
MMO1 7.0042 1 S
NRCA 1.0343 1 P
T1212 2.4841 1 P
T1212 4.8041 1 S
T1215 3.2541 1 P
T1216 0.9141 1 P
T1217 7.4541 1 S
ED10 2.2241 1 P
ED11 3.8341 1 P
ED12 1.9741 1 P
ED12 3.8741 1 S
ED17 3.7341 1 P
ED18 3.4441 1 P
ED19 1.4341 1 P
ED20 10.3441 1 S
ED22 8.5741 1 S
ED24 8.6841 1 S
# 2016  10  14   00    43    35.937    42.7820    13.2512    4.0000     2     0.0     0.0    0.0   36
T1201 2.6931 1 P
T1202 1.7031 1 P
T1202 3.4831 1 S
T1204 2.2531 1 P
T1214 1.1031 1 P
T1214 2.2231 1 S
T1218 2.9431 1 P
T1218 5.5931 1 S
T1246 4.8531 1 P
T1246 9.0431 1 S
TERO 5.4731 1 P
TERO 10.2431 1 S
ED02 10.3931 1 S
ED03 3.5731 1 P
ED03 7.1631 1 S
ED09 2.6331 1 P
ED09 5.1631 1 S
ED10 3.4531 1 S
ED20 5.0531 1 S
ED24 5.5931 1 S
# 2016  10  14   00    44    49.190    42.7460    13.1873    4.0000     2     0.0     0.0    0.0   37
CESI 11.6205 1 S
MMO1 3.5604 1 P
MMO1 6.9804 1 S
NRCA 2.0305 1 P
NRCA 4.0205 1 S
T1201 2.2703 1 P
T1202 1.1803 1 P
T1204 2.4703 1 P
T1204 4.9003 1 S
T1212 2.1003 1 P
T1214 0.8103 1 P
T1215 4.5003 1 P
T1215 8.5103 1 S
T1218 1.8303 1 P
T1246 9.7203 1 S
T1299 2.7704 1 P
TERO 5.9003 1 P
TERO 11.2403 1 S
ED01 8.5603 1 S
ED02 4.4003 1 P
ED02 8.3803 1 S
ED03 2.7503 1 P
ED07 8.5803 1 S
ED09 3.4103 1 P
ED10 1.0903 1 P
ED11 2.4303 1 P
ED12 3.2403 1 P
ED12 6.2103 1 S
ED16 2.6503 1 P
ED16 5.2303 1 S
ED17 4.5803 1 P
ED17 8.7303 1 S
ED19 6.8803 1 S
ED20 3.3703 1 P
ED21 10.5803 1 S
ED24 1.7203 1 P
# 2016  10  14   00    46    25.889    42.9221    13.1417    8.0000     2     0.0     0.0    0.0   38
CSP1 6.8406 1 S
FDMO 4.9606 1 S
MC2 1.5308 1 P
MC2 2.9508 1 S
MMO1 5.2607 1 S
NRCA 2.0908 1 P
T1202 4.0506 1 P
T1212 3.8106 1 P
T1212 7.0306 1 S
T1214 3.4606 1 P
T1216 4.3206 1 S
T1218 4.8606 1 P
T1245 1.8908 1 P
T1245 3.6208 1 S
ED09 8.8806 1 S
ED10 2.9506 1 P
ED11 4.8906 1 P
ED11 9.1606 1 S
ED12 6.5206 1 S
ED16 5.8206 1 S
ED17 2.7406 1 P
ED18 2.3406 1 P
ED18 4.2506 1 S
ED19 1.2806 1 P
ED20 9.4906 1 S
ED21 5.4006 1 S
ED22 5.7606 1 S
ED24 4.8006 1 P
# 2016  10  14   00    48    55.629    42.8560    13.1368    0.0000     2     0.0     0.0    0.0   39
CESI 8.4814 1 S
CSP1 4.7712 1 P
CSP1 9.0012 1 S
FDMO 3.5512 1 P
FDMO 6.9312 1 S
GUMA 9.8215 1 S
MC2 1.5114 1 P
MMO1 3.0513 1 P
MMO1 5.6813 1 S
NRCA 0.6314 1 P
T1202 3.7312 1 P
T1212 2.8912 1 P
T1214 2.5112 1 P
T1215 4.2512 1 P
T1216 1.9412 1 P
T1217 8.5112 1 S
T1245 0.7314 1 P
T1246 13.6412 1 S
TERO 7.8712 1 P
TERO 14.7912 1 S
ED02 11.1512 1 S
ED09 4.4312 1 P
ED09 8.4512 1 S
ED10 1.8612 1 P
ED12 2.7212 1 P
ED16 2.8712 1 P
ED17 3.2912 1 P
ED18 3.0912 1 P
ED18 5.8112 1 S
ED19 1.0712 1 P
ED20 4.8212 1 P
ED21 3.9212 1 P
ED22 7.8312 1 S
ED24 4.4212 1 P
ED24 8.4312 1 S
# 2016  10  14   00    50    09.176    42.7420    13.1912    2.0000     2     0.0     0.0    0.0   40
NRCA 3.8139 1 S
T1202 1.2537 1 P
T1212 2.1337 1 P
T1212 4.2637 1 S
T1214 0.6837 1 P
T1215 8.5437 1 S
T1218 3.9737 1 S
T1246 9.9037 1 S
ED01 9.0337 1 S
ED02 8.5137 1 S
ED07 8.8137 1 S
ED10 1.1737 1 P
ED10 2.0237 1 S
ED11 2.5037 1 P
ED16 5.1437 1 S
ED17 8.6437 1 S
ED18 9.3937 1 S
ED19 6.8637 1 S
ED20 6.5837 1 S
ED24 2.8137 1 S
# 2016  10  14   00    51    09.408    42.8226    13.3662    18.0000     2     0.0     0.0    0.0   41
CESI 13.6917 1 S
CSP1 11.5115 1 S
FDMO 11.0515 1 S
T1202 7.8815 1 S
T1204 7.4215 1 S
T1212 9.5715 1 S
T1214 6.9115 1 S
T1215 13.1815 1 S
T1218 9.5315 1 S
T1245 6.9017 1 S
T1246 5.7115 1 P
T1246 10.2015 1 S
T1299 8.5915 1 S
TERO 5.9515 1 P
ED03 9.9315 1 S
ED07 5.0315 1 P
ED07 8.9415 1 S
ED09 3.0815 1 P
ED09 5.8515 1 S
ED10 7.9915 1 S
ED11 10.5215 1 S
ED16 5.6615 1 S
ED17 4.0715 1 P
ED17 7.2515 1 S
ED18 8.4315 1 S
ED19 8.1415 1 S
ED20 3.4515 1 P
ED21 9.0815 1 S
ED22 8.7215 1 S
ED24 4.9415 1 P
ED24 8.8715 1 S
ED25 9.3115 1 S
# 2016  10  14   00    53    27.377    42.6981    13.1748    8.0000     2     0.0     0.0    0.0   42
MMO1 8.7332 1 S
NRCA 5.6233 1 S
RM33 6.8331 1 S
SMA1 3.0131 1 P
SMA1 5.4431 1 S
T1201 1.8731 1 P
T1202 1.5531 1 P
T1204 2.4131 1 P
T1204 4.5831 1 S
T1211 9.9031 1 S
T1212 2.4931 1 P
T1212 4.3531 1 S
T1214 1.9231 1 P
T1215 8.8831 1 S
T1217 3.5831 1 P
T1217 6.7431 1 S
T1218 1.6531 1 P
T1246 9.0731 1 S
T1299 2.2432 1 P
ED01 3.3631 1 P
ED01 6.4831 1 S
ED02 3.8631 1 P
ED02 7.3131 1 S
ED03 2.0831 1 P
ED03 4.0331 1 S
ED07 4.1431 1 P
ED07 7.7231 1 S
ED10 2.0531 1 P
ED10 3.9631 1 S
ED11 2.3431 1 P
ED12 7.1031 1 S
ED14 10.7531 1 S
ED16 6.7531 1 S
ED17 5.3531 1 P
ED17 10.1031 1 S
ED19 8.4331 1 S
ED21 12.0731 1 S
ED24 1.4631 1 P
ED24 3.0031 1 S
ED25 6.3731 1 S
# 2016  10  14   00    57    59.035    42.6581    13.2148    10.0000     2     0.0     0.0    0.0   43
NRCA 3.8355 1 P
NRCA 7.1155 1 S
RM33 3.2253 1 P
RM33 6.0553 1 S
SMA1 4.6753 1 S
T1201 1.7953 1 P
T1202 2.0053 1 P
T1202 3.7653 1 S
T1204 4.2353 1 S
T1212 5.9453 1 S
T1214 2.5453 1 P
T1214 4.7953 1 S
T1218 2.1053 1 P
T1218 3.8553 1 S
T1299 3.5553 1 S
ED01 3.3753 1 P
ED03 3.5953 1 S
ED05 4.2153 1 P
ED05 7.8853 1 S
ED07 7.1453 1 S
ED09 4.0253 1 P
ED10 2.8853 1 P
ED10 5.2153 1 S
ED11 5.4153 1 S
ED12 8.6453 1 S
ED14 9.7753 1 S
ED24 1.5953 1 P
# 2016  10  14   00    59    11.121    42.7996    13.1437    10.0000     2     0.0     0.0    0.0   44
MMO1 3.4496 1 P
MMO1 6.5496 1 S
NRCA 1.7297 1 P
T1202 2.9395 1 P
T1212 2.3095 1 P
T1212 4.1895 1 S
T1214 4.0095 1 S
T1215 4.2195 1 P
T1215 7.7495 1 S
T1218 5.6595 1 S
T1245 2.1297 1 P
T1245 4.0897 1 S
ED02 4.7995 1 P
ED02 9.0595 1 S
ED10 1.6495 1 P
ED11 2.9795 1 P
ED11 5.6095 1 S
ED12 2.8195 1 P
ED12 5.2295 1 S
ED17 4.0195 1 P
ED17 7.5195 1 S
ED18 7.7595 1 S
ED19 2.7895 1 P
ED19 5.1895 1 S
ED21 9.0095 1 S
ED24 6.0395 1 S
# 2016  10  14   00    59    41.624    42.7420    13.1712    2.0000     2     0.0     0.0    0.0   45
CSP1 12.7659 1 S
MMO1 3.8060 1 P
NRCA 1.9761 1 P
T1201 2.3859 1 P
T1202 1.1559 1 P
T1202 1.9559 1 S
T1204 2.6359 1 P
T1212 1.9659 1 P
T1214 0.7659 1 P
T1215 8.3259 1 S
T1217 6.8959 1 S
T1218 1.7559 1 P
T1246 10.0459 1 S
T1299 2.9360 1 P
TERO 6.1659 1 P
TERO 11.9959 1 S
ED01 8.3659 1 S
ED02 4.3559 1 P
ED02 8.2559 1 S
ED03 2.7459 1 P
ED03 5.5259 1 S
ED09 3.6259 1 P
ED09 7.1759 1 S
ED10 0.9659 1 P
ED11 2.3259 1 P
ED12 3.3059 1 P
ED16 2.8959 1 P
ED17 4.6359 1 P
ED17 9.0459 1 S
ED19 6.8459 1 S
ED20 3.5759 1 P
ED24 1.7159 1 P
# 2016  10  14   01    02    20.752    42.8360    13.1168    6.0000     2     0.0     0.0    0.0   46
CESI 8.2885 1 S
CSP1 9.2383 1 S
NRCA 0.7985 1 P
T1202 6.2083 1 S
T1212 2.2383 1 P
T1212 4.2083 1 S
T1215 3.5383 1 P
T1218 6.2383 1 S
TERO 14.3483 1 S
ED01 11.0883 1 S
ED02 9.4783 1 S
ED09 4.0683 1 P
ED10 2.8083 1 S
ED11 3.1483 1 P
ED11 6.0383 1 S
ED12 2.2683 1 P
ED16 5.3583 1 S
ED20 4.5083 1 P
ED20 8.5783 1 S
ED21 3.9883 1 P
ED24 7.3483 1 S
# 2016  10  14   01    02    40.101    42.6581    13.2148    12.0000     2     0.0     0.0    0.0   47
NRCA 7.3489 1 S
RM33 3.4987 1 P
SMA1 4.9187 1 S
T1201 2.0787 1 P
T1201 3.7987 1 S
T1202 2.3087 1 P
T1202 4.0687 1 S
T1212 6.2687 1 S
T1214 5.1587 1 S
T1218 2.3887 1 P
ED01 3.6687 1 P
ED03 2.2387 1 P
ED03 3.8687 1 S
ED09 4.3187 1 P
ED09 7.7087 1 S
ED10 5.5387 1 S
ED11 5.7887 1 S
ED14 9.9787 1 S
ED20 7.0387 1 S
ED24 1.9187 1 P
ED24 3.4187 1 S
# 2016  10  14   01    05    35.299    42.9532    12.8615    8.0000     2     0.0     0.0    0.0   48
CESI 3.4112 1 S
MMO1 12.1711 1 S
NRCA 4.2012 1 P
NRCA 8.0512 1 S
T1212 8.6610 1 S
T1215 3.1510 1 P
T1215 5.9110 1 S
T1216 2.7810 1 P
T1216 5.2210 1 S
T1217 8.8310 1 S
ED02 12.2710 1 S
ED10 5.2910 1 P
ED10 9.8010 1 S
ED11 10.3010 1 S
ED12 6.4710 1 S
ED17 6.1610 1 P
ED17 11.3810 1 S
ED18 9.8710 1 S
ED19 4.0610 1 P
ED21 10.7510 1 S
ED22 12.0210 1 S
# 2016  10  14   01    09    01.456    42.7620    13.1912    6.0000     2     0.0     0.0    0.0   49
NRCA 3.9444 1 S
T1201 4.7642 1 S
T1202 1.4842 1 P
T1202 2.8442 1 S
T1212 4.3142 1 S
T1214 0.8742 1 P
T1218 4.1942 1 S
T1246 10.0342 1 S
T1299 5.7642 1 S
TERO 11.6942 1 S
ED02 8.9442 1 S
ED10 1.2142 1 P
ED11 2.7142 1 P
ED12 6.4842 1 S
ED20 6.8842 1 S
ED24 3.8842 1 S
# 2016  10  14   01    13    12.358    42.8196    13.1837    2.0000     2     0.0     0.0    0.0   50
CSP1 10.0321 1 S
MMO1 2.4522 1 P
MMO1 4.6322 1 S
NRCA 1.2923 1 P
NRCA 2.1023 1 S
T1212 4.9421 1 S
T1214 1.4921 1 P
T1214 2.9221 1 S
T1245 0.8223 1 P
ED10 1.2021 1 P
ED16 3.5921 1 S
ED17 3.1921 1 P
ED17 6.1521 1 S
ED18 6.8021 1 S
ED19 4.1521 1 S
ED21 7.7821 1 S
ED22 7.9521 1 S
# 2016  10  14   01    15    38.753    42.9018    13.2493    0.0000     2     0.0     0.0    0.0   51
CESI 10.3169 1 S
CSP1 3.8867 1 P
CSP1 7.4467 1 S
FDMO 3.5767 1 P
MC2 1.5469 1 S
MMO1 1.0468 1 P
NRCA 2.5569 1 P
RM33 14.4267 1 S
T1202 4.2267 1 P
T1202 8.0967 1 S
T1204 4.6767 1 P
T1212 4.3367 1 P
T1212 8.1467 1 S
T1214 3.1067 1 P
T1215 5.8467 1 P
T1215 11.0567 1 S
T1216 3.5467 1 P
T1217 11.1067 1 S
T1218 5.0867 1 P
T1218 9.4567 1 S
T1245 1.4569 1 P
T1246 13.2367 1 S
T1299 5.3568 1 P
TERO 7.0967 1 P
TERO 13.5267 1 S
ED03 5.9867 1 P
ED03 11.2367 1 S
ED05 15.5367 1 S
ED07 6.0767 1 P
ED09 3.1567 1 P
ED10 3.0167 1 P
ED11 5.4367 1 P
ED11 9.8467 1 S
ED12 4.4967 1 P
ED12 8.7167 1 S
ED16 1.6967 1 P
ED17 1.4767 1 P
ED18 1.9467 1 P
ED19 1.9267 1 P
ED20 3.8667 1 P
ED21 2.6267 1 P
ED21 4.9567 1 S
ED24 5.0067 1 P
ED24 9.4967 1 S
# 2016  10  14   01    16    39.817    42.8560    13.0768    4.0000     2     0.0     0.0    0.0   52
CESI 6.7836 1 S
FDMO 3.3834 1 P
MC2 4.4336 1 S
MMO1 6.8635 1 S
NRCA 1.0136 1 P
NRCA 1.7136 1 S
T1212 2.4534 1 P
T1212 4.7034 1 S
T1215 6.2134 1 S
T1216 1.0234 1 P
ED02 10.1534 1 S
ED09 9.4134 1 S
ED11 6.8334 1 S
ED12 3.5034 1 S
ED16 6.5134 1 S
ED17 3.7134 1 P
ED17 7.1334 1 S
ED18 3.4434 1 P
ED19 1.4634 1 P
ED20 10.1134 1 S
ED21 4.1834 1 P
ED21 7.7134 1 S
ED22 8.5634 1 S
# 2016  10  14   01    19    17.726    42.8790    13.1905    0.0000     2     0.0     0.0    0.0   53
CSP1 4.5340 1 P
CSP1 8.2940 1 S
FDMO 3.5340 1 P
MC2 0.8842 1 P
MMO1 2.1441 1 P
MMO1 4.1641 1 S
NRCA 1.4942 1 P
RM33 13.4540 1 S
SMA1 10.2240 1 S
T1202 3.8540 1 P
T1212 3.5740 1 P
T1212 6.5640 1 S
T1214 2.5540 1 P
T1214 4.9440 1 S
T1215 4.8940 1 P
T1215 9.1640 1 S
T1216 2.6640 1 P
T1217 9.5940 1 S
T1218 8.4940 1 S
T1245 0.5142 1 P
T1246 7.0740 1 P
T1246 13.1940 1 S
TERO 7.5640 1 P
TERO 14.1140 1 S
ED03 5.5740 1 P
ED05 14.9340 1 S
ED09 3.9440 1 P
ED09 7.2140 1 S
ED10 2.2340 1 P
ED11 8.9940 1 S
ED14 8.7940 1 P
ED14 16.5440 1 S
ED16 3.9040 1 S
ED17 2.4940 1 P
ED17 4.9340 1 S
ED18 2.4340 1 P
ED18 4.7440 1 S
ED19 1.1740 1 P
ED19 2.2240 1 S
ED20 4.3940 1 P
ED20 8.3240 1 S
ED21 3.2240 1 P
ED22 6.6340 1 S
ED24 4.6040 1 P
ED24 8.9640 1 S
# 2016  10  14   01    20    15.319    42.7420    13.1912    4.0000     2     0.0     0.0    0.0   54
MMO1 7.1608 1 S
NRCA 4.0109 1 S
T1201 2.1607 1 P
T1201 4.2007 1 S
T1202 1.0607 1 P
T1204 2.3407 1 P
T1212 2.0907 1 P
T1212 4.1807 1 S
T1214 0.8307 1 P
T1215 8.7607 1 S
T1217 7.3007 1 S
T1218 3.6507 1 S
T1246 9.4607 1 S
T1299 2.8108 1 P
TERO 5.8007 1 P
TERO 11.0407 1 S
ED01 8.2407 1 S
ED02 4.3107 1 P
ED02 8.2507 1 S
ED07 8.3607 1 S
ED09 3.3607 1 P
ED09 6.9107 1 S
ED10 1.1107 1 P
ED11 2.3607 1 P
ED12 3.2607 1 P
ED12 6.4707 1 S
ED16 5.2707 1 S
ED17 4.6407 1 P
ED17 8.9407 1 S
ED20 3.2907 1 P
ED24 1.5807 1 P
ED24 3.1807 1 S
# 2016  10  14   01    20    41.456    42.8190    13.1905    8.0000     2     0.0     0.0    0.0   55
CAMP 11.0143 1 S
CESI 10.3445 1 S
FDMO 4.7443 1 P
FDMO 8.6243 1 S
MMO1 2.7744 1 P
MMO1 5.0344 1 S
NRCA 1.6845 1 P
RM33 11.0343 1 S
SMA1 4.1043 1 P
T1201 3.6443 1 P
T1202 2.5943 1 P
T1204 3.4343 1 P
T1214 1.6643 1 P
T1214 3.2343 1 S
T1215 4.8643 1 P
T1215 8.7543 1 S
T1216 3.2243 1 P
T1218 5.9343 1 S
T1245 1.5145 1 P
T1246 5.8743 1 P
T1299 7.5143 1 S
TERO 6.4943 1 P
ED01 10.7243 1 S
ED03 4.2143 1 P
ED03 7.9143 1 S
ED05 12.2743 1 S
ED07 5.0743 1 P
ED07 9.5943 1 S
ED09 3.2243 1 P
ED09 6.1143 1 S
ED10 1.6043 1 P
ED10 2.9543 1 S
ED12 3.5343 1 P
ED12 6.2243 1 S
ED14 14.0643 1 S
ED16 2.0443 1 P
ED16 3.9043 1 S
ED17 6.4643 1 S
ED18 6.9543 1 S
ED19 2.5543 1 P
ED19 4.7143 1 S
ED20 3.5343 1 P
ED21 8.1243 1 S
ED24 3.2743 1 P
ED24 6.3943 1 S
# 2016  10  14   01    21    02.563    42.7420    13.1912    4.0000     2     0.0     0.0    0.0   56
NRCA 4.1177 1 S
T1201 2.2575 1 P
T1202 1.1875 1 P
T1202 2.4175 1 S
T1204 2.4575 1 P
T1212 2.1875 1 P
T1212 4.2175 1 S
T1214 0.9275 1 P
T1215 8.8475 1 S
T1218 3.6075 1 S
T1246 9.5775 1 S
TERO 11.1375 1 S
ED02 4.4175 1 P
ED02 8.4275 1 S
ED03 5.2575 1 S
ED09 6.7675 1 S
ED10 2.3075 1 S
ED11 2.4675 1 P
ED12 3.3675 1 P
ED12 6.6775 1 S
ED24 1.7275 1 P
ED24 3.2875 1 S
# 2016  10  14   01    22    33.044    42.8590    13.2505    4.0000     2     0.0     0.0    0.0   57
CSP1 8.5663 1 S
FDMO 7.7163 1 S
MC2 3.2865 1 S
MMO1 1.5664 1 P
MMO1 3.0764 1 S
NRCA 1.8865 1 P
SMA1 8.5263 1 S
T1212 6.5463 1 S
T1216 6.1063 1 S
T1217 9.7363 1 S
T1245 1.1165 1 P
T1245 2.3865 1 S
T1299 8.6063 1 S
TERO 12.2763 1 S
ED03 4.8763 1 P
ED09 5.4663 1 S
ED10 4.1563 1 S
ED15 13.8963 1 S
ED17 2.2563 1 P
ED17 4.3563 1 S
ED18 5.1863 1 S
ED19 1.9763 1 P
ED19 3.9063 1 S
ED20 6.2763 1 S
# 2016  10  14   01    22    39.096    42.6013    13.3344    6.0000     2     0.0     0.0    0.0   58
RM33 4.7641 1 S
SMA1 1.2341 1 P
SMA1 2.4741 1 S
T1202 2.4341 1 P
T1218 3.1541 1 P
T1246 2.4241 1 P
T1246 4.7641 1 S
T1299 1.2542 1 P
T1299 2.5541 1 S
TERO 3.7741 1 P
ED02 5.8141 1 P
ED04 2.2041 1 S
ED05 2.3641 1 P
ED05 4.7041 1 S
ED07 2.1541 1 P
ED09 7.9141 1 S
ED24 4.6441 1 S
ED25 1.0041 1 P
# 2016  10  14   01    25    00.339    42.7620    13.2112    8.0000     2     0.0     0.0    0.0   59
MMO1 6.5113 1 S
NRCA 2.1714 1 P
NRCA 4.3514 1 S
T1202 1.7212 1 P
T1202 3.5112 1 S
T1204 4.8112 1 S
T1212 4.6712 1 S
T1214 1.3812 1 P
T1214 2.3012 1 S
T1218 5.2112 1 S
ED07 8.0012 1 S
ED10 1.5112 1 P
ED10 2.8212 1 S
ED12 3.6512 1 P
ED12 6.3312 1 S
ED17 8.1012 1 S
ED19 6.5012 1 S
ED20 3.1312 1 P
ED20 6.0912 1 S
ED24 2.4712 1 P
# 2016  10  14   01    25    51.456    42.7420    13.1912    4.0000     2     0.0     0.0    0.0   60
NRCA 4.1544 1 S
T1202 1.1142 1 P
T1202 2.2542 1 S
T1212 2.2342 1 P
T1212 4.2042 1 S
T1214 0.8642 1 P
T1218 1.8442 1 P
T1218 3.5842 1 S
T1246 9.4842 1 S
TERO 11.0742 1 S
ED10 1.3142 1 P
ED10 2.3542 1 S
ED11 2.5042 1 P
ED12 3.4342 1 P
ED24 1.6442 1 P
ED24 3.2342 1 S
# 2016  10  14   01    26    58.406    43.0884    13.3911    8.0000     2     0.0     0.0    0.0   61
CSP1 5.0843 1 S
MMO1 6.7544 1 S
T1201 8.4743 1 P
T1202 7.4243 1 P
T1214 6.5343 1 P
T1218 8.3843 1 P
T1245 9.2745 1 S
TERO 16.8543 1 S
ED02 10.9943 1 P
ED03 9.3543 1 P
ED11 9.0343 1 P
ED16 9.7343 1 S
ED17 2.8943 1 P
ED17 5.5343 1 S
ED20 11.6043 1 S
ED21 4.8943 1 S
ED24 8.1843 1 P
# 2016  10  14   01    27    04.177    42.7760    13.1968    4.0000     2     0.0     0.0    0.0   62
NRCA 1.6134 1 P
NRCA 3.1434 1 S
T1201 2.7032 1 P
T1201 5.0932 1 S
T1202 1.6532 1 P
T1202 3.0232 1 S
T1212 4.9832 1 S
T1214 0.7632 1 P
T1214 1.5332 1 S
T1218 2.6132 1 P
T1218 4.3132 1 S
T1245 3.5034 1 S
T1246 10.1032 1 S
T1299 3.1833 1 P
ED02 5.2232 1 P
ED02 9.3132 1 S
ED03 3.5832 1 P
ED03 6.0132 1 S
ED05 11.1532 1 S
ED10 2.2032 1 S
ED11 3.2632 1 P
ED16 3.9632 1 S
ED22 9.3632 1 S
ED24 2.4132 1 P
ED24 4.1232 1 S
ED25 8.2332 1 S
# 2016  10  14   01    29    25.538    42.8390    13.1505    4.0000     2     0.0     0.0    0.0   63
CESI 4.6621 1 P
CESI 8.8023 1 S
CSP1 4.8121 1 P
CSP1 9.0921 1 S
FDMO 3.9221 1 P
MMO1 2.5422 1 P
NRCA 0.9923 1 P
RM33 12.0721 1 S
T1202 3.1621 1 P
T1202 5.8421 1 S
T1212 2.5421 1 P
T1212 4.7721 1 S
T1214 1.9721 1 P
T1215 4.0921 1 P
T1216 2.2521 1 P
T1217 7.8521 1 S
T1218 6.3521 1 S
T1245 0.9023 1 P
T1246 12.1821 1 S
TERO 13.4421 1 S
ED01 11.1221 1 S
ED02 5.3921 1 P
ED02 10.0321 1 S
ED05 13.7221 1 S
ED09 3.6921 1 P
ED09 7.2121 1 S
ED10 1.4921 1 P
ED11 3.4321 1 P
ED12 2.7421 1 P
ED14 15.3821 1 S
ED16 2.2821 1 P
ED16 4.5221 1 S
ED17 3.1221 1 P
ED18 3.1421 1 P
ED18 6.1721 1 S
ED19 1.7621 1 P
ED20 4.0821 1 P
ED20 7.8021 1 S
ED21 3.8821 1 P
ED21 7.4121 1 S
ED24 3.7521 1 P
ED24 6.9421 1 S
# 2016  10  14   01    30    54.951    42.7796    13.1437    0.0000     2     0.0     0.0    0.0   64
FDMO 9.7793 1 S
MMO1 3.6194 1 P
MMO1 7.2194 1 S
NRCA 1.2795 1 P
T1202 1.8393 1 P
T1212 1.5293 1 P
T1214 0.8993 1 P
T1215 4.1893 1 P
ED10 -0.0807 1 P
ED11 2.3493 1 P
ED12 2.6493 1 P
ED17 8.4693 1 S
ED18 8.9193 1 S
ED19 2.9493 1 P
ED19 5.7093 1 S
ED21 9.9693 1 S
ED24 2.3593 1 P
# 2016  10  14   01    31    40.785    42.8590    13.2505    2.0000     2     0.0     0.0    0.0   65
CESI 10.7055 1 S
CSP1 4.7853 1 P
CSP1 8.8953 1 S
FDMO 4.1853 1 P
MC2 1.7255 1 P
MMO1 1.1254 1 P
MMO1 2.8554 1 S
NRCA 2.0555 1 P
RM33 12.7553 1 S
SMA1 4.5253 1 P
SMA1 8.4053 1 S
T1202 3.2253 1 P
T1202 6.3953 1 S
T1204 3.9553 1 P
T1212 3.6253 1 P
T1214 2.0953 1 P
T1215 5.4253 1 P
T1215 10.2253 1 S
T1216 3.4253 1 P
T1217 9.9453 1 S
T1218 4.1253 1 P
T1218 8.0053 1 S
T1245 1.0355 1 P
T1299 4.5354 1 P
TERO 6.4153 1 P
TERO 12.1153 1 S
ED01 6.7653 1 P
ED01 12.5153 1 S
ED02 6.4453 1 P
ED02 12.0653 1 S
ED03 5.0153 1 P
ED03 9.5453 1 S
ED05 13.6753 1 S
ED09 2.6153 1 P
ED10 2.2553 1 P
ED11 4.4953 1 P
ED12 4.0253 1 P
ED14 8.2553 1 P
ED16 1.0953 1 P
ED17 2.3053 1 P
ED18 2.7953 1 P
ED18 5.4653 1 S
ED19 2.1653 1 P
ED20 3.2153 1 P
ED21 3.4253 1 P
ED24 4.0153 1 P
ED25 5.2453 1 P
# 2016  10  14   01    33    36.909    42.8790    13.2505    4.0000     2     0.0     0.0    0.0   66
FDMO 7.3314 1 S
MC2 1.3216 1 P
MC2 2.3916 1 S
MMO1 1.3815 1 P
NRCA 2.2016 1 P
NRCA 4.0616 1 S
T1214 2.6414 1 P
T1214 5.0114 1 S
T1216 6.3014 1 S
T1245 1.1916 1 P
ED10 4.9614 1 S
ED16 2.3214 1 S
ED17 1.9914 1 P
ED17 3.6814 1 S
ED18 2.2814 1 P
ED18 4.5814 1 S
ED19 1.8714 1 P
ED19 3.5214 1 S
ED20 6.9614 1 S
ED21 5.6014 1 S
ED22 5.4414 1 S
# 2016  10  14   01    35    49.628    42.7820    13.2112    4.0000     2     0.0     0.0    0.0   67
T1202 1.6825 1 P
T1212 2.5025 1 P
T1212 4.8925 1 S
T1214 0.6725 1 P
T1218 5.1625 1 S
T1245 3.5227 1 S
T1246 9.6825 1 S
ED02 9.7125 1 S
ED03 6.7125 1 S
ED07 8.4725 1 S
ED09 2.8325 1 P
ED09 5.5525 1 S
ED10 2.3925 1 S
ED12 3.3425 1 P
ED16 3.7925 1 S
ED20 2.9625 1 P
ED20 5.7825 1 S
ED24 2.6825 1 P
ED24 5.2025 1 S
# 2016  10  14   01    36    34.513    42.8990    13.2298    0.0000     2     0.0     0.0    0.0   68
CESI 10.1375 1 S
CSP1 7.4873 1 S
FDMO 3.4373 1 P
GUMA 7.3576 1 S
MC2 1.3675 1 S
MMO1 1.4274 1 P
NRCA 3.9875 1 S
SMA1 10.4373 1 S
T1214 3.1973 1 P
T1216 6.4173 1 S
T1246 13.5473 1 S
ED01 14.1573 1 S
ED03 11.4773 1 S
ED09 3.4873 1 P
ED09 6.5273 1 S
ED10 3.1173 1 P
ED10 5.2073 1 S
ED16 1.8773 1 P
ED16 3.6573 1 S
ED17 1.6273 1 P
ED18 1.9173 1 P
ED19 1.8073 1 P
ED20 4.1473 1 P
ED20 7.8673 1 S
ED21 2.6073 1 P
ED24 9.9573 1 S
# 2016  10  14   01    36    57.218    42.8190    13.1905    6.0000     2     0.0     0.0    0.0   69
NRCA 1.2918 1 P
NRCA 2.6218 1 S
T1212 4.6616 1 S
T1214 1.5616 1 P
T1214 3.0416 1 S
T1215 8.2616 1 S
T1216 2.7216 1 P
T1218 6.1316 1 S
T1245 1.2418 1 P
T1245 2.4618 1 S
ED03 7.8616 1 S
ED09 6.3416 1 S
ED10 1.6316 1 P
ED10 2.5516 1 S
ED11 6.5216 1 S
ED12 5.6916 1 S
ED16 3.9616 1 S
ED17 3.3516 1 P
ED17 6.1316 1 S
ED19 2.2116 1 P
ED19 4.2616 1 S
ED20 6.8616 1 S
ED24 6.4116 1 S
