# 2016  10  14   07    05    35.009    42.8190    13.2105    4.0000     2     0.0     0.0    0.0   245
CAMP 10.9007 1 S
FDMO 8.7707 1 S
GIGS 15.2607 1 S
MMO1 2.3108 1 P
MMO1 4.5608 1 S
NRCA 2.6109 1 S
T1201 3.5707 1 P
T1202 4.7607 1 S
T1204 6.0907 1 S
T1212 2.8407 1 P
T1212 5.4807 1 S
T1214 1.3207 1 P
T1215 9.0307 1 S
T1218 3.2607 1 P
T1218 6.2707 1 S
T1245 1.1309 1 P
T1245 2.3809 1 S
T1246 5.6507 1 P
T1246 10.6607 1 S
TERO 11.8407 1 S
ED01 11.1407 1 S
ED02 5.6907 1 P
ED02 10.5207 1 S
ED03 8.0807 1 S
ED07 9.2407 1 S
ED09 6.2007 1 S
ED10 1.4007 1 P
ED10 2.7107 1 S
ED12 6.4107 1 S
ED14 13.9107 1 S
ED16 1.6107 1 P
ED17 3.1307 1 P
ED17 5.9807 1 S
ED18 6.7007 1 S
ED19 4.5407 1 S
ED21 4.1207 1 P
ED21 7.8107 1 S
ED24 6.0607 1 S
# 2016  10  14   07    16    05.588    42.8190    13.2305    2.0000     2     0.0     0.0    0.0   246
CESI 11.0426 1 S
MMO1 4.1025 1 S
NRCA 2.0926 1 P
NRCA 3.3326 1 S
T1216 6.4024 1 S
T1218 6.8924 1 S
T1245 1.1326 1 P
T1246 5.6324 1 P
TERO 6.2024 1 P
ED03 8.2324 1 S
ED10 1.6024 1 P
ED10 3.1024 1 S
ED15 13.5224 1 S
ED16 1.3424 1 P
ED18 6.4924 1 S
ED19 2.3624 1 P
ED20 6.0124 1 S
ED24 6.5524 1 S
# 2016  10  14   07    18    36.324    42.8952    13.2330    4.0000     2     0.0     0.0    0.0   247
CSP1 7.4457 1 S
FDMO 6.6157 1 S
GIGS 17.2057 1 S
MC2 0.9359 1 P
MMO1 1.1858 1 P
NRCA 2.0159 1 P
T1212 7.2757 1 S
T1214 5.2257 1 S
T1215 10.1057 1 S
T1216 5.9357 1 S
T1217 10.4157 1 S
T1218 8.7857 1 S
T1245 1.0259 1 P
T1246 12.4457 1 S
ED02 12.8857 1 S
ED03 10.5457 1 S
ED07 11.1257 1 S
ED11 9.0557 1 S
ED12 7.5957 1 S
ED17 1.5857 1 P
ED18 3.6657 1 S
ED19 1.4457 1 P
ED21 2.6457 1 P
ED21 4.9857 1 S
ED22 4.9957 1 S
# 2016  10  14   07    20    48.741    42.6530    13.3378    8.0000     2     0.0     0.0    0.0   248
CAMP 4.9394 1 S
NRCA 8.5696 1 S
RM33 3.2394 1 P
SMA1 1.3894 1 P
SMA1 2.6994 1 S
T1201 1.9194 1 P
T1201 3.6094 1 S
T1204 1.4594 1 P
T1218 3.1394 1 P
T1218 6.1694 1 S
T1241 4.3094 1 P
T1246 5.2594 1 S
T1299 3.0294 1 S
TERO 3.7794 1 P
TERO 7.0594 1 S
ED03 2.4594 1 P
ED07 2.3694 1 P
ED07 4.1494 1 S
ED09 6.0594 1 S
ED16 7.2294 1 S
ED20 4.8294 1 S
ED24 2.4094 1 P
ED24 4.6594 1 S
ED25 1.6894 1 P
ED25 3.0394 1 S
# 2016  10  14   07    32    18.494    42.6330    13.3378    8.0000     2     0.0     0.0    0.0   249
MMO1 5.4060 1 P
RM33 6.0559 1 S
SMA1 1.2759 1 P
SMA1 2.5959 1 S
T1201 3.4859 1 S
T1204 2.8459 1 S
T1246 5.1859 1 S
T1299 1.4460 1 P
T1299 2.9159 1 S
TERO 3.6859 1 P
TERO 6.9559 1 S
ED07 2.2159 1 P
ED10 4.0059 1 P
ED16 7.1659 1 S
ED20 2.4759 1 P
ED24 4.4859 1 S
ED25 1.5559 1 P
ED25 3.2659 1 S
# 2016  10  14   07    33    56.069    42.8160    13.1568    10.0000     2     0.0     0.0    0.0   250
CESI 9.3611 1 S
CSP1 9.9009 1 S
FDMO 4.7409 1 P
MC2 2.6911 1 P
NRCA 1.8311 1 P
RM33 10.6809 1 S
T1201 3.6609 1 P
T1201 6.9309 1 S
T1202 5.3709 1 S
T1211 12.8309 1 S
T1212 4.7909 1 S
T1214 2.0909 1 P
T1214 3.9409 1 S
T1215 4.4809 1 P
T1215 8.3309 1 S
T1216 3.0409 1 P
T1217 7.4209 1 S
T1218 3.0909 1 P
T1218 5.7709 1 S
T1245 2.1211 1 P
T1246 6.0909 1 P
TERO 6.8609 1 P
TERO 12.9609 1 S
ED07 5.3509 1 P
ED07 9.9809 1 S
ED09 3.8009 1 P
ED10 3.2409 1 S
ED11 5.9509 1 S
ED12 3.0609 1 P
ED12 5.2609 1 S
ED16 2.8109 1 P
ED16 5.3909 1 S
ED17 7.4009 1 S
ED19 2.3709 1 P
ED20 4.0309 1 P
ED20 7.6309 1 S
ED21 4.9109 1 P
ED21 8.4309 1 S
ED24 3.2409 1 P
ED24 6.4009 1 S
ED25 9.3909 1 S
# 2016  10  14   07    42    09.302    42.8732    13.2215    0.0000     2     0.0     0.0    0.0   251
MC2 2.0982 1 S
MMO1 1.7781 1 P
NRCA 1.7382 1 P
T1216 3.2180 1 P
T1218 8.3480 1 S
T1245 0.4582 1 P
T1246 12.7680 1 S
ED07 11.2680 1 S
ED16 3.2880 1 S
ED17 2.3380 1 P
ED17 4.4980 1 S
ED18 2.5180 1 P
ED19 1.5780 1 P
ED19 2.9680 1 S
ED20 3.9880 1 P
ED20 7.5880 1 S
ED21 3.4180 1 P
ED21 6.1380 1 S
ED22 6.3080 1 S
ED24 8.7680 1 S
# 2016  10  14   07    43    00.676    42.8390    13.1505    4.0000     2     0.0     0.0    0.0   252
CESI 4.8038 1 P
CESI 9.0640 1 S
CSP1 4.9638 1 P
CSP1 9.4038 1 S
FDMO 7.5038 1 S
GIGS 16.6638 1 S
MC2 1.8040 1 P
MC2 3.2540 1 S
MMO1 2.6739 1 P
MMO1 5.1639 1 S
NRCA 0.9140 1 P
T1201 3.9338 1 P
T1202 5.6238 1 S
T1212 2.4338 1 P
T1212 4.6138 1 S
T1214 1.7838 1 P
T1215 4.1038 1 P
T1215 7.6938 1 S
T1216 2.3038 1 P
T1216 4.4138 1 S
T1218 3.3038 1 P
T1218 6.0738 1 S
T1241 7.8238 1 S
T1245 0.8940 1 P
T1246 6.3638 1 P
ED02 5.2838 1 P
ED03 4.5038 1 P
ED03 8.6638 1 S
ED05 13.3038 1 S
ED06 13.1538 1 S
ED07 5.5238 1 P
ED07 10.7038 1 S
ED09 7.2738 1 S
ED10 1.3338 1 P
ED11 3.3238 1 P
ED12 2.7138 1 P
ED15 15.1838 1 S
ED16 4.5138 1 S
ED17 3.2238 1 P
ED18 3.3138 1 P
ED19 1.8438 1 P
ED19 3.4838 1 S
ED20 4.0138 1 P
ED21 3.9838 1 P
ED21 7.5438 1 S
ED22 7.8138 1 S
ED24 3.4838 1 P
# 2016  10  14   07    48    47.949    42.6055    13.2128    10.0000     2     0.0     0.0    0.0   253
RM33 4.8206 1 S
SMA1 4.2606 1 S
T1201 1.9506 1 P
T1201 3.6506 1 S
T1202 4.7106 1 S
T1204 4.5606 1 S
T1218 4.4706 1 S
TERO 5.2506 1 P
ED02 4.3506 1 P
ED03 1.7006 1 P
ED04 4.0006 1 S
ED05 6.6606 1 S
ED07 3.6006 1 P
ED11 6.3306 1 S
ED12 5.1906 1 P
ED24 1.8306 1 P
ED24 3.5106 1 S
ED25 2.5206 1 P
ED25 4.7306 1 S
# 2016  10  14   08    01    48.388    43.0893    12.9702    4.0000     2     0.0     0.0    0.0   254
NRCA 10.0422 1 S
SEF1 1.3422 1 P
SMA1 9.8820 1 P
T1201 8.7920 1 P
T1202 7.8520 1 P
T1204 8.9920 1 P
T1214 7.0920 1 P
T1215 10.8420 1 S
T1218 8.3820 1 P
T1245 9.7022 1 S
T1246 11.6020 1 P
T1299 9.3121 1 P
TERO 12.4320 1 P
ED03 9.4020 1 P
ED05 12.1320 1 P
ED07 10.9020 1 P
ED24 8.3820 1 P
ED25 10.4220 1 P
# 2016  10  14   08    01    54.751    42.7596    13.1837    4.0000     2     0.0     0.0    0.0   255
CAMP 9.4691 1 S
MMO1 6.8792 1 S
NRCA 2.0593 1 P
NRCA 3.6793 1 S
RM33 9.0791 1 S
SMA1 3.5191 1 P
T1201 2.4291 1 P
T1202 1.4891 1 P
T1204 2.6291 1 P
T1204 5.1891 1 S
T1212 1.9991 1 P
T1214 0.7291 1 P
T1215 4.4791 1 P
T1217 7.2191 1 S
T1218 2.0191 1 P
T1246 5.2391 1 P
T1246 9.9491 1 S
T1299 2.9492 1 P
TERO 6.0691 1 P
TERO 11.4391 1 S
ED02 4.5191 1 P
ED02 8.5191 1 S
ED03 3.0391 1 P
ED03 5.9391 1 S
ED05 5.7691 1 P
ED05 10.6291 1 S
ED07 4.5391 1 P
ED10 1.0191 1 P
ED11 2.5291 1 P
ED12 3.1891 1 P
ED14 12.3991 1 S
ED15 12.5191 1 S
ED16 2.6391 1 P
ED17 4.4791 1 P
ED19 6.1191 1 S
ED20 3.4691 1 P
ED20 6.7091 1 S
ED24 2.0191 1 P
ED25 4.0591 1 P
# 2016  10  14   08    06    29.519    42.8560    13.0968    4.0000     2     0.0     0.0    0.0   256
CESI 6.9613 1 S
FDMO 3.3411 1 P
FDMO 6.3311 1 S
FEMA 4.0211 1 S
MC2 3.9013 1 S
MMO1 6.6712 1 S
NRCA 0.8013 1 P
T1201 4.2511 1 P
T1211 13.3011 1 S
T1212 2.3111 1 P
T1212 4.5611 1 S
T1215 3.2311 1 P
T1215 6.2311 1 S
T1217 3.6611 1 P
T1218 3.7611 1 P
T1218 7.2011 1 S
T1245 3.2713 1 S
ED02 9.9911 1 S
ED09 9.1511 1 S
ED10 1.8711 1 P
ED10 3.6211 1 S
ED11 6.9311 1 S
ED12 1.8911 1 P
ED17 3.5811 1 P
ED17 6.9911 1 S
ED18 6.4011 1 S
ED19 1.4011 1 P
ED20 4.9411 1 P
ED21 3.9911 1 P
ED21 7.7211 1 S
ED22 8.4311 1 S
# 2016  10  14   08    07    37.722    42.7620    13.2312    2.0000     2     0.0     0.0    0.0   257
CAMP 4.8184 1 P
CAMP 9.1984 1 S
CESI 12.3386 1 S
CSP1 11.8184 1 S
FDMO 10.6884 1 S
MC2 5.9686 1 S
MMO1 2.7485 1 P
NRCA 2.1686 1 P
SMA1 2.9184 1 P
T1201 2.4884 1 P
T1202 1.4984 1 P
T1204 2.2284 1 P
T1204 4.4684 1 S
T1212 2.8184 1 P
T1214 0.4684 1 P
T1215 9.8384 1 S
T1216 7.2384 1 S
T1218 2.6684 1 P
T1245 2.0486 1 P
T1246 4.7684 1 P
T1246 9.2184 1 S
T1299 2.8985 1 P
T1299 5.7184 1 S
ED01 5.0084 1 P
ED02 5.2884 1 P
ED03 3.3184 1 P
ED06 11.1684 1 S
ED07 3.8884 1 P
ED09 2.5484 1 P
ED10 1.5084 1 P
ED11 3.3184 1 P
ED12 3.7784 1 P
ED12 7.4184 1 S
ED16 1.6784 1 P
ED18 4.2684 1 P
ED18 8.3984 1 S
ED19 3.2984 1 P
ED19 6.3784 1 S
ED20 2.5884 1 P
ED21 4.8284 1 P
ED21 9.5584 1 S
ED22 9.1684 1 S
ED24 2.2884 1 P
ED25 3.5084 1 P
# 2016  10  14   08    08    29.570    42.6581    13.2148    8.0000     2     0.0     0.0    0.0   258
FDMO 13.3502 1 S
GIGS 11.3502 1 S
MC2 9.5104 1 S
MMO1 4.7403 1 P
MMO1 9.0003 1 S
NRCA 3.6304 1 P
NRCA 6.7204 1 S
RM33 3.1102 1 P
SMA1 2.5502 1 P
T1201 1.6802 1 P
T1202 1.8502 1 P
T1204 2.1702 1 P
T1204 3.6402 1 S
T1211 5.4602 1 P
T1212 3.1002 1 P
T1212 5.6602 1 S
T1214 2.3602 1 P
T1214 4.3602 1 S
T1215 9.9302 1 S
T1217 7.7202 1 S
T1218 1.9202 1 P
T1218 3.5202 1 S
T1241 5.0402 1 P
T1245 7.4304 1 S
T1299 3.4102 1 S
TERO 5.2902 1 P
ED01 3.2902 1 P
ED02 4.1602 1 P
ED03 1.7102 1 P
ED03 3.5702 1 S
ED04 4.8702 1 S
ED05 4.1602 1 P
ED05 7.7802 1 S
ED06 3.9602 1 P
ED06 7.4902 1 S
ED07 3.7102 1 P
ED07 6.9602 1 S
ED08 4.5802 1 P
ED09 3.8702 1 P
ED10 4.7602 1 S
ED11 2.8502 1 P
ED12 8.1402 1 S
ED14 9.7102 1 S
ED15 10.1402 1 S
ED16 3.8302 1 P
ED16 7.2102 1 S
ED17 5.6802 1 P
ED17 10.8302 1 S
ED18 6.1002 1 P
ED19 5.0002 1 P
ED19 9.4302 1 S
ED20 3.3502 1 P
ED21 6.7302 1 P
ED22 12.7802 1 S
ED24 1.3802 1 P
ED25 2.8602 1 P
# 2016  10  14   08    09    45.879    42.6130    13.2978    4.0000     2     0.0     0.0    0.0   259
NRCA 8.8409 1 S
SMA1 0.9607 1 P
SMA1 2.1507 1 S
T1201 2.6207 1 S
T1204 1.2307 1 P
T1204 2.7407 1 S
T1299 0.7208 1 P
T1299 1.7807 1 S
TERO 4.0007 1 P
TERO 7.7707 1 S
ED04 2.2407 1 S
ED05 5.3307 1 S
ED07 2.1707 1 P
ED24 3.6007 1 S
ED25 1.0407 1 P
ED25 2.5207 1 S
# 2016  10  14   08    11    41.381    42.8190    13.2105    6.0000     2     0.0     0.0    0.0   260
CESI 10.6389 1 S
MC2 2.3089 1 P
MMO1 2.5188 1 P
MMO1 4.8188 1 S
NRCA 1.6789 1 P
NRCA 2.8789 1 S
T1202 4.5987 1 S
T1212 2.8287 1 P
T1212 5.2787 1 S
T1214 1.3787 1 P
T1214 2.8587 1 S
T1215 4.8287 1 P
T1216 5.9987 1 S
T1217 8.4787 1 S
T1218 3.1687 1 P
T1218 6.0087 1 S
T1245 1.3689 1 P
T1246 5.6287 1 P
TERO 6.3487 1 P
TERO 11.6787 1 S
ED01 10.9187 1 S
ED02 5.5587 1 P
ED02 10.2787 1 S
ED03 7.8287 1 S
ED05 6.4987 1 P
ED05 12.1187 1 S
ED07 4.9487 1 P
ED07 8.8587 1 S
ED09 2.9987 1 P
ED09 5.6987 1 S
ED10 1.4587 1 P
ED10 2.6287 1 S
ED11 6.8587 1 S
ED12 3.4987 1 P
ED12 6.5687 1 S
ED14 7.3287 1 P
ED16 1.7587 1 P
ED16 3.4887 1 S
ED17 3.3187 1 P
ED17 6.3187 1 S
ED19 2.5787 1 P
ED19 4.8087 1 S
ED20 3.2887 1 P
ED20 6.1687 1 S
ED24 6.1187 1 S
# 2016  10  14   08    12    24.799    42.8760    13.0968    2.0000     2     0.0     0.0    0.0   261
CESI 6.9415 1 S
FDMO 3.2913 1 P
FDMO 6.3313 1 S
MC2 2.7615 1 S
MMO1 3.5814 1 P
MMO1 6.8014 1 S
NRCA 0.9515 1 P
T1201 9.6213 1 S
T1212 2.4313 1 P
T1212 4.6913 1 S
T1215 3.3213 1 P
T1216 1.1113 1 P
T1217 7.2813 1 S
T1218 7.4113 1 S
T1245 3.3815 1 S
ED10 2.0813 1 P
ED11 3.9313 1 P
ED11 6.8213 1 S
ED12 2.0313 1 P
ED17 3.7013 1 P
ED18 3.4413 1 P
ED18 6.5113 1 S
ED19 1.4913 1 P
ED24 8.3713 1 S
# 2016  10  14   08    17    03.625    42.7996    13.0837    8.0000     2     0.0     0.0    0.0   262
CESI 8.6248 1 S
FDMO 8.6347 1 S
MMO1 7.5548 1 S
NRCA 2.7648 1 S
T1212 3.3847 1 S
T1215 5.9247 1 S
T1218 5.4247 1 S
T1245 4.1848 1 S
T1246 6.8347 1 P
ED10 1.5647 1 P
ED10 3.0647 1 S
ED11 4.9447 1 S
ED12 2.1947 1 P
ED12 3.6547 1 S
ED18 8.1547 1 S
ED19 2.5847 1 P
ED21 4.9147 1 P
ED24 6.5147 1 S
# 2016  10  14   08    18    32.889    42.6381    13.3348    8.0000     2     0.0     0.0    0.0   263
CAMP 4.8705 1 S
GIGS 8.8405 1 S
MMO1 9.0806 1 S
SMA1 1.3605 1 P
T1204 1.4105 1 P
T1246 2.8005 1 P
T1246 5.0305 1 S
T1299 1.3706 1 P
TERO 3.7605 1 P
TERO 7.0805 1 S
ED01 7.6805 1 S
ED03 2.4405 1 P
ED04 2.0805 1 P
ED04 3.5305 1 S
ED05 6.2605 1 S
ED06 3.8005 1 P
ED06 7.1905 1 S
ED07 2.3405 1 P
ED09 3.2505 1 P
ED14 4.1805 1 P
ED14 7.8405 1 S
ED22 12.6805 1 S
ED24 2.4105 1 P
ED24 4.7105 1 S
ED25 1.5405 1 P
# 2016  10  14   08    20    18.990    42.6530    13.3378    10.0000     2     0.0     0.0    0.0   264
CAMP 5.1699 1 S
SMA1 1.6899 1 P
SMA1 3.0399 1 S
T1201 2.1699 1 P
T1201 3.9199 1 S
T1204 1.7399 1 P
T1204 3.3299 1 S
T1214 5.7899 1 S
T1218 3.4199 1 P
T1218 6.1999 1 S
T1246 3.0799 1 P
T1246 5.5399 1 S
T1299 1.8500 1 P
T1299 3.4199 1 S
TERO 4.0499 1 P
TERO 7.3499 1 S
ED03 4.9099 1 S
ED07 2.6199 1 P
ED11 8.0899 1 S
ED20 5.2099 1 S
ED24 2.6999 1 P
ED24 4.8999 1 S
ED25 1.9399 1 P
ED25 3.7399 1 S
# 2016  10  14   08    22    19.314    42.6530    13.3378    8.0000     2     0.0     0.0    0.0   265
CAMP 4.9158 1 S
SMA1 1.3858 1 P
SMA1 2.5558 1 S
T1201 1.8758 1 P
T1201 3.5658 1 S
T1204 1.5158 1 P
T1204 2.8658 1 S
T1218 3.1758 1 P
T1218 5.9558 1 S
T1246 2.8358 1 P
T1246 5.2558 1 S
T1299 1.5359 1 P
TERO 3.7858 1 P
TERO 7.0458 1 S
ED03 4.6758 1 S
ED04 3.9258 1 S
ED05 6.2858 1 S
ED07 2.3358 1 P
ED09 6.0858 1 S
ED10 7.1258 1 S
ED18 12.2458 1 S
ED19 10.7358 1 S
ED20 2.5958 1 P
ED21 13.2258 1 S
ED24 2.4458 1 P
ED24 4.6358 1 S
ED25 1.6458 1 P
# 2016  10  14   08    23    13.000    42.6530    13.3378    8.0000     2     0.0     0.0    0.0   266
CAMP 2.7504 1 P
CAMP 5.0604 1 S
CSP1 15.6004 1 S
FDMO 14.8104 1 S
MC2 10.2406 1 S
MMO1 8.9905 1 S
NRCA 4.7006 1 P
RM33 6.3704 1 S
SMA1 1.4004 1 P
T1201 2.0204 1 P
T1204 1.6104 1 P
T1211 6.7504 1 P
T1212 4.5504 1 P
T1212 8.2904 1 S
T1214 5.4204 1 S
T1217 10.3904 1 S
T1218 3.3104 1 P
T1245 8.5806 1 S
T1246 2.9404 1 P
T1246 5.3704 1 S
T1247 7.8104 1 S
T1299 1.7005 1 P
TERO 3.9204 1 P
TERO 7.2004 1 S
ED01 4.2104 1 P
ED02 5.5804 1 P
ED03 2.6204 1 P
ED04 2.1904 1 P
ED04 3.8504 1 S
ED05 3.4704 1 P
ED05 6.1704 1 S
ED06 4.0004 1 P
ED06 7.3604 1 S
ED09 3.3504 1 P
ED10 3.8404 1 P
ED10 7.0104 1 S
ED11 4.3104 1 P
ED11 7.9404 1 S
ED12 6.0904 1 P
ED14 4.2004 1 P
ED14 7.8204 1 S
ED15 3.9804 1 P
ED15 7.3704 1 S
ED16 4.0104 1 P
ED17 5.9304 1 P
ED17 11.0104 1 S
ED18 6.6304 1 P
ED18 12.2304 1 S
ED19 5.8404 1 P
ED19 10.7604 1 S
ED20 2.6204 1 P
ED21 7.1304 1 P
ED21 13.0904 1 S
ED22 12.7004 1 S
ED24 2.5704 1 P
ED25 1.6504 1 P
# 2016  10  14   08    26    20.991    42.6530    13.3378    8.0000     2     0.0     0.0    0.0   267
CAMP 4.9389 1 S
CSP1 15.8289 1 S
FDMO 14.8089 1 S
MC2 10.2591 1 S
MMO1 9.1090 1 S
NRCA 8.6091 1 S
SMA1 1.4089 1 P
T1201 1.9389 1 P
T1201 3.6389 1 S
T1204 1.5689 1 P
T1212 4.4989 1 P
T1212 8.2389 1 S
T1218 3.2389 1 P
T1218 5.9789 1 S
T1246 2.9589 1 P
T1246 5.2589 1 S
T1299 1.6290 1 P
TERO 3.8389 1 P
TERO 7.0789 1 S
ED03 2.5489 1 P
ED04 2.0989 1 P
ED04 3.9689 1 S
ED05 6.2089 1 S
ED07 2.3889 1 P
ED09 3.2789 1 P
ED09 6.1589 1 S
ED10 7.1089 1 S
ED11 4.2389 1 P
ED11 7.8389 1 S
ED14 7.9189 1 S
ED15 7.2589 1 S
ED17 10.9589 1 S
ED18 12.2689 1 S
ED19 10.6989 1 S
ED20 2.6289 1 P
ED21 13.1489 1 S
ED22 12.7289 1 S
ED24 2.5089 1 P
ED24 4.6989 1 S
ED25 1.6489 1 P
# 2016  10  14   08    27    19.021    42.8732    13.0615    4.0000     2     0.0     0.0    0.0   268
CAMP 14.2792 1 S
CESI 6.8394 1 S
CSP1 4.4992 1 P
FDMO 3.1092 1 P
MC2 1.9394 1 P
MMO1 6.8793 1 S
NRCA 1.0394 1 P
T1212 2.4792 1 P
T1212 4.8292 1 S
T1215 3.2592 1 P
T1215 6.2292 1 S
T1216 1.0292 1 P
T1217 3.7792 1 P
T1217 7.3392 1 S
T1218 7.4692 1 S
T1245 2.1494 1 P
ED02 10.2292 1 S
ED03 10.3192 1 S
ED07 13.3692 1 S
ED10 2.1492 1 P
ED11 6.9692 1 S
ED12 1.7292 1 P
ED16 6.8792 1 S
ED17 3.6592 1 P
ED18 3.2392 1 P
ED19 1.3292 1 P
ED20 10.1792 1 S
ED21 3.9992 1 P
ED21 7.8092 1 S
ED22 8.5892 1 S
ED24 8.5492 1 S
# 2016  10  14   08    29    25.700    42.6398    13.2333    10.0000     2     0.0     0.0    0.0   269
ARRO 6.6504 1 P
GIGS 10.6902 1 S
MMO1 9.8503 1 S
NRCA 4.2104 1 P
NRCA 7.6604 1 S
RM33 5.6502 1 S
SMA1 2.3702 1 P
SMA1 3.9602 1 S
T1201 1.6302 1 P
T1202 2.1802 1 P
T1204 2.2302 1 P
T1204 4.0302 1 S
T1211 5.6902 1 P
T1211 10.3502 1 S
T1212 6.6402 1 S
T1215 5.8902 1 P
T1215 10.7802 1 S
T1217 4.5802 1 P
T1217 8.4102 1 S
T1218 2.2102 1 P
T1246 4.0802 1 P
T1246 7.4602 1 S
T1299 1.7203 1 P
TERO 5.2202 1 P
ED01 3.3002 1 P
ED01 6.1402 1 S
ED02 4.4702 1 P
ED02 8.1002 1 S
ED03 1.5902 1 P
ED04 4.3302 1 S
ED05 4.0402 1 P
ED05 7.2002 1 S
ED06 6.9502 1 S
ED07 3.6402 1 P
ED09 7.6102 1 S
ED10 3.2702 1 P
ED10 5.8002 1 S
ED11 3.2402 1 P
ED12 5.0402 1 P
ED12 9.2302 1 S
ED14 9.2602 1 S
ED16 7.9902 1 S
ED17 6.3002 1 P
ED17 11.6302 1 S
ED18 6.8302 1 P
ED18 12.5902 1 S
ED19 10.3802 1 S
ED20 3.7202 1 P
ED20 6.7102 1 S
ED21 13.6902 1 S
ED24 1.6202 1 P
ED25 2.6302 1 P
ED25 4.7402 1 S
# 2016  10  14   08    32    40.393    42.7940    13.0872    10.0000     2     0.0     0.0    0.0   270
CESI 9.0271 1 S
CSP1 6.1869 1 P
FDMO 4.7569 1 P
MMO1 7.9170 1 S
T1212 2.0369 1 P
T1215 6.1769 1 S
T1216 2.6069 1 P
T1216 4.5269 1 S
T1245 4.5371 1 S
ED11 5.3069 1 S
ED12 2.3369 1 P
ED12 3.9769 1 S
ED16 6.8369 1 S
ED17 8.4469 1 S
ED18 8.5169 1 S
ED19 2.9369 1 P
ED19 5.2569 1 S
ED21 5.2769 1 P
# 2016  10  14   08    33    51.419    42.7596    13.1437    8.0000     2     0.0     0.0    0.0   271
CAMP 10.4005 1 S
CESI 10.3707 1 S
CSP1 11.9505 1 S
FDMO 5.3405 1 P
FDMO 9.8205 1 S
FEMA 7.8305 1 S
MC2 5.8007 1 S
MMO1 3.7806 1 P
MMO1 7.1706 1 S
NRCA 1.8707 1 P
T1201 3.0905 1 P
T1204 3.3005 1 P
T1212 1.9505 1 P
T1214 1.8805 1 P
T1215 3.8605 1 P
T1216 3.2405 1 P
T1216 5.7305 1 S
T1217 3.2505 1 P
T1217 6.1605 1 S
T1218 2.3005 1 P
T1245 2.4107 1 P
T1245 4.5807 1 S
T1246 5.7205 1 P
T1246 10.9705 1 S
TERO 6.6005 1 P
TERO 12.5605 1 S
ED02 4.2205 1 P
ED02 7.9705 1 S
ED05 11.4005 1 S
ED07 5.0305 1 P
ED09 3.9405 1 P
ED10 1.4205 1 P
ED11 2.4605 1 P
ED11 4.6205 1 S
ED12 2.7405 1 P
ED14 7.1305 1 P
ED14 13.2705 1 S
ED16 3.1605 1 P
ED17 4.4105 1 P
ED17 8.4205 1 S
ED18 4.7105 1 P
ED18 8.6805 1 S
ED19 3.2205 1 P
ED19 6.0705 1 S
ED20 4.0205 1 P
ED21 5.3005 1 P
ED21 9.9405 1 S
ED22 9.9505 1 S
ED24 2.5705 1 P
ED24 4.9005 1 S
ED25 4.3505 1 P
# 2016  10  14   08    34    39.345    42.7996    13.0837    8.0000     2     0.0     0.0    0.0   272
CSP1 5.7445 1 P
FDMO 4.4045 1 P
FDMO 8.7345 1 S
MC2 2.9147 1 P
MMO1 7.3446 1 S
NRCA 2.7447 1 S
T1212 1.7645 1 P
T1214 2.4145 1 P
T1215 3.2045 1 P
T1215 5.8545 1 S
T1216 4.2545 1 S
T1218 2.9645 1 P
T1218 5.4945 1 S
T1245 4.2647 1 S
T1246 6.9445 1 P
ED10 1.6145 1 P
ED10 3.1345 1 S
ED12 2.0545 1 P
ED12 3.7045 1 S
ED16 6.6445 1 S
ED17 8.1445 1 S
ED18 4.2845 1 P
ED18 8.1945 1 S
ED19 2.6645 1 P
ED19 4.9845 1 S
ED21 4.9945 1 P
ED21 9.3445 1 S
ED22 9.9245 1 S
# 2016  10  14   08    44    51.766    42.7996    13.1637    4.0000     2     0.0     0.0    0.0   273
NRCA 1.2641 1 P
NRCA 2.4341 1 S
T1201 3.2539 1 P
T1212 1.9939 1 P
T1212 3.8139 1 S
T1214 1.3339 1 P
T1214 2.7039 1 S
T1218 2.6639 1 P
T1218 5.0039 1 S
T1245 2.4741 1 S
T1246 11.0439 1 S
TERO 12.5439 1 S
ED07 9.7439 1 S
ED10 0.9139 1 P
ED11 2.8939 1 P
ED11 5.5439 1 S
ED12 4.8239 1 S
ED17 3.7839 1 P
ED19 4.8539 1 S
ED20 7.2039 1 S
ED21 8.9139 1 S
ED24 5.4739 1 S
# 2016  10  14   08    45    48.434    42.8932    13.0615    2.0000     2     0.0     0.0    0.0   274
ARRO 7.4860 1 P
FDMO 3.2158 1 P
FEMA 2.7358 1 S
GIGS 10.6358 1 P
MC2 1.8060 1 P
MMO1 3.6459 1 P
NRCA 1.5060 1 P
RM33 7.3758 1 P
RM33 14.1458 1 S
SMA1 6.3958 1 P
T1201 5.5958 1 P
T1204 5.6558 1 P
T1211 7.4558 1 P
T1212 2.4558 1 P
T1214 3.4458 1 P
T1215 3.3158 1 P
T1216 0.7858 1 P
T1217 4.0058 1 P
T1218 4.2558 1 P
T1245 1.7460 1 P
T1246 8.1658 1 P
T1247 9.2058 1 P
T1299 6.0859 1 P
T1299 11.2758 1 S
TERO 8.7758 1 P
TERO 16.3958 1 S
ED01 6.9558 1 P
ED01 12.9758 1 S
ED02 5.8858 1 P
ED03 5.8658 1 P
ED04 7.2658 1 P
ED05 8.7558 1 P
ED05 16.1658 1 S
ED06 8.3658 1 P
ED06 15.4258 1 S
ED07 7.4958 1 P
ED07 14.0958 1 S
ED08 7.9558 1 P
ED09 5.4458 1 P
ED09 10.1358 1 S
ED10 2.6158 1 P
ED11 3.8858 1 P
ED12 1.7858 1 P
ED14 9.6458 1 P
ED14 18.3658 1 S
ED15 9.3958 1 P
ED16 7.3458 1 S
ED17 3.7058 1 P
ED18 3.3858 1 P
ED19 1.2258 1 P
ED20 5.8358 1 P
ED21 3.8758 1 P
ED24 4.8658 1 P
ED25 6.9958 1 P
# 2016  10  14   08    53    27.036    42.6330    13.3178    4.0000     2     0.0     0.0    0.0   275
CAMP 2.2436 1 P
NRCA 4.8338 1 P
NRCA 8.9238 1 S
SMA1 0.5836 1 P
T1201 1.4236 1 P
T1204 1.2136 1 P
T1204 2.4336 1 S
T1218 5.5336 1 S
T1246 2.6536 1 P
T1246 5.1836 1 S
T1299 0.8737 1 P
T1299 1.7936 1 S
TERO 3.8836 1 P
TERO 7.5836 1 S
ED03 1.9336 1 P
ED04 2.6136 1 S
ED05 5.6836 1 S
ED07 2.1436 1 P
ED24 2.0936 1 P
ED25 1.0936 1 P
# 2016  10  14   08    54    36.853    42.8590    13.1505    4.0000     2     0.0     0.0    0.0   276
MC2 1.3972 1 P
MC2 2.8272 1 S
MMO1 5.0071 1 S
NRCA 1.0372 1 P
NRCA 2.0172 1 S
T1212 5.2270 1 S
T1216 2.0070 1 P
T1245 0.9972 1 P
T1246 12.9570 1 S
ED09 7.6270 1 S
ED10 3.1170 1 S
ED12 5.4070 1 S
ED16 4.7270 1 S
ED17 2.9470 1 P
ED17 5.6270 1 S
ED18 5.4570 1 S
ED19 1.3670 1 P
ED19 2.4570 1 S
ED20 8.3170 1 S
ED21 6.7970 1 S
